source_system,org_id_source,org_name,org_type,address_line1,city,state,postal_code,country,updated_at,org_name_raw,address_raw,postal_raw
CRM_A,CRM_A_O_ORG_0000_906,Bhalla-Bhalla Clinic,Clinic,63/30 dutt street,Kota,KA,887159,IN,2026-01-05T14:15:07,Bhalla-Bhalla Clinic,"63/30
Dutt Street",887159
CRM_B,CRM_B_O_ORG_0000_420,Bhalla-Bhalla Clnc,Clinic,63/30 dutt street,Kota,KA,887159,IN,2025-10-29T05:46:15,Bhalla-Bhalla Clnc,"63/30
Dutt Street",887159
CRM_A,CRM_A_O_ORG_0001_641,Ram-Sanghvi Clinic,Clinic,99/21 suresh street,Erode,NJ,40332,US,2026-01-27T20:08:45,Ram-Sanghvi Clinic,"99/21
Suresh Street",40332
CRM_B,CRM_B_O_ORG_0001_936,Ram-Sanghvi Clnc,Clinic,99/21 suresh street,Erode,NJ,40332,US,2025-11-18T03:20:48,Ram-Sanghvi Clnc,"99/21
Suresh Street",40332
CRM_A,CRM_A_O_ORG_0002_168,Chaudhary And Sons Diagnostic Center,Diagnostic Center,h.no. 59 goel path,Sikar,AL,43738,US,2025-10-17T08:14:34,Chaudhary and Sons Diagnostic Center,"H.No. 59, Goel Path",43738
CRM_B,CRM_B_O_ORG_0002_687,Chaudhary And Sons Diagnostic Ctr,Diagnostic Center,h.no. 59 goel path,Sikar,AL,43738,US,2025-11-02T02:55:08,Chaudhary and Sons Diagnostic Ctr,"H.No. 59, Goel Path",43738
CRM_A,CRM_A_O_ORG_0003_689,Rao-Dutta Hospital,Hospital,29/59 modi nagar,Aurangabad,IL,24450,US,2025-11-11T07:16:03,Rao-Dutta Hospital,"29/59, Modi Nagar",24450
CRM_B,CRM_B_O_ORG_0003_369,Rao-Dutta Hospital,Hospital,29/59 modi nagar,Aurangabad,IL,24450,US,2025-12-16T21:05:52,Rao-Dutta Hospital,"29/59, Modi Nagar",24450
CRM_B,CRM_B_O_ORG_0003_186,Rao-Dutta Hospital,Hospital,29/59 modi nagar,Aurangabad,IL,24450,US,2025-12-08T12:42:34,Rao-Dutta Hospital,"29/59, Modi Nagar",24450
CRM_A,CRM_A_O_ORG_0004_489,Tara-Patla Clinic,Clinic,63 gill chowk,Erode,MI,35674,US,2025-10-14T05:27:08,Tara-Patla Clinic,"63, Gill Chowk",35674
CRM_B,CRM_B_O_ORG_0004_238,Tara-Patla Clinic,Clinic,63 gill chowk,Erode,MI,35674,US,2026-01-07T17:36:40,Tara-Patla Clinic,"63, Gill Chowk",35674
CRM_A,CRM_A_O_ORG_0005_597,Trivedi-Pandya Hospital,Hospital,h.no. 76 parmar marg,Mehsana,OH,55205,US,2025-12-07T09:11:12,Trivedi-Pandya Hospital,"H.No. 76
Parmar Marg",55205
CRM_B,CRM_B_O_ORG_0005_445,Trivedi-Pandya Hospital,Hospital,h.no. 76 parmar marg,Mehsana,OH,55205,US,2025-12-11T13:47:55,Trivedi-Pandya Hospital,H.No. 76 Parmar Marg,55205
CRM_A,CRM_A_O_ORG_0006_194,Agrawal-Nagy Clinic,Clinic,65/06 sachdev chowk,Naihati,UP,491727,IN,2025-11-05T15:54:14,Agrawal-Nagy Clinic,"65/06, Sachdev Chowk",491727
CRM_B,CRM_B_O_ORG_0006_825,Agrawal-Nagy Clinic,Clinic,65/06 sachdev chowk,Naihati,UP,491727,IN,2026-01-07T00:40:59,Agrawal-Nagy Clinic,"65/06, Sachdev Chowk",491727
CRM_A,CRM_A_O_ORG_0007_270,Chaudhary Llc Hospital,Hospital,h.no. 92 sachar path,Delhi,PA,36687,US,2025-11-23T13:50:16,Chaudhary LLC Hospital,"H.No. 92, Sachar Path",36687
CRM_B,CRM_B_O_ORG_0007_462,Chaudhary Llc Hospital,Hospital,h.no. 92 sachar path,Delhi,PA,36687,US,2025-11-30T23:33:54,Chaudhary LLC Hospital,"H.No. 92, Sachar Path",36687
CRM_A,CRM_A_O_ORG_0008_152,Gandhi-Samra Hospital,Hospital,97 parikh,Bongaigaon,WA,82810,US,2025-12-26T14:20:39,Gandhi-Samra Hospital,"97
Parikh",82810
CRM_B,CRM_B_O_ORG_0008_641,Gandhi-Samra Hospital,Hospital,97 parikh,Bongaigaon,WA,82810,US,2025-10-20T03:36:51,Gandhi-Samra Hospital,"97
Parikh",82810
CRM_A,CRM_A_O_ORG_0009_104,Mistry Ltd Clinic,Clinic,06 tripathi ganj,Dibrugarh,CO,30455,US,2025-12-04T15:20:38,Mistry Ltd Clinic,"06
Tripathi Ganj",30455
CRM_B,CRM_B_O_ORG_0009_763,Mistry Ltd Clinic,Clinic,06 tripathi ganj,Dibrugarh,CO,30455,US,2025-11-02T09:05:05,Mistry Ltd Clinic,"06
Tripathi Ganj",30455
CRM_A,CRM_A_O_ORG_0010_977,Balay-Merchant Lab,Lab,27 acharya path,Bhopal,VA,61735,US,2026-01-04T15:29:25,Balay-Merchant Lab,"27, Acharya Path",61735
CRM_B,CRM_B_O_ORG_0010_187,Balay-Merchant Lab,Lab,27 acharya path,Bhopal,VA,61735,US,2026-01-15T07:49:04,Balay-Merchant Lab,27 Acharya Path,61735
CRM_A,CRM_A_O_ORG_0011_671,"Dugar, Gole And Natt Pharmacy",Pharmacy,h.no. 238 ghosh nagar,Bilaspur,,97936,US,2025-10-09T18:09:33,"Dugar, Gole and Natt Pharmacy","H.No. 238, Ghosh Nagar",97936
CRM_B,CRM_B_O_ORG_0011_225,"Dugar, Gole And Natt Pharmacy",Pharmacy,h.no. 238 ghosh nagar,Bilaspur,,97936,US,2025-12-14T15:02:51,"Dugar, Gole and Natt Pharmacy","H.No. 238, Ghosh Nagar",97936
CRM_A,CRM_A_O_ORG_0012_566,"Raja, Desai And Tailor Hospital",Hospital,514 shetty circle,Gudivada,PA,28129,US,2026-02-19T03:16:00,"Raja, Desai and Tailor Hospital","514
Shetty Circle",28129
CRM_A,CRM_A_O_ORG_0013_888,Chand-Murty Hospital,Hospital,954 khosla path,Rajahmundry,WB,855018,IN,2026-01-03T13:02:31,Chand-Murty Hospital,"954, Khosla Path",855018
CRM_B,CRM_B_O_ORG_0013_525,Chand-Murty Hospital,Hospital,954 khosla path,Rajahmundry,WB,855018,IN,2025-10-31T21:17:03,Chand-Murty Hospital,"954, Khosla Path",855018
CRM_A,CRM_A_O_ORG_0014_385,"Karan, Narula And Tella Lab",Lab,99/91 palan marg,Karnal,MA,43177,US,2025-10-17T05:28:21,"Karan, Narula and Tella Lab","99/91
Palan Marg",43177
CRM_B,CRM_B_O_ORG_0014_873,"Karan, Narula And Tella Lab",Lab,99/91 palan marg,Karnal,MA,43177,US,2026-01-21T07:22:50,"Karan, Narula and Tella Lab","99/91
Palan Marg",43177
CRM_A,CRM_A_O_ORG_0015_938,"Nori, Dhar And Deol Clinic",Clinic,51/209 bhatti nagar,Mehsana,WB,889303,IN,2025-12-07T13:10:45,"Nori, Dhar and Deol Clinic","51/209
Bhatti Nagar",889303
CRM_B,CRM_B_O_ORG_0015_293,"Nori, Dhar And Deol Clinic",Clinic,51/209 bhatti nagar,Mehsana,WB,889303,IN,2025-11-14T14:18:50,"Nori, Dhar and Deol Clinic","51/209
Bhatti Nagar",889303
CRM_A,CRM_A_O_ORG_0016_581,"Mittal, Shankar And Krish Pharmacy",Pharmacy,h.no. 149 khare marg,Bhusawal,NY,76782,US,2025-12-05T04:07:39,"Mittal, Shankar and Krish Pharmacy","H.No. 149, Khare Marg",76782-3726
CRM_B,CRM_B_O_ORG_0016_435,"Mittal, Shankar And Krish Pharmacy",Pharmacy,h.no. 149 khare marg,Bhusawal,NY,76782,US,2025-11-08T10:02:15,"Mittal, Shankar and Krish Pharmacy","H.No. 149, Khare Marg",76782-3726
CRM_A,CRM_A_O_ORG_0017_659,Char Inc Pharmacy,Pharmacy,04/596 sethi zila,Ghaziabad,UP,622993,IN,2025-10-21T21:52:08,Char Inc Pharmacy,"04/596
Sethi Zila",622993
CRM_B,CRM_B_O_ORG_0017_210,Char Inc Pharmacy,Pharmacy,04/596 sethi zila,Ghaziabad,UP,622993,IN,2025-12-19T16:09:07,Char Inc Pharmacy,"04/596
Sethi Zila",622993
CRM_B,CRM_B_O_ORG_0017_663,Char Incorporated Pharmacy,Pharmacy,04/596 sethi zila,Ghaziabad,UP,622993,IN,2025-11-15T14:21:45,Char Incorporated Pharmacy,"04/596
Sethi Zila",622993
CRM_A,CRM_A_O_ORG_0018_577,Pathak Plc Pharmacy,Pharmacy,h.no. 83 mannan road,Ghaziabad,AZ,53983,US,2025-10-26T03:44:31,Pathak PLC Pharmacy,"H.No. 83
Mannan Road",53983-5148
CRM_B,CRM_B_O_ORG_0018_650,Pathak Plc Pharmacy,Pharmacy,h.no. 83 mannan road,Ghaziabad,AZ,53983,US,2026-01-08T17:24:07,Pathak PLC Pharmacy,"H.No. 83
Mannan Road",53983-5148
CRM_B,CRM_B_O_ORG_0018_340,Pathak Plc Pharmacy,Pharmacy,h.no. 83 mannan road,Ghaziabad,AZ,53983,US,2025-12-01T03:03:38,Pathak PLC Pharmacy,"H.No. 83
Mannan Road",53983-5148
CRM_A,CRM_A_O_ORG_0019_637,"Mahajan, Ganguly And Chakraborty Diagnostic Center",Diagnostic Center,42/084 varkey zila,Bongaigaon,MA,83700,US,2026-01-17T18:54:46,"Mahajan, Ganguly and Chakraborty Diagnostic Center","42/084, Varkey Zila",83700
CRM_B,CRM_B_O_ORG_0019_949,"Mahajan, Ganguly And Chakraborty Diagnostic Center",Diagnostic Center,42/084 varkey zila,Bongaigaon,MA,83700,US,2026-01-12T18:45:00,"Mahajan, Ganguly and Chakraborty Diagnostic Center","42/084, Varkey Zila",83700
CRM_A,CRM_A_O_ORG_0020_157,"Ray, Nagi And Madan Hospital",Hospital,87 nair street,Visakhapatnam,MH,219248,IN,2025-10-29T04:05:54,"Ray, Nagi and Madan Hospital","87, Nair Street",219248
CRM_B,CRM_B_O_ORG_0020_316,"Ray, Nagi And Madan Hospital",Hospital,87 nair street,Visakhapatnam,MH,219248,IN,2025-10-26T14:55:59,"Ray, Nagi and Madan Hospital","87, Nair Street",219248
CRM_A,CRM_A_O_ORG_0021_337,"Prakash, Mukhopadhyay And Dar Lab",Lab,h.no. 909 shankar ganj,Sultan Pur Majra,TS,900690,IN,2025-12-17T07:50:20,"Prakash, Mukhopadhyay and Dar Lab","H.No. 909
Shankar Ganj",900690
CRM_B,CRM_B_O_ORG_0021_599,"Prakash, Mukhopadhyay And Dar Lab",Lab,h.no. 909 shankar ganj,Sultan Pur Majra,TS,900690,IN,2025-11-27T09:01:28,"Prakash, Mukhopadhyay and Dar Lab",H.No. 909 Shankar Ganj,900690
CRM_A,CRM_A_O_ORG_0022_791,Agate-Savant Lab,Lab,06/169 chowdhury road,Bharatpur,DL,152343,IN,2025-12-01T04:50:41,Agate-Savant Lab,"06/169
Chowdhury Road",152343
CRM_B,CRM_B_O_ORG_0022_726,Agate-Savant Lab,Lab,06/169 chowdhury road,Bharatpur,DL,152343,IN,2025-11-03T20:20:57,Agate-Savant Lab,"06/169
Chowdhury Road",152343
CRM_A,CRM_A_O_ORG_0023_506,Garg Plc Lab,Lab,36/95 patla path,Shivpuri,,405946,IN,2025-12-14T05:45:52,Garg PLC Lab,"36/95
Patla Path",405946
CRM_B,CRM_B_O_ORG_0023_349,Garg Plc Lab,Lab,36/95 patla path,Shivpuri,,405946,IN,2025-11-02T14:52:42,Garg PLC Lab,"36/95
Patla Path",405946
CRM_B,CRM_B_O_ORG_0023_622,Garg Plc Lab,Lab,36/95 patla path,Shivpuri,,405946,IN,2025-11-11T17:53:59,Garg PLC Lab,"36/95
Patla Path",405946
CRM_A,CRM_A_O_ORG_0024_794,Bhatia-Rout Diagnostic Center,Diagnostic Center,691 rama path,Khora,OH,94185,US,2026-01-26T17:22:07,Bhatia-Rout Diagnostic Center,"691, Rama Path",94185
CRM_B,CRM_B_O_ORG_0024_284,Bhatia-Rout Diagnostic Center,Diagnostic Center,691 rama path,Khora,OH,94185,US,2025-11-28T12:35:18,Bhatia-Rout Diagnostic Center,"691, Rama Path",94185
CRM_B,CRM_B_O_ORG_0024_652,Bhatia-Rout Diagnostic Center,Diagnostic Center,691 rama path,Khora,OH,94185,US,2026-01-08T08:12:43,Bhatia-Rout Diagnostic Center,"691, Rama Path",94185
CRM_A,CRM_A_O_ORG_0025_365,Saran Inc Diagnostic Center,Diagnostic Center,61 apte nagar,Kamarhati,AK,85638,US,2026-01-24T22:00:41,Saran Inc Diagnostic Center,"61, Apte Nagar",85638
CRM_B,CRM_B_O_ORG_0025_933,Saran Inc Diagnostic Center,Diagnostic Center,61 apte nagar,Kamarhati,AK,85638,US,2026-01-24T11:24:56,Saran Inc Diagnostic Center,61 Apte Nagar,85638
CRM_A,CRM_A_O_ORG_0026_362,Bose-Devan Hospital,Hospital,45/96 choudhary,Nandyal,AK,18052,US,2025-12-30T10:16:52,Bose-Devan Hospital,"45/96, Choudhary",18052-5455
CRM_B,CRM_B_O_ORG_0026_755,Bose-Devan Hospital,Hospital,45/96 choudhary,Nandyal,AK,18052,US,2025-11-03T17:33:34,Bose-Devan Hospital,"45/96, Choudhary",18052-5455
CRM_A,CRM_A_O_ORG_0027_750,Lal Plc Diagnostic Center,Diagnostic Center,856 jayaraman ganj,Secunderabad,MI,37993,US,2026-01-12T04:25:18,Lal PLC Diagnostic Center,"856
Jayaraman Ganj",37993
CRM_B,CRM_B_O_ORG_0027_956,Lal Plc Diagnostic Ctr,Diagnostic Center,856 jayaraman ganj,Secunderabad,MI,37993,US,2025-11-03T19:33:50,Lal PLC Diagnostic Ctr,"856
Jayaraman Ganj",37993
CRM_A,CRM_A_O_ORG_0028_362,"Vala, Luthra And Chada Hospital",Hospital,87/870 varty zila,Chandigarh,TS,387771,IN,2025-11-15T00:06:59,"Vala, Luthra and Chada Hospital","87/870, Varty Zila",387771
CRM_B,CRM_B_O_ORG_0028_795,"Vala, Luthra And Chada Hospital",Hospital,87/870 varty zila,Chandigarh,TS,387771,IN,2025-10-10T12:20:36,"Vala, Luthra and Chada Hospital","87/870, Varty Zila",387771
CRM_A,CRM_A_O_ORG_0029_156,Kashyap And Sons Pharmacy,Pharmacy,52/33 lata zila,Rourkela,FL,76281,US,2026-02-07T19:39:26,Kashyap and Sons Pharmacy,"52/33
Lata Zila",76281
CRM_B,CRM_B_O_ORG_0029_746,Kashyap And Sons Pharmacy,Pharmacy,52/33 lata zila,Rourkela,FL,76281,US,2026-01-24T12:09:24,Kashyap and Sons Pharmacy,"52/33
Lata Zila",76281
CRM_A,CRM_A_O_ORG_0029_859,Kashyap And Sons Pharmacy,Pharmacy,52/33 lata zila,Rourkela,FL,76281,US,2026-01-14T20:15:42,Kashyap and Sons Pharmacy,"52/33
Lata Zila",76281
CRM_A,CRM_A_O_ORG_0030_171,Bumb-Sathe Hospital,Hospital,71/278 saha chowk,Sambalpur,AK,62863,US,2025-11-27T04:04:51,Bumb-Sathe Hospital,"71/278, Saha Chowk",62863
CRM_B,CRM_B_O_ORG_0030_861,Bumb-Sathe Hospital,Hospital,71/278 saha chowk,Sambalpur,AK,62863,US,2025-10-23T13:07:28,Bumb-Sathe Hospital,"71/278, Saha Chowk",62863
CRM_A,CRM_A_O_ORG_0031_708,"Uppal, Sundaram And Baria Pharmacy",Pharmacy,220 dhar circle,Meerut,MD,69087,US,2026-01-06T12:08:27,"Uppal, Sundaram and Baria Pharmacy","220, Dhar Circle",69087
CRM_B,CRM_B_O_ORG_0031_519,"Uppal, Sundaram And Baria Pharmacy",Pharmacy,220 dhar circle,Meerut,MD,69087,US,2025-11-30T21:59:33,"Uppal, Sundaram and Baria Pharmacy","220, Dhar Circle",69087
CRM_A,CRM_A_O_ORG_0032_632,Manda-Venkataraman Diagnostic Center,Diagnostic Center,35/197 chaudhari circle,Rohtak,AK,70632,US,2026-01-01T06:48:52,Manda-Venkataraman Diagnostic Center,"35/197
Chaudhari Circle",70632-2682
CRM_B,CRM_B_O_ORG_0032_953,Manda-Venkataraman Diagnostic Ctr,Diagnostic Center,35/197 chaudhari circle,Rohtak,AK,70632,US,2025-11-09T14:49:59,Manda-Venkataraman Diagnostic Ctr,35/197 Chaudhari Circle,70632-2682
CRM_B,CRM_B_O_ORG_0032_100,Manda-Venkataraman Diagnostic Center,Diagnostic Center,35/197 chaudhari circle,Rohtak,AK,70632,US,2026-01-07T08:13:27,Manda-Venkataraman Diagnostic Center,"35/197
Chaudhari Circle",70632-2682
CRM_A,CRM_A_O_ORG_0033_870,"Pandit, Soni And Choudhury Diagnostic Center",Diagnostic Center,h.no. 25 badal,Gaya,WA,36765,US,2025-12-18T12:02:40,"Pandit, Soni and Choudhury Diagnostic Center","H.No. 25, Badal",36765
CRM_B,CRM_B_O_ORG_0033_800,"Pandit, Soni And Choudhury Diagnostic Center",Diagnostic Center,h.no. 25 badal,Gaya,WA,36765,US,2025-11-30T10:41:05,"Pandit, Soni and Choudhury Diagnostic Center","H.No. 25, Badal",36765
CRM_A,CRM_A_O_ORG_0034_286,"Menon, Gala And Deol Hospital",Hospital,h.no. 701 kapoor circle,Mathura,CA,61021,US,2026-01-30T20:26:44,"Menon, Gala and Deol Hospital","H.No. 701
Kapoor Circle",61021
CRM_B,CRM_B_O_ORG_0034_864,"Menon, Gala And Deol Hospital",Hospital,h.no. 701 kapoor circle,Mathura,CA,61021,US,2025-11-04T13:38:53,"Menon, Gala and Deol Hospital",H.No. 701 Kapoor Circle,61021
CRM_A,CRM_A_O_ORG_0035_408,Tailor-Majumdar Hospital,Hospital,h.no. 03 om nagar,Chapra,PA,84879,US,2025-11-13T08:57:10,Tailor-Majumdar Hospital,"H.No. 03, Om Nagar",84879
CRM_B,CRM_B_O_ORG_0035_843,Tailor-Majumdar Hospital,Hospital,h.no. 03 om nagar,Chapra,PA,84879,US,2025-12-10T09:35:56,Tailor-Majumdar Hospital,"H.No. 03, Om Nagar",84879
CRM_A,CRM_A_O_ORG_0036_493,Natarajan Ltd Diagnostic Center,Diagnostic Center,33 palan ganj,Muzaffarpur,NC,78329,US,2025-11-11T01:00:37,Natarajan Ltd Diagnostic Center,"33, Palan Ganj",78329
CRM_B,CRM_B_O_ORG_0036_201,Natarajan Ltd Diagnostic Center,Diagnostic Center,33 palan ganj,Muzaffarpur,NC,78329,US,2025-10-07T23:29:18,Natarajan Ltd Diagnostic Center,"33, Palan Ganj",78329
CRM_A,CRM_A_O_ORG_0037_831,Tella-Gade Hospital,Hospital,h.no. 152 sur,Begusarai,FL,15463,US,2025-11-15T05:03:28,Tella-Gade Hospital,"H.No. 152, Sur",15463
CRM_B,CRM_B_O_ORG_0037_699,Tella-Gade Hospital,Hospital,h.no. 152 sur,Begusarai,FL,15463,US,2025-12-12T09:54:57,Tella-Gade Hospital,"H.No. 152, Sur",15463
CRM_A,CRM_A_O_ORG_0038_484,Mani-Raval Diagnostic Center,Diagnostic Center,h.no. 167 bera nagar,Dehradun,AL,34850,US,2025-12-08T10:38:37,Mani-Raval Diagnostic Center,"H.No. 167, Bera Nagar",34850
CRM_B,CRM_B_O_ORG_0038_357,Mani-Raval Diagnostic Center,Diagnostic Center,h.no. 167 bera nagar,Dehradun,AL,34850,US,2026-01-29T03:55:55,Mani-Raval Diagnostic Center,"H.No. 167, Bera Nagar",34850
CRM_B,CRM_B_O_ORG_0038_490,Mani-Raval Diagnostic Center,Diagnostic Center,h.no. 167 bera nagar,Dehradun,AL,34850,US,2025-10-29T11:19:12,Mani-Raval Diagnostic Center,"H.No. 167, Bera Nagar",34850
CRM_A,CRM_A_O_ORG_0039_879,Varkey And Sons Lab,Lab,407 sant marg,Naihati,TX,67636,US,2026-01-13T17:14:34,Varkey and Sons Lab,"407, Sant Marg",67636
CRM_B,CRM_B_O_ORG_0039_925,Varkey And Sons Lab,Lab,407 sant marg,Naihati,TX,67636,US,2025-11-29T21:23:48,Varkey and Sons Lab,"407, Sant Marg",67636
CRM_A,CRM_A_O_ORG_0040_345,"Kala, Ramachandran And Dua Lab",Lab,h.no. 350 cheema zila,Gopalpur,TX,42435,US,2025-11-16T13:21:57,"Kala, Ramachandran and Dua Lab","H.No. 350, Cheema Zila",42435
CRM_B,CRM_B_O_ORG_0040_161,"Kala, Ramachandran And Dua Lab",Lab,h.no. 350 cheema zila,Gopalpur,TX,42435,US,2026-01-12T10:07:40,"Kala, Ramachandran and Dua Lab","H.No. 350, Cheema Zila",42435
CRM_A,CRM_A_O_ORG_0041_996,Purohit-Narain Diagnostic Center,Diagnostic Center,29/18 trivedi road,Raurkela Industrial Township,VA,30869,US,2025-11-21T09:19:02,Purohit-Narain Diagnostic Center,"29/18, Trivedi Road",30869
CRM_A,CRM_A_O_ORG_0042_808,Mall-Sarna Pharmacy,Pharmacy,h.no. 47 bhakta street,Unnao,CO,15677,US,2025-11-17T07:23:49,Mall-Sarna Pharmacy,"H.No. 47, Bhakta Street",15677
CRM_B,CRM_B_O_ORG_0042_932,Mall-Sarna Pharmacy,Pharmacy,h.no. 47 bhakta street,Unnao,CO,15677,US,2026-01-17T18:05:53,Mall-Sarna Pharmacy,"H.No. 47, Bhakta Street",15677
CRM_A,CRM_A_O_ORG_0043_519,Mohan-Dass Lab,Lab,56 kurian ganj,Firozabad,MD,66066,US,2026-02-08T07:21:57,Mohan-Dass Lab,"56, Kurian Ganj",66066
CRM_B,CRM_B_O_ORG_0043_692,Mohan-Dass Lab,Lab,56 kurian ganj,Firozabad,MD,66066,US,2026-01-27T05:19:55,Mohan-Dass Lab,"56, Kurian Ganj",66066
CRM_A,CRM_A_O_ORG_0043_806,Mohan-Dass Lab,Lab,56 kurian ganj,Firozabad,MD,66066,US,2026-02-09T01:09:12,Mohan-Dass Lab,"56, Kurian Ganj",66066
CRM_A,CRM_A_O_ORG_0044_228,Nanda-Chaudhuri Hospital,Hospital,h.no. 44 patil marg,Tirupati,WA,36528,US,2025-11-19T08:16:20,Nanda-Chaudhuri Hospital,"H.No. 44
Patil Marg",36528
CRM_B,CRM_B_O_ORG_0044_547,Nanda-Chaudhuri Hospital,Hospital,h.no. 44 patil marg,Tirupati,WA,36528,US,2026-01-05T16:14:39,Nanda-Chaudhuri Hospital,"H.No. 44
Patil Marg",36528
CRM_A,CRM_A_O_ORG_0045_196,"Bir, Master And Nadkarni Clinic",Clinic,h.no. 28 walla circle,Bihar Sharif,PA,70558,US,2026-01-25T04:02:15,"Bir, Master and Nadkarni Clinic","H.No. 28, Walla Circle",70558
CRM_A,CRM_A_O_ORG_0046_872,Nadkarni-Badal Diagnostic Center,Diagnostic Center,h.no. 431 memon chowk,Solapur,NC,39095,US,2025-12-26T11:33:12,Nadkarni-Badal Diagnostic Center,"H.No. 431, Memon Chowk",39095
CRM_B,CRM_B_O_ORG_0046_908,Nadkarni-Badal Diagnostic Ctr,Diagnostic Center,h.no. 431 memon chowk,Solapur,NC,39095,US,2025-11-12T05:36:03,Nadkarni-Badal Diagnostic Ctr,"H.No. 431, Memon Chowk",39095
CRM_A,CRM_A_O_ORG_0047_841,Chaudhari And Sons Hospital,Hospital,99/754 kanda circle,Morbi,AZ,26486,US,2025-10-12T14:39:02,Chaudhari and Sons Hospital,"99/754
Kanda Circle",26486
CRM_B,CRM_B_O_ORG_0047_137,Chaudhari And Sons Hosp,Hospital,99/754 kanda circle,Morbi,AZ,26486,US,2026-01-05T05:24:47,Chaudhari and Sons Hosp,"99/754
Kanda Circle",26486
CRM_A,CRM_A_O_ORG_0048_600,Sule-Deo Pharmacy,Pharmacy,15/422 d’alia road,Ratlam,TN,211668,IN,2026-01-15T09:38:52,Sule-Deo Pharmacy,"15/422
D’Alia Road",211668
CRM_B,CRM_B_O_ORG_0048_189,Sule-Deo Pharmacy,Pharmacy,15/422 d’alia road,Ratlam,TN,211668,IN,2025-11-10T06:20:23,Sule-Deo Pharmacy,"15/422
D’Alia Road",211668
CRM_A,CRM_A_O_ORG_0049_385,Jani Plc Pharmacy,Pharmacy,h.no. 12 soman road,Bokaro,KA,957928,IN,2025-10-15T09:08:09,Jani PLC Pharmacy,"H.No. 12, Soman Road",957928
CRM_B,CRM_B_O_ORG_0049_777,Jani Plc Pharmacy,Pharmacy,h.no. 12 soman road,Bokaro,KA,957928,IN,2026-01-29T14:39:07,Jani PLC Pharmacy,"H.No. 12, Soman Road",957928
CRM_A,CRM_A_O_ORG_0050_254,Shah And Sons Diagnostic Center,Diagnostic Center,41 subramanian,Thrissur,AL,26392,US,2025-11-10T02:59:03,Shah and Sons Diagnostic Center,"41, Subramanian",26392
CRM_B,CRM_B_O_ORG_0050_854,Shah And Sons Diagnostic Center,Diagnostic Center,41 subramanian,Thrissur,AL,26392,US,2025-11-30T22:52:57,Shah and Sons Diagnostic Center,41 Subramanian,26392
CRM_B,CRM_B_O_ORG_0050_903,Shah And Sons Diagnostic Center,Diagnostic Center,41 subramanian,Thrissur,AL,26392,US,2025-12-01T23:47:29,Shah and Sons Diagnostic Center,"41, Subramanian",26392
CRM_A,CRM_A_O_ORG_0051_597,Bawa-Ben Clinic,Clinic,239 suri,Bhagalpur,,682557,IN,2025-10-16T21:17:47,Bawa-Ben Clinic,"239
Suri",682557
CRM_B,CRM_B_O_ORG_0051_350,Bawa-Ben Clinic,Clinic,239 suri,Bhagalpur,,682557,IN,2025-12-11T06:06:57,Bawa-Ben Clinic,"239
Suri",682557
CRM_A,CRM_A_O_ORG_0052_169,Pradhan And Sons Pharmacy,Pharmacy,h.no. 858 sharma ganj,Raurkela Industrial Township,WB,931896,IN,2025-12-09T08:35:38,Pradhan and Sons Pharmacy,"H.No. 858, Sharma Ganj",931896
CRM_B,CRM_B_O_ORG_0052_993,Pradhan And Sons Pharmacy,Pharmacy,h.no. 858 sharma ganj,Raurkela Industrial Township,WB,931896,IN,2026-02-01T15:08:04,Pradhan and Sons Pharmacy,"H.No. 858, Sharma Ganj",931896
CRM_A,CRM_A_O_ORG_0053_709,"Gola, Sagar And Kara Hospital",Hospital,h.no. 894 chaudhry path,Proddatur,NY,75701,US,2025-12-06T17:39:20,"Gola, Sagar and Kara Hospital","H.No. 894, Chaudhry Path",75701
CRM_B,CRM_B_O_ORG_0053_938,"Gola, Sagar And Kara Hospital",Hospital,h.no. 894 chaudhry path,Proddatur,NY,75701,US,2025-12-10T12:20:02,"Gola, Sagar and Kara Hospital","H.No. 894, Chaudhry Path",75701
CRM_A,CRM_A_O_ORG_0054_114,"Pal, Tripathi And Varty Pharmacy",Pharmacy,11/99 golla road,Mehsana,MD,61109,US,2026-02-04T11:28:37,"Pal, Tripathi and Varty Pharmacy","11/99, Golla Road",61109
CRM_B,CRM_B_O_ORG_0054_400,"Pal, Tripathi And Varty Pharmacy",Pharmacy,11/99 golla road,Mehsana,MD,61109,US,2026-01-31T20:12:42,"Pal, Tripathi and Varty Pharmacy","11/99, Golla Road",61109
CRM_B,CRM_B_O_ORG_0054_792,"Pal, Tripathi And Varty Pharmacy",Pharmacy,11/99 golla road,Mehsana,MD,61109,US,2025-11-15T04:18:07,"Pal, Tripathi and Varty Pharmacy",11/99 Golla Road,61109
CRM_A,CRM_A_O_ORG_0055_825,"Keer, Mangal And Deshmukh Pharmacy",Pharmacy,43 nagar ganj,Maheshtala,WA,29192,US,2025-11-25T05:09:45,"Keer, Mangal and Deshmukh Pharmacy","43, Nagar Ganj",29192
CRM_B,CRM_B_O_ORG_0055_726,"Keer, Mangal And Deshmukh Pharmacy",Pharmacy,43 nagar ganj,Maheshtala,WA,29192,US,2025-11-04T05:32:39,"Keer, Mangal and Deshmukh Pharmacy","43, Nagar Ganj",29192
CRM_A,CRM_A_O_ORG_0056_299,Hayre-Guha Lab,Lab,71/97 arora street,Dhanbad,CO,48692,US,2026-02-05T15:20:26,Hayre-Guha Lab,"71/97
Arora Street",48692
CRM_B,CRM_B_O_ORG_0056_683,Hayre-Guha Lab,Lab,71/97 arora street,Dhanbad,CO,48692,US,2025-10-10T14:57:14,Hayre-Guha Lab,"71/97
Arora Street",48692
CRM_A,CRM_A_O_ORG_0056_608,Hayre-Guha Lab,Lab,71/97 arora street,Dhanbad,CO,48692,US,2026-02-06T04:26:15,Hayre-Guha Lab,"71/97
Arora Street",48692
CRM_A,CRM_A_O_ORG_0057_380,"Kale, Goyal And Manne Hospital",Hospital,h.no. 30 buch nagar,Kamarhati,OH,96330,US,2025-12-24T05:30:03,"Kale, Goyal and Manne Hospital","H.No. 30, Buch Nagar",96330
CRM_B,CRM_B_O_ORG_0057_718,"Kale, Goyal And Manne Hospital",Hospital,h.no. 30 buch nagar,Kamarhati,OH,96330,US,2025-10-21T07:30:34,"Kale, Goyal and Manne Hospital","H.No. 30, Buch Nagar",96330
CRM_A,CRM_A_O_ORG_0058_185,Puri And Sons Hospital,Hospital,430 tank circle,Farrukhabad,NY,65993,US,2026-01-13T17:44:12,Puri and Sons Hospital,"430, Tank Circle",65993
CRM_A,CRM_A_O_ORG_0059_574,Srinivasan-Thakkar Pharmacy,Pharmacy,07/12 ganesh zila,Shimla,UP,213598,IN,2026-01-16T14:40:33,Srinivasan-Thakkar Pharmacy,"07/12, Ganesh Zila",213598
CRM_B,CRM_B_O_ORG_0059_310,Srinivasan-Thakkar Pharmacy,Pharmacy,07/12 ganesh zila,Shimla,UP,213598,IN,2025-11-16T10:01:00,Srinivasan-Thakkar Pharmacy,"07/12, Ganesh Zila",213598
CRM_A,CRM_A_O_ORG_0060_715,"Zacharia, Sankaran And Brahmbhatt Pharmacy",Pharmacy,419 gola circle,Ujjain,WA,69671,US,2026-01-06T06:40:49,"Zacharia, Sankaran and Brahmbhatt Pharmacy","419, Gola Circle",69671
CRM_B,CRM_B_O_ORG_0060_420,"Zacharia, Sankaran And Brahmbhatt Pharmacy",Pharmacy,419 gola circle,Ujjain,WA,69671,US,2026-01-21T08:48:00,"Zacharia, Sankaran and Brahmbhatt Pharmacy","419, Gola Circle",69671
CRM_A,CRM_A_O_ORG_0061_212,Mannan-Parsa Pharmacy,Pharmacy,h.no. 769 bose,Asansol,AK,40740,US,2026-01-29T04:43:22,Mannan-Parsa Pharmacy,"H.No. 769, Bose",40740
CRM_B,CRM_B_O_ORG_0061_169,Mannan-Parsa Pharmacy,Pharmacy,h.no. 769 bose,Asansol,AK,40740,US,2025-12-10T09:33:36,Mannan-Parsa Pharmacy,"H.No. 769, Bose",40740
CRM_A,CRM_A_O_ORG_0062_664,"Kade, Chada And Chana Diagnostic Center",Diagnostic Center,89 chhabra path,Machilipatnam,IL,29967,US,2026-01-12T12:02:46,"Kade, Chada and Chana Diagnostic Center","89
Chhabra Path",29967
CRM_A,CRM_A_O_ORG_0063_437,Bhalla-Chhabra Pharmacy,Pharmacy,h.no. 544 dhawan nagar,Bahraich,MA,57779,US,2025-12-12T02:49:44,Bhalla-Chhabra Pharmacy,"H.No. 544, Dhawan Nagar",57779
CRM_B,CRM_B_O_ORG_0063_404,Bhalla-Chhabra Pharmacy,Pharmacy,h.no. 544 dhawan nagar,Bahraich,MA,57779,US,2025-12-26T11:27:33,Bhalla-Chhabra Pharmacy,"H.No. 544, Dhawan Nagar",57779
CRM_A,CRM_A_O_ORG_0064_760,Bhargava-Dada Clinic,Clinic,162 sinha path,Tiruchirappalli,NY,21566,US,2026-01-15T00:49:07,Bhargava-Dada Clinic,"162, Sinha Path",21566
CRM_B,CRM_B_O_ORG_0064_667,Bhargava-Dada Clinic,Clinic,162 sinha path,Tiruchirappalli,NY,21566,US,2025-10-20T01:05:47,Bhargava-Dada Clinic,"162, Sinha Path",21566
CRM_A,CRM_A_O_ORG_0065_805,Bandi Inc Diagnostic Center,Diagnostic Center,68 sinha path,Mathura,IL,70116,US,2025-12-09T01:01:10,Bandi Inc Diagnostic Center,"68, Sinha Path",70116
CRM_B,CRM_B_O_ORG_0065_271,Bandi Inc Diagnostic Center,Diagnostic Center,68 sinha path,Mathura,IL,70116,US,2025-10-13T01:40:43,Bandi Inc Diagnostic Center,"68, Sinha Path",70116
CRM_B,CRM_B_O_ORG_0065_646,Bandi Inc Diagnostic Center,Diagnostic Center,68 sinha path,Mathura,IL,70116,US,2025-11-20T10:04:49,Bandi Inc Diagnostic Center,"68, Sinha Path",70116
CRM_A,CRM_A_O_ORG_0066_126,"Soman, Khalsa And Madan Clinic",Clinic,18/458 rama zila,Nashik,MA,24944,US,2025-12-27T12:14:41,"Soman, Khalsa and Madan Clinic","18/458
Rama Zila",24944
CRM_B,CRM_B_O_ORG_0066_196,"Soman, Khalsa And Madan Clinic",Clinic,18/458 rama zila,Nashik,MA,24944,US,2025-12-15T11:04:27,"Soman, Khalsa and Madan Clinic","18/458
Rama Zila",24944
CRM_A,CRM_A_O_ORG_0067_129,Chhabra And Sons Lab,Lab,23/63 desai chowk,Gorakhpur,VA,22606,US,2026-01-25T11:21:01,Chhabra and Sons Lab,"23/63, Desai Chowk",22606-1718
CRM_B,CRM_B_O_ORG_0067_793,Chhabra And Sons Lab,Lab,23/63 desai chowk,Gorakhpur,VA,22606,US,2025-10-25T04:09:25,Chhabra and Sons Lab,"23/63, Desai Chowk",22606-1718
CRM_A,CRM_A_O_ORG_0068_130,Dewan Plc Hospital,Hospital,31/026 kaul street,Nagpur,CO,27635,US,2026-02-17T22:05:29,Dewan PLC Hospital,"31/026, Kaul Street",27635
CRM_B,CRM_B_O_ORG_0068_774,Dewan Plc Hospital,Hospital,31/026 kaul street,Nagpur,CO,27635,US,2025-12-05T06:28:45,Dewan PLC Hospital,"31/026, Kaul Street",27635
CRM_A,CRM_A_O_ORG_0068_118,Dewan Plc Hospital,Hospital,31/026 kaul street,Nagpur,CO,27635,US,2025-11-28T20:08:10,Dewan PLC Hospital,"31/026, Kaul Street",27635
CRM_A,CRM_A_O_ORG_0069_850,Bansal-Rajagopal Clinic,Clinic,48/252 dutta street,Ichalkaranji,TX,71436,US,2026-01-30T04:23:08,Bansal-Rajagopal Clinic,"48/252
Dutta Street",71436
CRM_B,CRM_B_O_ORG_0069_717,Bansal-Rajagopal Clnc,Clinic,48/252 dutta street,Ichalkaranji,TX,71436,US,2025-11-04T01:47:16,Bansal-Rajagopal Clnc,"48/252
Dutta Street",71436
CRM_A,CRM_A_O_ORG_0070_897,Nayar-Mallick Diagnostic Center,Diagnostic Center,31 chanda marg,Uluberia,DL,995369,IN,2025-10-17T15:26:19,Nayar-Mallick Diagnostic Center,"31
Chanda Marg",995369
CRM_A,CRM_A_O_ORG_0071_216,Bera-Jhaveri Diagnostic Center,Diagnostic Center,h.no. 35 dutt road,Gandhidham,MD,56944,US,2026-01-04T08:35:48,Bera-Jhaveri Diagnostic Center,"H.No. 35
Dutt Road",56944
CRM_B,CRM_B_O_ORG_0071_563,Bera-Jhaveri Diagnostic Center,Diagnostic Center,h.no. 35 dutt road,Gandhidham,MD,56944,US,2025-12-03T04:45:30,Bera-Jhaveri Diagnostic Center,"H.No. 35
Dutt Road",56944
CRM_A,CRM_A_O_ORG_0072_930,Kumer Group Hospital,Hospital,62 rout street,Pali,AZ,62811,US,2026-01-14T21:35:49,Kumer Group Hospital,"62
Rout Street",62811
CRM_B,CRM_B_O_ORG_0072_212,Kumer Group Hospital,Hospital,62 rout street,Pali,AZ,62811,US,2025-10-30T01:37:04,Kumer Group Hospital,"62
Rout Street",62811
CRM_A,CRM_A_O_ORG_0073_142,Tailor Llc Pharmacy,Pharmacy,04/55 dhar street,Tirunelveli,AZ,76238,US,2025-12-28T11:55:31,Tailor LLC Pharmacy,"04/55
Dhar Street",76238
CRM_B,CRM_B_O_ORG_0073_120,Tailor Llc Pharmacy,Pharmacy,04/55 dhar street,Tirunelveli,AZ,76238,US,2025-10-14T22:47:46,Tailor LLC Pharmacy,"04/55
Dhar Street",76238
CRM_A,CRM_A_O_ORG_0074_997,"Bassi, Parsa And Sane Lab",Lab,549 walia chowk,Gandhinagar,UP,811751,IN,2025-12-02T16:23:39,"Bassi, Parsa and Sane Lab","549
Walia Chowk",811751
CRM_B,CRM_B_O_ORG_0074_776,"Bassi, Parsa And Sane Lab",Lab,549 walia chowk,Gandhinagar,UP,811751,IN,2026-02-03T22:02:31,"Bassi, Parsa and Sane Lab","549
Walia Chowk",811751
CRM_A,CRM_A_O_ORG_0075_776,Karnik-Subramaniam Clinic,Clinic,60/34 sunder circle,Coimbatore,WB,196069,IN,2025-11-03T11:09:54,Karnik-Subramaniam Clinic,"60/34, Sunder Circle",196069
CRM_B,CRM_B_O_ORG_0075_158,Karnik-Subramaniam Clinic,Clinic,60/34 sunder circle,Coimbatore,WB,196069,IN,2025-11-22T23:31:37,Karnik-Subramaniam Clinic,"60/34, Sunder Circle",196069
CRM_A,CRM_A_O_ORG_0076_703,Sangha Inc Pharmacy,Pharmacy,h.no. 65 prabhakar ganj,Tiruchirappalli,MH,543843,IN,2025-11-13T12:07:50,Sangha Inc Pharmacy,"H.No. 65, Prabhakar Ganj",543843
CRM_B,CRM_B_O_ORG_0076_301,Sangha Incorporated Pharmacy,Pharmacy,h.no. 65 prabhakar ganj,Tiruchirappalli,MH,543843,IN,2026-01-10T00:25:40,Sangha Incorporated Pharmacy,"H.No. 65, Prabhakar Ganj",543843
CRM_A,CRM_A_O_ORG_0077_278,Nadkarni Llc Pharmacy,Pharmacy,h.no. 01 bajaj path,Kakinada,PA,44585,US,2026-01-09T01:46:43,Nadkarni LLC Pharmacy,"H.No. 01, Bajaj Path",44585
CRM_B,CRM_B_O_ORG_0077_627,Nadkarni Llc Pharmacy,Pharmacy,h.no. 01 bajaj path,Kakinada,PA,44585,US,2026-01-17T11:54:15,Nadkarni LLC Pharmacy,"H.No. 01, Bajaj Path",44585
CRM_A,CRM_A_O_ORG_0078_352,"Shroff, Bhat And Vohra Pharmacy",Pharmacy,08/83 vyas path,Nagercoil,DL,802347,IN,2025-11-12T00:47:36,"Shroff, Bhat and Vohra Pharmacy","08/83
Vyas Path",802347
CRM_B,CRM_B_O_ORG_0078_243,"Shroff, Bhat And Vohra Pharmacy",Pharmacy,08/83 vyas path,Nagercoil,DL,802347,IN,2026-01-05T19:02:21,"Shroff, Bhat and Vohra Pharmacy","08/83
Vyas Path",802347
CRM_A,CRM_A_O_ORG_0079_115,"Kapur, Sane And Lal Hospital",Hospital,h.no. 87 sen path,Bhilwara,AL,98513,US,2025-12-04T08:34:22,"Kapur, Sane and Lal Hospital","H.No. 87
Sen Path",98513
CRM_B,CRM_B_O_ORG_0079_369,"Kapur, Sane And Lal Hospital",Hospital,h.no. 87 sen path,Bhilwara,AL,98513,US,2025-12-05T00:06:38,"Kapur, Sane and Lal Hospital","H.No. 87
Sen Path",98513
CRM_B,CRM_B_O_ORG_0079_748,"Kapur, Sane And Lal Hospital",Hospital,h.no. 87 sen path,Bhilwara,AL,98513,US,2026-02-03T01:55:37,"Kapur, Sane and Lal Hospital","H.No. 87
Sen Path",98513
CRM_A,CRM_A_O_ORG_0080_959,Palla Ltd Hospital,Hospital,904 rajagopalan ganj,Morena,AL,97364,US,2025-11-04T05:15:40,Palla Ltd Hospital,"904
Rajagopalan Ganj",97364
CRM_B,CRM_B_O_ORG_0080_599,Palla Ltd Hospital,Hospital,904 rajagopalan ganj,Morena,AL,97364,US,2026-02-03T03:37:34,Palla Ltd Hospital,"904
Rajagopalan Ganj",97364
CRM_A,CRM_A_O_ORG_0081_447,Raval-Varma Diagnostic Center,Diagnostic Center,78/50 virk chowk,Ongole,AL,54291,US,2025-12-22T10:05:27,Raval-Varma Diagnostic Center,"78/50
Virk Chowk",54291-5584
CRM_B,CRM_B_O_ORG_0081_624,Raval-Varma Diagnostic Center,Diagnostic Center,78/50 virk chowk,Ongole,AL,54291,US,2025-12-22T07:12:36,Raval-Varma Diagnostic Center,"78/50
Virk Chowk",54291-5584
CRM_A,CRM_A_O_ORG_0082_795,Nadkarni And Sons Hospital,Hospital,15/80 raval circle,Nagaon,CO,95419,US,2025-12-30T15:58:48,Nadkarni and Sons Hospital,"15/80, Raval Circle",95419
CRM_B,CRM_B_O_ORG_0082_859,Nadkarni And Sons Hospital,Hospital,15/80 raval circle,Nagaon,CO,95419,US,2026-01-10T16:45:22,Nadkarni and Sons Hospital,"15/80, Raval Circle",95419
CRM_A,CRM_A_O_ORG_0083_592,"Lal, Prakash And Chokshi Clinic",Clinic,32/46 bobal chowk,Madhyamgram,AK,51978,US,2025-12-21T20:55:01,"Lal, Prakash and Chokshi Clinic","32/46, Bobal Chowk",51978
CRM_B,CRM_B_O_ORG_0083_199,"Lal, Prakash And Chokshi Clinic",Clinic,32/46 bobal chowk,Madhyamgram,AK,51978,US,2025-10-09T10:20:21,"Lal, Prakash and Chokshi Clinic",32/46 Bobal Chowk,51978
CRM_A,CRM_A_O_ORG_0084_669,Garg-Kalita Clinic,Clinic,h.no. 002 pillai,Jhansi,WB,499915,IN,2025-10-28T19:51:21,Garg-Kalita Clinic,"H.No. 002
Pillai",499915
CRM_B,CRM_B_O_ORG_0084_740,Garg-Kalita Clinic,Clinic,h.no. 002 pillai,Jhansi,WB,499915,IN,2025-12-21T07:32:14,Garg-Kalita Clinic,"H.No. 002
Pillai",499915
CRM_A,CRM_A_O_ORG_0084_113,Garg-Kalita Clinic,Clinic,h.no. 002 pillai,Jhansi,WB,499915,IN,2025-12-21T17:50:30,Garg-Kalita Clinic,"H.No. 002
Pillai",499915
CRM_A,CRM_A_O_ORG_0085_228,Borah-Sunder Hospital,Hospital,05 golla ganj,Phusro,FL,17453,US,2026-01-04T14:13:19,Borah-Sunder Hospital,"05
Golla Ganj",17453
CRM_B,CRM_B_O_ORG_0085_511,Borah-Sunder Hospital,Hospital,05 golla ganj,Phusro,FL,17453,US,2025-10-09T19:17:00,Borah-Sunder Hospital,"05
Golla Ganj",17453
CRM_A,CRM_A_O_ORG_0086_996,"Korpal, Puri And Bose Diagnostic Center",Diagnostic Center,01/446 chokshi road,Sangli-Miraj & Kupwad,VA,18646,US,2025-10-14T01:29:40,"Korpal, Puri and Bose Diagnostic Center","01/446, Chokshi Road",18646
CRM_B,CRM_B_O_ORG_0086_116,"Korpal, Puri And Bose Diagnostic Center",Diagnostic Center,01/446 chokshi road,Sangli-Miraj & Kupwad,VA,18646,US,2025-11-01T23:26:40,"Korpal, Puri and Bose Diagnostic Center",01/446 Chokshi Road,18646
CRM_A,CRM_A_O_ORG_0087_103,"Mani, Bobal And Bhandari Hospital",Hospital,75 atwal circle,Tezpur,PA,50595,US,2025-11-23T06:08:42,"Mani, Bobal and Bhandari Hospital","75, Atwal Circle",50595
CRM_B,CRM_B_O_ORG_0087_111,"Mani, Bobal And Bhandari Hospital",Hospital,75 atwal circle,Tezpur,PA,50595,US,2025-10-19T14:19:39,"Mani, Bobal and Bhandari Hospital","75, Atwal Circle",50595
CRM_A,CRM_A_O_ORG_0088_579,"Kapadia, Dube And Viswanathan Clinic",Clinic,h.no. 117 gupta zila,Kulti,DL,652313,IN,2025-12-06T03:00:37,"Kapadia, Dube and Viswanathan Clinic","H.No. 117
Gupta Zila",652313
CRM_B,CRM_B_O_ORG_0088_381,"Kapadia, Dube And Viswanathan Clinic",Clinic,h.no. 117 gupta zila,Kulti,DL,652313,IN,2025-11-16T10:07:41,"Kapadia, Dube and Viswanathan Clinic","H.No. 117
Gupta Zila",652313
CRM_A,CRM_A_O_ORG_0089_790,"Sundaram, Bala And Sharaf Lab",Lab,46/79 shroff nagar,Muzaffarpur,GA,81271,US,2025-10-13T11:02:03,"Sundaram, Bala and Sharaf Lab","46/79, Shroff Nagar",81271-3944
CRM_A,CRM_A_O_ORG_0090_552,Kalita-Cherian Clinic,Clinic,27/59 swaminathan street,Haridwar,AK,44407,US,2025-11-12T20:37:42,Kalita-Cherian Clinic,"27/59
Swaminathan Street",44407-4614
CRM_B,CRM_B_O_ORG_0090_398,Kalita-Cherian Clinic,Clinic,27/59 swaminathan street,Haridwar,AK,44407,US,2025-10-27T03:32:20,Kalita-Cherian Clinic,"27/59
Swaminathan Street",44407-4614
CRM_A,CRM_A_O_ORG_0091_209,Chad Inc Clinic,Clinic,97 master chowk,Mumbai,NJ,61630,US,2025-12-28T17:37:58,Chad Inc Clinic,"97, Master Chowk",61630
CRM_B,CRM_B_O_ORG_0091_883,Chad Incorporated Clnc,Clinic,97 master chowk,Mumbai,NJ,61630,US,2025-10-15T15:34:17,Chad Incorporated Clnc,"97, Master Chowk",61630
CRM_B,CRM_B_O_ORG_0091_710,Chad Inc Clnc,Clinic,97 master chowk,Mumbai,NJ,61630,US,2026-02-01T19:15:33,Chad Inc Clnc,"97, Master Chowk",61630
CRM_A,CRM_A_O_ORG_0092_991,"Shere, Bhakta And Bhatnagar Hospital",Hospital,566 anand zila,Bareilly,AL,27970,US,2026-01-10T23:53:38,"Shere, Bhakta and Bhatnagar Hospital","566, Anand Zila",27970
CRM_B,CRM_B_O_ORG_0092_120,"Shere, Bhakta And Bhatnagar Hospital",Hospital,566 anand zila,Bareilly,AL,27970,US,2026-01-16T22:07:45,"Shere, Bhakta and Bhatnagar Hospital",566 Anand Zila,27970
CRM_A,CRM_A_O_ORG_0093_708,Vyas Llc Lab,Lab,00 bhatia chowk,Salem,NJ,84983,US,2025-11-01T17:41:12,Vyas LLC Lab,"00, Bhatia Chowk",84983
CRM_B,CRM_B_O_ORG_0093_907,Vyas Llc Lab,Lab,00 bhatia chowk,Salem,NJ,84983,US,2025-10-23T00:44:09,Vyas LLC Lab,"00, Bhatia Chowk",84983
CRM_A,CRM_A_O_ORG_0094_388,Doctor And Sons Lab,Lab,12/683 barman,Jalandhar,NY,10490,US,2026-02-05T14:17:04,Doctor and Sons Lab,"12/683, Barman",10490
CRM_B,CRM_B_O_ORG_0094_235,Doctor And Sons Lab,Lab,12/683 barman,Jalandhar,NY,10490,US,2025-11-18T08:40:30,Doctor and Sons Lab,"12/683, Barman",10490
CRM_A,CRM_A_O_ORG_0095_135,"Banik, Dara And Bose Hospital",Hospital,69/349 ahluwalia zila,Madhyamgram,UP,138100,IN,2025-10-07T06:11:21,"Banik, Dara and Bose Hospital","69/349, Ahluwalia Zila",138100
CRM_B,CRM_B_O_ORG_0095_433,"Banik, Dara And Bose Hospital",Hospital,69/349 ahluwalia zila,Madhyamgram,UP,138100,IN,2025-11-15T17:10:05,"Banik, Dara and Bose Hospital","69/349, Ahluwalia Zila",138100
CRM_A,CRM_A_O_ORG_0096_721,Vasa-Sood Clinic,Clinic,h.no. 149 buch road,Khandwa,UP,807100,IN,2026-01-18T07:17:09,Vasa-Sood Clinic,"H.No. 149, Buch Road",807100
CRM_B,CRM_B_O_ORG_0096_380,Vasa-Sood Clinic,Clinic,h.no. 149 buch road,Khandwa,UP,807100,IN,2025-11-22T20:30:45,Vasa-Sood Clinic,"H.No. 149, Buch Road",807100
CRM_A,CRM_A_O_ORG_0097_471,Gola Plc Pharmacy,Pharmacy,25/196 deshmukh road,Guna,,621346,IN,2026-02-01T23:40:17,Gola PLC Pharmacy,"25/196, Deshmukh Road",621346
CRM_B,CRM_B_O_ORG_0097_129,Gola Plc Pharmacy,Pharmacy,25/196 deshmukh road,Guna,,621346,IN,2025-10-20T13:08:00,Gola PLC Pharmacy,"25/196, Deshmukh Road",621346
CRM_B,CRM_B_O_ORG_0097_416,Gola Plc Pharmacy,Pharmacy,25/196 deshmukh road,Guna,,621346,IN,2025-11-07T03:31:52,Gola PLC Pharmacy,"25/196, Deshmukh Road",621346
CRM_A,CRM_A_O_ORG_0098_837,"Raju, Dara And Sant Diagnostic Center",Diagnostic Center,117 dugal nagar,Nizamabad,DL,404313,IN,2026-01-21T01:39:52,"Raju, Dara and Sant Diagnostic Center","117
Dugal Nagar",404313
CRM_A,CRM_A_O_ORG_0099_361,Ramakrishnan-Mutti Hospital,Hospital,h.no. 242 vasa zila,Anantapur,KA,883282,IN,2026-01-22T05:13:38,Ramakrishnan-Mutti Hospital,"H.No. 242
Vasa Zila",883282
CRM_B,CRM_B_O_ORG_0099_911,Ramakrishnan-Mutti Hospital,Hospital,h.no. 242 vasa zila,Anantapur,KA,883282,IN,2025-12-30T23:31:28,Ramakrishnan-Mutti Hospital,"H.No. 242
Vasa Zila",883282
CRM_B,CRM_B_O_ORG_0099_475,Ramakrishnan-Mutti Hospital,Hospital,h.no. 242 vasa zila,Anantapur,KA,883282,IN,2025-10-18T05:31:05,Ramakrishnan-Mutti Hospital,"H.No. 242
Vasa Zila",883282
CRM_A,CRM_A_O_ORG_0100_774,Vohra-Bedi Pharmacy,Pharmacy,75/950 menon street,Chandrapur,NJ,56658,US,2025-12-19T15:53:02,Vohra-Bedi Pharmacy,"75/950
Menon Street",56658
CRM_B,CRM_B_O_ORG_0100_192,Vohra-Bedi Pharmacy,Pharmacy,75/950 menon street,Chandrapur,NJ,56658,US,2025-12-30T00:35:44,Vohra-Bedi Pharmacy,75/950 Menon Street,56658
CRM_A,CRM_A_O_ORG_0101_969,"Devi, Sahota And Kale Pharmacy",Pharmacy,h.no. 23 sheth zila,Tumkur,CA,22883,US,2025-12-15T14:14:17,"Devi, Sahota and Kale Pharmacy","H.No. 23, Sheth Zila",22883
CRM_B,CRM_B_O_ORG_0101_681,"Devi, Sahota And Kale Pharmacy",Pharmacy,h.no. 23 sheth zila,Tumkur,CA,22883,US,2025-12-19T11:08:35,"Devi, Sahota and Kale Pharmacy","H.No. 23, Sheth Zila",22883
CRM_A,CRM_A_O_ORG_0101_947,"Devi, Sahota And Kale Pharmacy",Pharmacy,h.no. 23 sheth zila,Tumkur,CA,22883,US,2026-01-02T04:16:57,"Devi, Sahota and Kale Pharmacy","H.No. 23, Sheth Zila",22883
CRM_A,CRM_A_O_ORG_0102_238,"Savant, Tank And Dash Clinic",Clinic,020 chana marg,Tadepalligudem,OH,81131,US,2026-01-31T17:06:06,"Savant, Tank and Dash Clinic","020, Chana Marg",81131
CRM_A,CRM_A_O_ORG_0103_475,"De, Atwal And Keer Clinic",Clinic,67/67 mohanty road,Mangalore,TS,553448,IN,2025-12-19T07:05:32,"De, Atwal and Keer Clinic","67/67, Mohanty Road",553448
CRM_B,CRM_B_O_ORG_0103_660,"De, Atwal And Keer Clinic",Clinic,67/67 mohanty road,Mangalore,TS,553448,IN,2025-10-16T03:54:27,"De, Atwal and Keer Clinic","67/67, Mohanty Road",553448
CRM_A,CRM_A_O_ORG_0104_783,"Suresh, Apte And Tara Pharmacy",Pharmacy,00/49 karpe marg,Adoni,MI,93870,US,2025-12-07T13:46:57,"Suresh, Apte and Tara Pharmacy","00/49, Karpe Marg",93870
CRM_B,CRM_B_O_ORG_0104_810,"Suresh, Apte And Tara Pharmacy",Pharmacy,00/49 karpe marg,Adoni,MI,93870,US,2025-11-23T04:16:22,"Suresh, Apte and Tara Pharmacy","00/49, Karpe Marg",93870
CRM_A,CRM_A_O_ORG_0105_332,Sahni-Raman Clinic,Clinic,29 balay marg,Narasaraopet,NC,66656,US,2026-01-30T08:27:46,Sahni-Raman Clinic,"29
Balay Marg",66656
CRM_B,CRM_B_O_ORG_0105_246,Sahni-Raman Clinic,Clinic,29 balay marg,Narasaraopet,NC,66656,US,2025-10-17T18:37:48,Sahni-Raman Clinic,"29
Balay Marg",66656
CRM_A,CRM_A_O_ORG_0106_539,Muni-Boase Diagnostic Center,Diagnostic Center,h.no. 71 mishra marg,Bardhaman,PA,35521,US,2026-01-06T13:30:10,Muni-Boase Diagnostic Center,"H.No. 71, Mishra Marg",35521-8332
CRM_B,CRM_B_O_ORG_0106_446,Muni-Boase Diagnostic Center,Diagnostic Center,h.no. 71 mishra marg,Bardhaman,PA,35521,US,2025-10-13T15:37:10,Muni-Boase Diagnostic Center,"H.No. 71, Mishra Marg",35521-8332
CRM_A,CRM_A_O_ORG_0107_591,Thakkar-Lanka Lab,Lab,57 dalal chowk,Hospet,AZ,82128,US,2025-11-12T11:25:17,Thakkar-Lanka Lab,"57
Dalal Chowk",82128
CRM_B,CRM_B_O_ORG_0107_709,Thakkar-Lanka Lab,Lab,57 dalal chowk,Hospet,AZ,82128,US,2025-12-29T07:22:41,Thakkar-Lanka Lab,"57
Dalal Chowk",82128
CRM_A,CRM_A_O_ORG_0108_692,Padmanabhan And Sons Diagnostic Center,Diagnostic Center,789 ghosh ganj,Thrissur,DL,738788,IN,2025-11-20T17:11:50,Padmanabhan and Sons Diagnostic Center,"789
Ghosh Ganj",738788
CRM_B,CRM_B_O_ORG_0108_560,Padmanabhan And Sons Diagnostic Center,Diagnostic Center,789 ghosh ganj,Thrissur,DL,738788,IN,2025-12-18T20:21:59,Padmanabhan and Sons Diagnostic Center,"789
Ghosh Ganj",738788
CRM_A,CRM_A_O_ORG_0109_529,Ghose Group Clinic,Clinic,54 mann circle,Panchkula,MA,84134,US,2026-01-08T12:28:32,Ghose Group Clinic,"54
Mann Circle",84134
CRM_B,CRM_B_O_ORG_0109_840,Ghose Group Clnc,Clinic,54 mann circle,Panchkula,MA,84134,US,2026-02-04T08:35:03,Ghose Group Clnc,"54
Mann Circle",84134
CRM_B,CRM_B_O_ORG_0109_566,Ghose Group Clinic,Clinic,54 mann circle,Panchkula,MA,84134,US,2025-11-15T05:29:20,Ghose Group Clinic,54 Mann Circle,84134
CRM_A,CRM_A_O_ORG_0110_874,Mann-Sangha Diagnostic Center,Diagnostic Center,h.no. 40 balan ganj,Bhatpara,CO,70929,US,2025-10-24T00:44:22,Mann-Sangha Diagnostic Center,"H.No. 40
Balan Ganj",70929
CRM_B,CRM_B_O_ORG_0110_895,Mann-Sangha Diagnostic Center,Diagnostic Center,h.no. 40 balan ganj,Bhatpara,CO,70929,US,2025-10-13T18:41:06,Mann-Sangha Diagnostic Center,"H.No. 40
Balan Ganj",70929
CRM_A,CRM_A_O_ORG_0111_789,"Chaudhry, Mital And Kaur Pharmacy",Pharmacy,59 parmer road,Begusarai,MD,13268,US,2026-01-11T18:40:49,"Chaudhry, Mital and Kaur Pharmacy","59
Parmer Road",13268
CRM_B,CRM_B_O_ORG_0111_116,"Chaudhry, Mital And Kaur Pharmacy",Pharmacy,59 parmer road,Begusarai,MD,13268,US,2025-11-16T05:23:33,"Chaudhry, Mital and Kaur Pharmacy","59
Parmer Road",13268
CRM_A,CRM_A_O_ORG_0112_391,"Gera, Kale And Deshpande Lab",Lab,h.no. 53 palla ganj,Erode,FL,79756,US,2026-01-31T04:12:36,"Gera, Kale and Deshpande Lab","H.No. 53, Palla Ganj",79756
CRM_B,CRM_B_O_ORG_0112_368,"Gera, Kale And Deshpande Lab",Lab,h.no. 53 palla ganj,Erode,FL,79756,US,2025-12-17T11:58:48,"Gera, Kale and Deshpande Lab","H.No. 53, Palla Ganj",79756
CRM_A,CRM_A_O_ORG_0113_247,"Edwin, Deo And Viswanathan Lab",Lab,h.no. 75 dixit road,Korba,AL,67778,US,2026-01-31T21:28:40,"Edwin, Deo and Viswanathan Lab","H.No. 75
Dixit Road",67778
CRM_B,CRM_B_O_ORG_0113_285,"Edwin, Deo And Viswanathan Lab",Lab,h.no. 75 dixit road,Korba,AL,67778,US,2025-10-27T03:42:16,"Edwin, Deo and Viswanathan Lab",H.No. 75 Dixit Road,67778
CRM_A,CRM_A_O_ORG_0114_859,"Acharya, Chowdhury And Jaggi Diagnostic Center",Diagnostic Center,76/191 shan path,Bangalore,NC,84928,US,2025-11-01T19:35:40,"Acharya, Chowdhury and Jaggi Diagnostic Center","76/191, Shan Path",84928
CRM_B,CRM_B_O_ORG_0114_316,"Acharya, Chowdhury And Jaggi Diagnostic Ctr",Diagnostic Center,76/191 shan path,Bangalore,NC,84928,US,2025-10-19T18:43:54,"Acharya, Chowdhury and Jaggi Diagnostic Ctr","76/191, Shan Path",84928
CRM_A,CRM_A_O_ORG_0115_540,Mukhopadhyay Inc Lab,Lab,h.no. 581 dube marg,Coimbatore,CO,55995,US,2025-11-04T02:49:12,Mukhopadhyay Inc Lab,"H.No. 581, Dube Marg",55995
CRM_B,CRM_B_O_ORG_0115_583,Mukhopadhyay Inc Lab,Lab,h.no. 581 dube marg,Coimbatore,CO,55995,US,2025-12-09T03:40:37,Mukhopadhyay Inc Lab,"H.No. 581, Dube Marg",55995
CRM_A,CRM_A_O_ORG_0115_841,Mukhopadhyay Inc Lab,Lab,h.no. 581 dube marg,Coimbatore,CO,55995,US,2025-11-30T04:40:58,Mukhopadhyay Inc Lab,"H.No. 581, Dube Marg",55995
CRM_A,CRM_A_O_ORG_0116_182,Kohli-Mahajan Hospital,Hospital,11/58 ravel chowk,Agra,DL,779778,IN,2025-12-10T19:57:26,Kohli-Mahajan Hospital,"11/58, Ravel Chowk",779778
CRM_B,CRM_B_O_ORG_0116_642,Kohli-Mahajan Hospital,Hospital,11/58 ravel chowk,Agra,DL,779778,IN,2025-10-13T19:48:56,Kohli-Mahajan Hospital,11/58 Ravel Chowk,779778
CRM_A,CRM_A_O_ORG_0116_744,Kohli-Mahajan Hospital,Hospital,11/58 ravel chowk,Agra,DL,779778,IN,2026-02-17T08:10:31,Kohli-Mahajan Hospital,"11/58, Ravel Chowk",779778
CRM_A,CRM_A_O_ORG_0117_256,"Bhatt, Puri And Jaggi Hospital",Hospital,50/579 dara street,Rajkot,MA,95391,US,2025-12-12T07:21:44,"Bhatt, Puri and Jaggi Hospital","50/579
Dara Street",95391-6915
CRM_B,CRM_B_O_ORG_0117_212,"Bhatt, Puri And Jaggi Hospital",Hospital,50/579 dara street,Rajkot,MA,95391,US,2025-11-01T05:03:54,"Bhatt, Puri and Jaggi Hospital","50/579
Dara Street",95391-6915
CRM_A,CRM_A_O_ORG_0118_327,Chanda Inc Clinic,Clinic,94/430 dewan nagar,Morbi,KA,374611,IN,2026-01-25T08:46:39,Chanda Inc Clinic,"94/430, Dewan Nagar",374611
CRM_B,CRM_B_O_ORG_0118_788,Chanda Incorporated Clinic,Clinic,94/430 dewan nagar,Morbi,KA,374611,IN,2025-11-16T17:32:43,Chanda Incorporated Clinic,"94/430, Dewan Nagar",374611
CRM_B,CRM_B_O_ORG_0118_744,Chanda Inc Clinic,Clinic,94/430 dewan nagar,Morbi,KA,374611,IN,2025-12-05T12:45:48,Chanda Inc Clinic,"94/430, Dewan Nagar",374611
CRM_A,CRM_A_O_ORG_0119_518,Devi Inc Pharmacy,Pharmacy,h.no. 69 dhingra road,Haridwar,CT,74392,US,2025-11-21T12:14:13,Devi Inc Pharmacy,"H.No. 69
Dhingra Road",74392
CRM_B,CRM_B_O_ORG_0119_714,Devi Inc Pharmacy,Pharmacy,h.no. 69 dhingra road,Haridwar,CT,74392,US,2025-12-31T11:26:56,Devi Inc Pharmacy,"H.No. 69
Dhingra Road",74392
CRM_A,CRM_A_O_ORG_0120_345,"Gulati, Anand And Vora Clinic",Clinic,32 saxena marg,Kamarhati,NY,28519,US,2025-10-10T20:00:15,"Gulati, Anand and Vora Clinic","32, Saxena Marg",28519
CRM_B,CRM_B_O_ORG_0120_450,"Gulati, Anand And Vora Clinic",Clinic,32 saxena marg,Kamarhati,NY,28519,US,2025-11-30T18:33:43,"Gulati, Anand and Vora Clinic",32 Saxena Marg,28519
CRM_A,CRM_A_O_ORG_0121_450,"Chaudhry, Chahal And More Clinic",Clinic,h.no. 075 thakur ganj,Vijayawada,AL,11729,US,2025-10-19T14:39:53,"Chaudhry, Chahal and More Clinic","H.No. 075, Thakur Ganj",11729
CRM_B,CRM_B_O_ORG_0121_453,"Chaudhry, Chahal And More Clinic",Clinic,h.no. 075 thakur ganj,Vijayawada,AL,11729,US,2025-10-08T18:33:38,"Chaudhry, Chahal and More Clinic",H.No. 075 Thakur Ganj,11729
CRM_B,CRM_B_O_ORG_0121_229,"Chaudhry, Chahal And More Clinic",Clinic,h.no. 075 thakur ganj,Vijayawada,AL,11729,US,2025-11-19T02:32:51,"Chaudhry, Chahal and More Clinic","H.No. 075, Thakur Ganj",11729
CRM_A,CRM_A_O_ORG_0122_357,Chopra-Lata Hospital,Hospital,42 kant,Gandhinagar,PA,32402,US,2026-02-06T11:15:48,Chopra-Lata Hospital,"42, Kant",32402
CRM_B,CRM_B_O_ORG_0122_880,Chopra-Lata Hospital,Hospital,42 kant,Gandhinagar,PA,32402,US,2025-11-17T00:01:06,Chopra-Lata Hospital,"42, Kant",32402
CRM_B,CRM_B_O_ORG_0122_951,Chopra-Lata Hospital,Hospital,42 kant,Gandhinagar,PA,32402,US,2026-01-04T11:07:15,Chopra-Lata Hospital,"42, Kant",32402
CRM_A,CRM_A_O_ORG_0123_111,"Kurian, Raj And Choudhury Diagnostic Center",Diagnostic Center,838 sachar zila,Dewas,AL,33744,US,2025-10-30T19:01:32,"Kurian, Raj and Choudhury Diagnostic Center","838
Sachar Zila",33744
CRM_B,CRM_B_O_ORG_0123_952,"Kurian, Raj And Choudhury Diagnostic Center",Diagnostic Center,838 sachar zila,Dewas,AL,33744,US,2025-12-31T02:05:49,"Kurian, Raj and Choudhury Diagnostic Center","838
Sachar Zila",33744
CRM_A,CRM_A_O_ORG_0124_505,"Desai, Zachariah And Munshi Clinic",Clinic,h.no. 584 lad chowk,Proddatur,FL,93098,US,2025-12-12T09:32:11,"Desai, Zachariah and Munshi Clinic","H.No. 584
Lad Chowk",93098
CRM_A,CRM_A_O_ORG_0125_758,"Master, Suresh And Nayar Hospital",Hospital,97/24 shanker path,Gaya,NC,75336,US,2026-01-22T06:01:09,"Master, Suresh and Nayar Hospital","97/24, Shanker Path",75336-4204
CRM_B,CRM_B_O_ORG_0125_769,"Master, Suresh And Nayar Hospital",Hospital,97/24 shanker path,Gaya,NC,75336,US,2026-01-27T07:13:38,"Master, Suresh and Nayar Hospital",97/24 Shanker Path,75336-4204
CRM_A,CRM_A_O_ORG_0126_889,Oak-Pai Clinic,Clinic,h.no. 421 andra nagar,Dewas,CO,95355,US,2025-12-08T02:34:36,Oak-Pai Clinic,"H.No. 421
Andra Nagar",95355
CRM_B,CRM_B_O_ORG_0126_266,Oak-Pai Clinic,Clinic,h.no. 421 andra nagar,Dewas,CO,95355,US,2026-01-31T10:39:47,Oak-Pai Clinic,"H.No. 421
Andra Nagar",95355
CRM_A,CRM_A_O_ORG_0127_502,"Ratta, Dani And Choudhary Diagnostic Center",Diagnostic Center,85 prabhu road,Buxar,CO,41354,US,2025-12-30T12:31:00,"Ratta, Dani and Choudhary Diagnostic Center","85
Prabhu Road",41354
CRM_B,CRM_B_O_ORG_0127_788,"Ratta, Dani And Choudhary Diagnostic Ctr",Diagnostic Center,85 prabhu road,Buxar,CO,41354,US,2026-01-31T03:27:29,"Ratta, Dani and Choudhary Diagnostic Ctr",85 Prabhu Road,41354
CRM_B,CRM_B_O_ORG_0127_301,"Ratta, Dani And Choudhary Diagnostic Center",Diagnostic Center,85 prabhu road,Buxar,CO,41354,US,2025-11-23T14:05:18,"Ratta, Dani and Choudhary Diagnostic Center","85
Prabhu Road",41354
CRM_A,CRM_A_O_ORG_0128_875,"Balay, Pal And Sarraf Lab",Lab,26 goda,Patiala,MA,22061,US,2026-01-26T11:09:54,"Balay, Pal and Sarraf Lab","26
Goda",22061
CRM_B,CRM_B_O_ORG_0128_583,"Balay, Pal And Sarraf Lab",Lab,26 goda,Patiala,MA,22061,US,2025-12-04T19:29:26,"Balay, Pal and Sarraf Lab","26
Goda",22061
CRM_A,CRM_A_O_ORG_0129_453,"Nigam, Khurana And Anand Pharmacy",Pharmacy,25/539 goswami path,Silchar,WB,795567,IN,2025-11-30T08:47:33,"Nigam, Khurana and Anand Pharmacy","25/539, Goswami Path",795567
CRM_B,CRM_B_O_ORG_0129_517,"Nigam, Khurana And Anand Pharmacy",Pharmacy,25/539 goswami path,Silchar,WB,795567,IN,2026-01-24T10:33:15,"Nigam, Khurana and Anand Pharmacy","25/539, Goswami Path",795567
CRM_A,CRM_A_O_ORG_0130_508,"Jhaveri, Sha And Sura Pharmacy",Pharmacy,h.no. 252 pathak road,Patna,TN,368133,IN,2026-01-05T08:33:56,"Jhaveri, Sha and Sura Pharmacy","H.No. 252, Pathak Road",368133
CRM_B,CRM_B_O_ORG_0130_118,"Jhaveri, Sha And Sura Pharmacy",Pharmacy,h.no. 252 pathak road,Patna,TN,368133,IN,2025-12-23T00:23:34,"Jhaveri, Sha and Sura Pharmacy","H.No. 252, Pathak Road",368133
CRM_A,CRM_A_O_ORG_0131_105,Kant Inc Pharmacy,Pharmacy,h.no. 751 khanna chowk,Bharatpur,NC,57433,US,2026-01-11T12:09:38,Kant Inc Pharmacy,"H.No. 751, Khanna Chowk",57433
CRM_B,CRM_B_O_ORG_0131_937,Kant Inc Pharmacy,Pharmacy,h.no. 751 khanna chowk,Bharatpur,NC,57433,US,2026-01-06T09:53:51,Kant Inc Pharmacy,"H.No. 751, Khanna Chowk",57433
CRM_A,CRM_A_O_ORG_0132_599,"Hayre, Sabharwal And Dhar Clinic",Clinic,21/51 sanghvi path,Bijapur,IL,18596,US,2025-10-31T00:57:25,"Hayre, Sabharwal and Dhar Clinic","21/51
Sanghvi Path",18596
CRM_B,CRM_B_O_ORG_0132_641,"Hayre, Sabharwal And Dhar Clinic",Clinic,21/51 sanghvi path,Bijapur,IL,18596,US,2025-10-25T21:30:46,"Hayre, Sabharwal and Dhar Clinic","21/51
Sanghvi Path",18596
CRM_A,CRM_A_O_ORG_0133_175,Tandon Plc Diagnostic Center,Diagnostic Center,h.no. 713 kale path,Anand,NJ,64897,US,2025-12-06T21:10:40,Tandon PLC Diagnostic Center,"H.No. 713
Kale Path",64897
CRM_B,CRM_B_O_ORG_0133_349,Tandon Plc Diagnostic Center,Diagnostic Center,h.no. 713 kale path,Anand,NJ,64897,US,2026-01-20T15:29:41,Tandon PLC Diagnostic Center,H.No. 713 Kale Path,64897
CRM_A,CRM_A_O_ORG_0134_803,"Chacko, Bhalla And Palla Lab",Lab,25/62 kala chowk,Parbhani,PA,48885,US,2026-01-20T20:36:05,"Chacko, Bhalla and Palla Lab","25/62
Kala Chowk",48885
CRM_A,CRM_A_O_ORG_0135_427,Jaggi Inc Lab,Lab,h.no. 209 dhaliwal,Deoghar,GA,66224,US,2025-11-10T22:03:50,Jaggi Inc Lab,"H.No. 209
Dhaliwal",66224
CRM_B,CRM_B_O_ORG_0135_920,Jaggi Inc Lab,Lab,h.no. 209 dhaliwal,Deoghar,GA,66224,US,2025-10-09T16:30:02,Jaggi Inc Lab,"H.No. 209
Dhaliwal",66224
CRM_A,CRM_A_O_ORG_0136_120,"Soni, Memon And Dua Clinic",Clinic,51 kapadia path,Gandhidham,NJ,61332,US,2025-11-23T00:05:08,"Soni, Memon and Dua Clinic","51
Kapadia Path",61332
CRM_B,CRM_B_O_ORG_0136_344,"Soni, Memon And Dua Clinic",Clinic,51 kapadia path,Gandhidham,NJ,61332,US,2026-01-24T23:17:54,"Soni, Memon and Dua Clinic","51
Kapadia Path",61332
CRM_A,CRM_A_O_ORG_0137_701,Batta Ltd Clinic,Clinic,50/669 chawla,Bongaigaon,DL,130721,IN,2026-02-14T16:19:18,Batta Ltd Clinic,"50/669
Chawla",130721
CRM_B,CRM_B_O_ORG_0137_363,Batta Limited Clinic,Clinic,50/669 chawla,Bongaigaon,DL,130721,IN,2026-01-29T08:20:55,Batta Limited Clinic,"50/669
Chawla",130721
CRM_B,CRM_B_O_ORG_0137_535,Batta Limited Clnc,Clinic,50/669 chawla,Bongaigaon,DL,130721,IN,2025-12-05T07:56:00,Batta Limited Clnc,"50/669
Chawla",130721
CRM_A,CRM_A_O_ORG_0138_492,Randhawa-Vasa Lab,Lab,44/16 khalsa road,Navi Mumbai,WB,650004,IN,2025-10-20T00:20:33,Randhawa-Vasa Lab,"44/16
Khalsa Road",650004
CRM_B,CRM_B_O_ORG_0138_455,Randhawa-Vasa Lab,Lab,44/16 khalsa road,Navi Mumbai,WB,650004,IN,2025-12-13T16:08:02,Randhawa-Vasa Lab,44/16 Khalsa Road,650004
CRM_A,CRM_A_O_ORG_0138_615,Randhawa-Vasa Lab,Lab,44/16 khalsa road,Navi Mumbai,WB,650004,IN,2025-12-31T22:33:47,Randhawa-Vasa Lab,"44/16
Khalsa Road",650004
CRM_A,CRM_A_O_ORG_0139_371,Chahal Llc Lab,Lab,85/402 dass marg,Kadapa,PA,95255,US,2025-10-26T11:40:34,Chahal LLC Lab,"85/402
Dass Marg",95255
CRM_B,CRM_B_O_ORG_0139_423,Chahal Llc Lab,Lab,85/402 dass marg,Kadapa,PA,95255,US,2025-10-20T19:13:52,Chahal LLC Lab,"85/402
Dass Marg",95255
CRM_B,CRM_B_O_ORG_0139_570,Chahal Llc Lab,Lab,85/402 dass marg,Kadapa,PA,95255,US,2025-12-16T15:39:13,Chahal LLC Lab,"85/402
Dass Marg",95255
CRM_A,CRM_A_O_ORG_0140_968,Ramaswamy Ltd Lab,Lab,36/323 das path,Tirunelveli,WA,66442,US,2026-01-10T15:01:31,Ramaswamy Ltd Lab,"36/323, Das Path",66442
CRM_B,CRM_B_O_ORG_0140_389,Ramaswamy Ltd Lab,Lab,36/323 das path,Tirunelveli,WA,66442,US,2025-11-24T22:19:34,Ramaswamy Ltd Lab,"36/323, Das Path",66442
CRM_A,CRM_A_O_ORG_0141_154,Chakraborty Group Diagnostic Center,Diagnostic Center,13 sarraf nagar,Udupi,UP,133212,IN,2025-10-21T16:21:12,Chakraborty Group Diagnostic Center,"13
Sarraf Nagar",133212
CRM_B,CRM_B_O_ORG_0141_128,Chakraborty Group Diagnostic Ctr,Diagnostic Center,13 sarraf nagar,Udupi,UP,133212,IN,2025-11-16T11:08:45,Chakraborty Group Diagnostic Ctr,"13
Sarraf Nagar",133212
CRM_A,CRM_A_O_ORG_0142_787,"Sarma, Brar And Mannan Hospital",Hospital,54/430 shetty nagar,Naihati,MA,14178,US,2025-12-07T09:17:19,"Sarma, Brar and Mannan Hospital","54/430
Shetty Nagar",14178
CRM_B,CRM_B_O_ORG_0142_160,"Sarma, Brar And Mannan Hospital",Hospital,54/430 shetty nagar,Naihati,MA,14178,US,2025-12-11T02:15:10,"Sarma, Brar and Mannan Hospital","54/430
Shetty Nagar",14178
CRM_A,CRM_A_O_ORG_0143_330,"Seshadri, Suresh And Singh Pharmacy",Pharmacy,h.no. 465 thaker zila,Jalandhar,TX,11073,US,2025-12-05T15:10:02,"Seshadri, Suresh and Singh Pharmacy","H.No. 465
Thaker Zila",11073
CRM_B,CRM_B_O_ORG_0143_385,"Seshadri, Suresh And Singh Pharmacy",Pharmacy,h.no. 465 thaker zila,Jalandhar,TX,11073,US,2026-01-22T19:42:47,"Seshadri, Suresh and Singh Pharmacy",H.No. 465 Thaker Zila,11073
CRM_A,CRM_A_O_ORG_0144_219,Konda-Iyer Diagnostic Center,Diagnostic Center,h.no. 33 hegde marg,Thoothukudi,FL,84336,US,2025-11-19T04:49:11,Konda-Iyer Diagnostic Center,"H.No. 33, Hegde Marg",84336
CRM_B,CRM_B_O_ORG_0144_960,Konda-Iyer Diagnostic Center,Diagnostic Center,h.no. 33 hegde marg,Thoothukudi,FL,84336,US,2025-11-23T05:19:46,Konda-Iyer Diagnostic Center,"H.No. 33, Hegde Marg",84336
CRM_A,CRM_A_O_ORG_0145_728,Pandit-Sheth Pharmacy,Pharmacy,07 grover nagar,Lucknow,NY,87370,US,2025-11-25T13:46:59,Pandit-Sheth Pharmacy,"07
Grover Nagar",87370
CRM_B,CRM_B_O_ORG_0145_500,Pandit-Sheth Pharmacy,Pharmacy,07 grover nagar,Lucknow,NY,87370,US,2025-10-10T14:35:52,Pandit-Sheth Pharmacy,"07
Grover Nagar",87370
CRM_A,CRM_A_O_ORG_0146_531,Raj-Sane Hospital,Hospital,h.no. 695 varma nagar,Siliguri,MI,13745,US,2025-11-19T23:33:03,Raj-Sane Hospital,"H.No. 695
Varma Nagar",13745
CRM_B,CRM_B_O_ORG_0146_799,Raj-Sane Hospital,Hospital,h.no. 695 varma nagar,Siliguri,MI,13745,US,2025-10-10T18:34:56,Raj-Sane Hospital,"H.No. 695
Varma Nagar",13745
CRM_A,CRM_A_O_ORG_0147_824,Bumb-Batta Lab,Lab,96/55 deshpande ganj,Rohtak,CO,15039,US,2025-10-19T16:19:40,Bumb-Batta Lab,"96/55
Deshpande Ganj",15039
CRM_B,CRM_B_O_ORG_0147_808,Bumb-Batta Lab,Lab,96/55 deshpande ganj,Rohtak,CO,15039,US,2026-01-18T07:01:27,Bumb-Batta Lab,"96/55
Deshpande Ganj",15039
CRM_A,CRM_A_O_ORG_0148_872,Madan-Chhabra Lab,Lab,h.no. 240 hayre road,Saharsa,AL,34247,US,2026-01-31T11:49:34,Madan-Chhabra Lab,"H.No. 240
Hayre Road",34247-2543
CRM_B,CRM_B_O_ORG_0148_554,Madan-Chhabra Lab,Lab,h.no. 240 hayre road,Saharsa,AL,34247,US,2025-10-20T04:28:07,Madan-Chhabra Lab,"H.No. 240
Hayre Road",34247-2543
CRM_A,CRM_A_O_ORG_0149_468,Varma-Kade Hospital,Hospital,60/00 dugal zila,Anand,MD,70816,US,2026-01-28T22:16:18,Varma-Kade Hospital,"60/00
Dugal Zila",70816
CRM_B,CRM_B_O_ORG_0149_659,Varma-Kade Hospital,Hospital,60/00 dugal zila,Anand,MD,70816,US,2025-10-29T07:01:12,Varma-Kade Hospital,"60/00
Dugal Zila",70816
CRM_A,CRM_A_O_ORG_0150_974,Cherian-Ram Pharmacy,Pharmacy,81/93 dhillon,Jodhpur,GA,53333,US,2025-10-17T05:35:33,Cherian-Ram Pharmacy,"81/93, Dhillon",53333
CRM_B,CRM_B_O_ORG_0150_717,Cherian-Ram Pharmacy,Pharmacy,81/93 dhillon,Jodhpur,GA,53333,US,2025-12-02T16:16:43,Cherian-Ram Pharmacy,"81/93, Dhillon",53333
CRM_A,CRM_A_O_ORG_0151_501,"Chandran, Toor And Kannan Clinic",Clinic,87/92 sachdev zila,Delhi,CA,85511,US,2025-12-04T19:11:07,"Chandran, Toor and Kannan Clinic","87/92, Sachdev Zila",85511
CRM_B,CRM_B_O_ORG_0151_417,"Chandran, Toor And Kannan Clinic",Clinic,87/92 sachdev zila,Delhi,CA,85511,US,2025-12-21T07:57:42,"Chandran, Toor and Kannan Clinic","87/92, Sachdev Zila",85511
CRM_A,CRM_A_O_ORG_0152_348,Vohra Inc Clinic,Clinic,57/601 balay circle,Gandhidham,CT,44628,US,2025-12-02T02:37:09,Vohra Inc Clinic,"57/601
Balay Circle",44628
CRM_B,CRM_B_O_ORG_0152_680,Vohra Inc Clinic,Clinic,57/601 balay circle,Gandhidham,CT,44628,US,2025-12-11T21:34:06,Vohra Inc Clinic,"57/601
Balay Circle",44628
CRM_A,CRM_A_O_ORG_0153_108,"Nagarajan, Dass And Date Pharmacy",Pharmacy,491 dave path,Gulbarga,NJ,97534,US,2025-11-07T05:57:42,"Nagarajan, Dass and Date Pharmacy","491
Dave Path",97534
CRM_B,CRM_B_O_ORG_0153_763,"Nagarajan, Dass And Date Pharmacy",Pharmacy,491 dave path,Gulbarga,NJ,97534,US,2025-10-15T13:04:44,"Nagarajan, Dass and Date Pharmacy","491
Dave Path",97534
CRM_A,CRM_A_O_ORG_0154_653,"Chhabra, Raval And Sarin Pharmacy",Pharmacy,17/731 chacko ganj,Ramagundam,AK,35223,US,2026-02-14T14:35:11,"Chhabra, Raval and Sarin Pharmacy","17/731
Chacko Ganj",35223
CRM_B,CRM_B_O_ORG_0154_810,"Chhabra, Raval And Sarin Pharmacy",Pharmacy,17/731 chacko ganj,Ramagundam,AK,35223,US,2026-02-03T10:50:08,"Chhabra, Raval and Sarin Pharmacy","17/731
Chacko Ganj",35223
CRM_A,CRM_A_O_ORG_0155_409,"Korpal, D’Alia And Khatri Lab",Lab,762 oommen path,Pallavaram,MI,44018,US,2025-12-04T16:18:42,"Korpal, D’Alia and Khatri Lab","762
Oommen Path",44018
CRM_B,CRM_B_O_ORG_0155_438,"Korpal, D’Alia And Khatri Lab",Lab,762 oommen path,Pallavaram,MI,44018,US,2025-12-29T17:15:36,"Korpal, D’Alia and Khatri Lab","762
Oommen Path",44018
CRM_A,CRM_A_O_ORG_0156_852,Pingle-Bhatnagar Diagnostic Center,Diagnostic Center,25/66 choudhary path,Kakinada,NJ,92026,US,2025-12-26T09:28:46,Pingle-Bhatnagar Diagnostic Center,"25/66, Choudhary Path",92026
CRM_B,CRM_B_O_ORG_0156_499,Pingle-Bhatnagar Diagnostic Ctr,Diagnostic Center,25/66 choudhary path,Kakinada,NJ,92026,US,2025-10-25T07:31:39,Pingle-Bhatnagar Diagnostic Ctr,"25/66, Choudhary Path",92026
CRM_A,CRM_A_O_ORG_0157_862,"Choudhary, Shah And Gara Hospital",Hospital,h.no. 548 sachdev ganj,Deoghar,GA,49903,US,2026-02-01T20:23:16,"Choudhary, Shah and Gara Hospital","H.No. 548
Sachdev Ganj",49903
CRM_A,CRM_A_O_ORG_0158_623,Hayer Llc Clinic,Clinic,503 mander ganj,Ahmedabad,MI,14096,US,2026-01-30T10:53:17,Hayer LLC Clinic,"503, Mander Ganj",14096
CRM_A,CRM_A_O_ORG_0158_760,Hayer Llc Clinic,Clinic,503 mander ganj,Ahmedabad,MI,14096,US,2025-12-24T02:14:37,Hayer LLC Clinic,"503, Mander Ganj",14096
CRM_A,CRM_A_O_ORG_0159_878,"Solanki, Mukhopadhyay And Sagar Clinic",Clinic,h.no. 74 sangha road,Avadi,MH,670232,IN,2025-11-05T10:37:38,"Solanki, Mukhopadhyay and Sagar Clinic","H.No. 74
Sangha Road",670232
CRM_B,CRM_B_O_ORG_0159_121,"Solanki, Mukhopadhyay And Sagar Clinic",Clinic,h.no. 74 sangha road,Avadi,MH,670232,IN,2025-11-23T02:46:42,"Solanki, Mukhopadhyay and Sagar Clinic",H.No. 74 Sangha Road,670232
CRM_A,CRM_A_O_ORG_0160_687,"Kulkarni, Yohannan And Dhar Clinic",Clinic,73/98 cherian street,Ozhukarai,MH,563745,IN,2026-01-09T23:41:41,"Kulkarni, Yohannan and Dhar Clinic","73/98, Cherian Street",563745
CRM_B,CRM_B_O_ORG_0160_823,"Kulkarni, Yohannan And Dhar Clinic",Clinic,73/98 cherian street,Ozhukarai,MH,563745,IN,2025-12-01T21:03:20,"Kulkarni, Yohannan and Dhar Clinic","73/98, Cherian Street",563745
CRM_A,CRM_A_O_ORG_0160_386,"Kulkarni, Yohannan And Dhar Clinic",Clinic,73/98 cherian street,Ozhukarai,MH,563745,IN,2025-11-08T13:21:49,"Kulkarni, Yohannan and Dhar Clinic","73/98, Cherian Street",563745
CRM_A,CRM_A_O_ORG_0161_470,Uppal-Suri Clinic,Clinic,h.no. 05 kamdar nagar,Mau,CA,97529,US,2025-10-23T12:45:40,Uppal-Suri Clinic,"H.No. 05
Kamdar Nagar",97529
CRM_B,CRM_B_O_ORG_0161_463,Uppal-Suri Clnc,Clinic,h.no. 05 kamdar nagar,Mau,CA,97529,US,2025-12-26T02:26:38,Uppal-Suri Clnc,"H.No. 05
Kamdar Nagar",97529
CRM_A,CRM_A_O_ORG_0162_670,Johal Llc Pharmacy,Pharmacy,h.no. 08 naidu marg,Udupi,OH,31860,US,2025-11-20T21:12:36,Johal LLC Pharmacy,"H.No. 08
Naidu Marg",31860
CRM_B,CRM_B_O_ORG_0162_613,Johal Llc Pharmacy,Pharmacy,h.no. 08 naidu marg,Udupi,OH,31860,US,2025-11-02T01:01:13,Johal LLC Pharmacy,"H.No. 08
Naidu Marg",31860
CRM_A,CRM_A_O_ORG_0163_545,"Sanghvi, Kanda And Swaminathan Clinic",Clinic,h.no. 77 kari zila,Chandigarh,TN,889847,IN,2026-01-15T20:12:22,"Sanghvi, Kanda and Swaminathan Clinic","H.No. 77
Kari Zila",889847
CRM_B,CRM_B_O_ORG_0163_444,"Sanghvi, Kanda And Swaminathan Clinic",Clinic,h.no. 77 kari zila,Chandigarh,TN,889847,IN,2025-12-08T15:47:59,"Sanghvi, Kanda and Swaminathan Clinic",H.No. 77 Kari Zila,889847
CRM_A,CRM_A_O_ORG_0164_850,Nori Ltd Hospital,Hospital,83/410 pillay marg,Bhavnagar,PA,95852,US,2025-11-25T22:46:31,Nori Ltd Hospital,"83/410, Pillay Marg",95852
CRM_B,CRM_B_O_ORG_0164_914,Nori Limited Hospital,Hospital,83/410 pillay marg,Bhavnagar,PA,95852,US,2025-12-30T20:52:41,Nori Limited Hospital,"83/410, Pillay Marg",95852
CRM_A,CRM_A_O_ORG_0165_873,"Sehgal, Sama And Raja Hospital",Hospital,20 tara marg,Noida,,40676,US,2026-01-10T05:23:51,"Sehgal, Sama and Raja Hospital","20
Tara Marg",40676
CRM_B,CRM_B_O_ORG_0165_473,"Sehgal, Sama And Raja Hospital",Hospital,20 tara marg,Noida,,40676,US,2025-11-30T03:38:28,"Sehgal, Sama and Raja Hospital","20
Tara Marg",40676
CRM_A,CRM_A_O_ORG_0166_313,"Kaul, Kala And Prashad Clinic",Clinic,77/441 krishnamurthy nagar,Bhimavaram,NJ,88343,US,2025-10-15T12:05:33,"Kaul, Kala and Prashad Clinic","77/441
Krishnamurthy Nagar",88343
CRM_B,CRM_B_O_ORG_0166_145,"Kaul, Kala And Prashad Clinic",Clinic,77/441 krishnamurthy nagar,Bhimavaram,NJ,88343,US,2025-12-21T11:02:04,"Kaul, Kala and Prashad Clinic",77/441 Krishnamurthy Nagar,88343
CRM_A,CRM_A_O_ORG_0167_911,Dara-Choudhury Pharmacy,Pharmacy,00/340 korpal,Sasaram,AZ,50732,US,2026-01-29T09:38:18,Dara-Choudhury Pharmacy,"00/340, Korpal",50732
CRM_B,CRM_B_O_ORG_0167_322,Dara-Choudhury Pharmacy,Pharmacy,00/340 korpal,Sasaram,AZ,50732,US,2026-01-05T12:25:11,Dara-Choudhury Pharmacy,"00/340, Korpal",50732
CRM_A,CRM_A_O_ORG_0168_709,Sood Ltd Diagnostic Center,Diagnostic Center,32 kakar nagar,Hyderabad,MD,26389,US,2025-10-26T03:08:52,Sood Ltd Diagnostic Center,"32, Kakar Nagar",26389
CRM_B,CRM_B_O_ORG_0168_733,Sood Ltd Diagnostic Center,Diagnostic Center,32 kakar nagar,Hyderabad,MD,26389,US,2025-12-11T06:15:57,Sood Ltd Diagnostic Center,32 Kakar Nagar,26389
CRM_A,CRM_A_O_ORG_0169_308,Ranganathan-Rana Pharmacy,Pharmacy,51 loke circle,Danapur,UP,338618,IN,2025-11-25T05:37:18,Ranganathan-Rana Pharmacy,"51
Loke Circle",338618
CRM_B,CRM_B_O_ORG_0169_453,Ranganathan-Rana Pharmacy,Pharmacy,51 loke circle,Danapur,UP,338618,IN,2026-01-29T20:27:18,Ranganathan-Rana Pharmacy,"51
Loke Circle",338618
CRM_A,CRM_A_O_ORG_0170_305,"Tara, Sibal And Vora Clinic",Clinic,h.no. 87 parekh,Amaravati,CA,40035,US,2025-10-28T00:12:52,"Tara, Sibal and Vora Clinic","H.No. 87
Parekh",40035
CRM_B,CRM_B_O_ORG_0170_644,"Tara, Sibal And Vora Clinic",Clinic,h.no. 87 parekh,Amaravati,CA,40035,US,2026-01-24T19:28:55,"Tara, Sibal and Vora Clinic","H.No. 87
Parekh",40035
CRM_A,CRM_A_O_ORG_0171_693,Chada-Chaudhary Diagnostic Center,Diagnostic Center,17/94 bhavsar marg,Gandhinagar,DL,140347,IN,2026-01-14T13:56:39,Chada-Chaudhary Diagnostic Center,"17/94
Bhavsar Marg",140347
CRM_B,CRM_B_O_ORG_0171_151,Chada-Chaudhary Diagnostic Center,Diagnostic Center,17/94 bhavsar marg,Gandhinagar,DL,140347,IN,2025-12-30T13:25:11,Chada-Chaudhary Diagnostic Center,"17/94
Bhavsar Marg",140347
CRM_A,CRM_A_O_ORG_0172_450,"Goel, Kar And Pandya Hospital",Hospital,h.no. 832 varughese chowk,Katni,MI,95224,US,2025-11-29T23:08:00,"Goel, Kar and Pandya Hospital","H.No. 832, Varughese Chowk",95224
CRM_B,CRM_B_O_ORG_0172_316,"Goel, Kar And Pandya Hospital",Hospital,h.no. 832 varughese chowk,Katni,MI,95224,US,2026-01-10T19:58:29,"Goel, Kar and Pandya Hospital",H.No. 832 Varughese Chowk,95224
CRM_A,CRM_A_O_ORG_0173_337,"Sandal, Vohra And Mitra Clinic",Clinic,h.no. 032 narayanan marg,Ambattur,CO,58007,US,2026-02-02T17:25:56,"Sandal, Vohra and Mitra Clinic","H.No. 032, Narayanan Marg",58007
CRM_B,CRM_B_O_ORG_0173_143,"Sandal, Vohra And Mitra Clinic",Clinic,h.no. 032 narayanan marg,Ambattur,CO,58007,US,2025-12-22T12:58:51,"Sandal, Vohra and Mitra Clinic","H.No. 032, Narayanan Marg",58007
CRM_A,CRM_A_O_ORG_0174_305,Nadig And Sons Clinic,Clinic,h.no. 142 savant nagar,Dindigul,CO,43469,US,2025-10-18T10:39:05,Nadig and Sons Clinic,"H.No. 142
Savant Nagar",43469
CRM_B,CRM_B_O_ORG_0174_384,Nadig And Sons Clinic,Clinic,h.no. 142 savant nagar,Dindigul,CO,43469,US,2026-01-23T08:45:19,Nadig and Sons Clinic,"H.No. 142
Savant Nagar",43469
CRM_A,CRM_A_O_ORG_0175_780,Kapoor And Sons Pharmacy,Pharmacy,949 soni path,Meerut,MI,34222,US,2025-11-06T07:12:13,Kapoor and Sons Pharmacy,"949
Soni Path",34222
CRM_B,CRM_B_O_ORG_0175_302,Kapoor And Sons Pharmacy,Pharmacy,949 soni path,Meerut,MI,34222,US,2025-11-17T15:37:38,Kapoor and Sons Pharmacy,"949
Soni Path",34222
CRM_A,CRM_A_O_ORG_0176_489,Sahni Ltd Lab,Lab,h.no. 849 sridhar street,Barasat,AZ,13182,US,2025-12-03T21:26:34,Sahni Ltd Lab,"H.No. 849, Sridhar Street",13182
CRM_B,CRM_B_O_ORG_0176_932,Sahni Ltd Lab,Lab,h.no. 849 sridhar street,Barasat,AZ,13182,US,2025-11-01T21:25:24,Sahni Ltd Lab,H.No. 849 Sridhar Street,13182
CRM_A,CRM_A_O_ORG_0176_677,Sahni Ltd Lab,Lab,h.no. 849 sridhar street,Barasat,AZ,13182,US,2025-12-18T12:12:44,Sahni Ltd Lab,"H.No. 849, Sridhar Street",13182
CRM_A,CRM_A_O_ORG_0177_994,Jha-Vig Hospital,Hospital,76/12 sen,Pallavaram,IL,36623,US,2025-10-29T16:28:16,Jha-Vig Hospital,"76/12
Sen",36623
CRM_A,CRM_A_O_ORG_0178_168,Doshi-Comar Diagnostic Center,Diagnostic Center,h.no. 45 bir marg,Ambattur,GA,21082,US,2025-10-26T09:42:23,Doshi-Comar Diagnostic Center,"H.No. 45, Bir Marg",21082
CRM_B,CRM_B_O_ORG_0178_930,Doshi-Comar Diagnostic Center,Diagnostic Center,h.no. 45 bir marg,Ambattur,GA,21082,US,2026-01-25T02:07:26,Doshi-Comar Diagnostic Center,"H.No. 45, Bir Marg",21082
CRM_A,CRM_A_O_ORG_0179_829,Padmanabhan Ltd Clinic,Clinic,83/489 patil,Amritsar,UP,796749,IN,2026-02-10T08:01:22,Padmanabhan Ltd Clinic,"83/489, Patil",796749
CRM_B,CRM_B_O_ORG_0179_981,Padmanabhan Limited Clinic,Clinic,83/489 patil,Amritsar,UP,796749,IN,2026-01-31T23:32:27,Padmanabhan Limited Clinic,"83/489, Patil",796749
CRM_A,CRM_A_O_ORG_0180_177,Bedi Inc Hospital,Hospital,04/00 mammen street,Hospet,MH,436271,IN,2025-12-16T17:16:42,Bedi Inc Hospital,"04/00
Mammen Street",436271
CRM_A,CRM_A_O_ORG_0180_922,Bedi Inc Hospital,Hospital,04/00 mammen street,Hospet,MH,436271,IN,2026-01-02T01:42:03,Bedi Inc Hospital,"04/00
Mammen Street",436271
CRM_A,CRM_A_O_ORG_0181_714,Kale Group Hospital,Hospital,373 brahmbhatt ganj,Dewas,CO,71302,US,2025-11-27T00:28:28,Kale Group Hospital,"373
Brahmbhatt Ganj",71302
CRM_A,CRM_A_O_ORG_0182_326,"Dixit, Mukhopadhyay And Bhatnagar Lab",Lab,71/897 gaba marg,Nangloi Jat,NC,69233,US,2026-01-10T03:27:42,"Dixit, Mukhopadhyay and Bhatnagar Lab","71/897
Gaba Marg",69233
CRM_B,CRM_B_O_ORG_0182_119,"Dixit, Mukhopadhyay And Bhatnagar Lab",Lab,71/897 gaba marg,Nangloi Jat,NC,69233,US,2025-11-04T01:01:15,"Dixit, Mukhopadhyay and Bhatnagar Lab",71/897 Gaba Marg,69233
CRM_B,CRM_B_O_ORG_0182_310,"Dixit, Mukhopadhyay And Bhatnagar Lab",Lab,71/897 gaba marg,Nangloi Jat,NC,69233,US,2026-01-19T06:45:05,"Dixit, Mukhopadhyay and Bhatnagar Lab","71/897
Gaba Marg",69233
CRM_A,CRM_A_O_ORG_0183_848,Menon-Dhaliwal Pharmacy,Pharmacy,h.no. 017 tandon street,Hosur,CT,90528,US,2025-11-25T03:39:42,Menon-Dhaliwal Pharmacy,"H.No. 017, Tandon Street",90528
CRM_B,CRM_B_O_ORG_0183_627,Menon-Dhaliwal Pharmacy,Pharmacy,h.no. 017 tandon street,Hosur,CT,90528,US,2025-10-10T20:50:31,Menon-Dhaliwal Pharmacy,"H.No. 017, Tandon Street",90528
CRM_A,CRM_A_O_ORG_0184_212,Buch Ltd Pharmacy,Pharmacy,h.no. 750 sama chowk,Jodhpur,AK,91074,US,2025-11-06T02:11:34,Buch Ltd Pharmacy,"H.No. 750
Sama Chowk",91074
CRM_B,CRM_B_O_ORG_0184_184,Buch Limited Pharmacy,Pharmacy,h.no. 750 sama chowk,Jodhpur,AK,91074,US,2025-10-07T08:58:46,Buch Limited Pharmacy,"H.No. 750
Sama Chowk",91074
CRM_A,CRM_A_O_ORG_0185_130,Dhawan Llc Clinic,Clinic,49/619 nagar marg,Phagwara,CA,19898,US,2026-01-16T06:10:23,Dhawan LLC Clinic,"49/619, Nagar Marg",19898
CRM_B,CRM_B_O_ORG_0185_330,Dhawan Llc Clinic,Clinic,49/619 nagar marg,Phagwara,CA,19898,US,2025-11-30T12:11:22,Dhawan LLC Clinic,"49/619, Nagar Marg",19898
CRM_A,CRM_A_O_ORG_0186_919,Ramanathan-Garg Pharmacy,Pharmacy,h.no. 457 samra nagar,Katihar,MH,556287,IN,2026-01-20T12:23:19,Ramanathan-Garg Pharmacy,"H.No. 457
Samra Nagar",556287
CRM_B,CRM_B_O_ORG_0186_347,Ramanathan-Garg Pharmacy,Pharmacy,h.no. 457 samra nagar,Katihar,MH,556287,IN,2025-11-15T13:21:02,Ramanathan-Garg Pharmacy,"H.No. 457
Samra Nagar",556287
CRM_B,CRM_B_O_ORG_0186_203,Ramanathan-Garg Pharmacy,Pharmacy,h.no. 457 samra nagar,Katihar,MH,556287,IN,2026-01-21T03:28:30,Ramanathan-Garg Pharmacy,"H.No. 457
Samra Nagar",556287
CRM_A,CRM_A_O_ORG_0187_705,"Sant, Tripathi And Sarin Lab",Lab,785 shere chowk,Madhyamgram,KA,243559,IN,2025-11-19T10:07:03,"Sant, Tripathi and Sarin Lab","785, Shere Chowk",243559
CRM_B,CRM_B_O_ORG_0187_855,"Sant, Tripathi And Sarin Lab",Lab,785 shere chowk,Madhyamgram,KA,243559,IN,2025-10-25T19:11:00,"Sant, Tripathi and Sarin Lab",785 Shere Chowk,243559
CRM_A,CRM_A_O_ORG_0188_612,Gokhale Inc Pharmacy,Pharmacy,91/767 suri nagar,Mumbai,NY,55384,US,2025-10-31T05:56:50,Gokhale Inc Pharmacy,"91/767, Suri Nagar",55384
CRM_A,CRM_A_O_ORG_0188_961,Gokhale Inc Pharmacy,Pharmacy,91/767 suri nagar,Mumbai,NY,55384,US,2026-01-29T07:36:07,Gokhale Inc Pharmacy,"91/767, Suri Nagar",55384
CRM_A,CRM_A_O_ORG_0189_781,Garg Ltd Hospital,Hospital,62/44 goswami path,Dibrugarh,UP,491286,IN,2025-11-06T02:17:28,Garg Ltd Hospital,"62/44
Goswami Path",491286
CRM_B,CRM_B_O_ORG_0189_917,Garg Ltd Hospital,Hospital,62/44 goswami path,Dibrugarh,UP,491286,IN,2025-11-26T17:11:47,Garg Ltd Hospital,"62/44
Goswami Path",491286
CRM_A,CRM_A_O_ORG_0190_389,Hayre-Acharya Lab,Lab,987 baral circle,Baranagar,KA,153601,IN,2026-02-02T23:28:17,Hayre-Acharya Lab,"987, Baral Circle",153601
CRM_B,CRM_B_O_ORG_0190_426,Hayre-Acharya Lab,Lab,987 baral circle,Baranagar,KA,153601,IN,2025-12-26T07:41:04,Hayre-Acharya Lab,"987, Baral Circle",153601
CRM_A,CRM_A_O_ORG_0191_328,Oak-Mohanty Pharmacy,Pharmacy,86/849 sur circle,Madanapalle,,78254,US,2025-10-17T18:30:16,Oak-Mohanty Pharmacy,"86/849, Sur Circle",78254
CRM_B,CRM_B_O_ORG_0191_259,Oak-Mohanty Pharmacy,Pharmacy,86/849 sur circle,Madanapalle,,78254,US,2026-01-09T03:56:01,Oak-Mohanty Pharmacy,"86/849, Sur Circle",78254
CRM_A,CRM_A_O_ORG_0192_107,"Hari, Gokhale And Amble Hospital",Hospital,92/268 thaker marg,Indore,OH,50590,US,2026-01-26T19:37:42,"Hari, Gokhale and Amble Hospital","92/268, Thaker Marg",50590
CRM_B,CRM_B_O_ORG_0192_348,"Hari, Gokhale And Amble Hospital",Hospital,92/268 thaker marg,Indore,OH,50590,US,2025-12-26T21:33:39,"Hari, Gokhale and Amble Hospital",92/268 Thaker Marg,50590
CRM_A,CRM_A_O_ORG_0193_700,"Jhaveri, Singhal And Peri Lab",Lab,78/545 raju chowk,Kakinada,AK,69321,US,2026-01-29T03:25:43,"Jhaveri, Singhal and Peri Lab","78/545
Raju Chowk",69321
CRM_B,CRM_B_O_ORG_0193_397,"Jhaveri, Singhal And Peri Lab",Lab,78/545 raju chowk,Kakinada,AK,69321,US,2026-01-12T09:07:29,"Jhaveri, Singhal and Peri Lab","78/545
Raju Chowk",69321
CRM_A,CRM_A_O_ORG_0194_116,Dhar Llc Hospital,Hospital,h.no. 30 choudhury circle,Bikaner,KA,385423,IN,2025-11-29T01:38:48,Dhar LLC Hospital,"H.No. 30
Choudhury Circle",385423
CRM_B,CRM_B_O_ORG_0194_256,Dhar Llc Hosp,Hospital,h.no. 30 choudhury circle,Bikaner,KA,385423,IN,2025-12-04T14:38:10,Dhar LLC Hosp,"H.No. 30
Choudhury Circle",385423
CRM_A,CRM_A_O_ORG_0195_698,Ghose Llc Pharmacy,Pharmacy,h.no. 04 devi zila,Bidar,FL,49006,US,2025-10-21T19:57:02,Ghose LLC Pharmacy,"H.No. 04
Devi Zila",49006
CRM_B,CRM_B_O_ORG_0195_847,Ghose Llc Pharmacy,Pharmacy,h.no. 04 devi zila,Bidar,FL,49006,US,2026-01-21T03:16:38,Ghose LLC Pharmacy,"H.No. 04
Devi Zila",49006
CRM_A,CRM_A_O_ORG_0196_150,Mohan-Khare Clinic,Clinic,09/455 kata chowk,Baranagar,TX,65569,US,2026-02-21T14:49:23,Mohan-Khare Clinic,"09/455
Kata Chowk",65569
CRM_B,CRM_B_O_ORG_0196_723,Mohan-Khare Clinic,Clinic,09/455 kata chowk,Baranagar,TX,65569,US,2025-10-21T18:37:25,Mohan-Khare Clinic,"09/455
Kata Chowk",65569
CRM_B,CRM_B_O_ORG_0196_512,Mohan-Khare Clinic,Clinic,09/455 kata chowk,Baranagar,TX,65569,US,2025-10-25T08:23:27,Mohan-Khare Clinic,"09/455
Kata Chowk",65569
CRM_A,CRM_A_O_ORG_0197_989,"Dora, Samra And Sami Clinic",Clinic,477 agate marg,Miryalaguda,CA,97166,US,2026-01-26T20:01:30,"Dora, Samra and Sami Clinic","477, Agate Marg",97166
CRM_B,CRM_B_O_ORG_0197_727,"Dora, Samra And Sami Clinic",Clinic,477 agate marg,Miryalaguda,CA,97166,US,2025-12-10T14:08:53,"Dora, Samra and Sami Clinic","477, Agate Marg",97166
CRM_A,CRM_A_O_ORG_0198_112,Thakkar Inc Lab,Lab,h.no. 002 mutti road,Darbhanga,CT,42055,US,2025-10-29T03:46:32,Thakkar Inc Lab,"H.No. 002
Mutti Road",42055
CRM_B,CRM_B_O_ORG_0198_217,Thakkar Incorporated Lab,Lab,h.no. 002 mutti road,Darbhanga,CT,42055,US,2025-10-11T17:03:12,Thakkar Incorporated Lab,"H.No. 002
Mutti Road",42055
CRM_A,CRM_A_O_ORG_0199_572,Sharaf Ltd Lab,Lab,96/97 konda,Pudukkottai,AK,10382,US,2026-01-02T10:29:57,Sharaf Ltd Lab,"96/97, Konda",10382
CRM_B,CRM_B_O_ORG_0199_734,Sharaf Limited Lab,Lab,96/97 konda,Pudukkottai,AK,10382,US,2026-01-10T10:34:45,Sharaf Limited Lab,"96/97, Konda",10382
CRM_A,CRM_A_O_ORG_0200_851,Korpal Plc Clinic,Clinic,38/768 kade circle,Nagaon,TX,40939,US,2025-10-25T18:13:45,Korpal PLC Clinic,"38/768, Kade Circle",40939
CRM_B,CRM_B_O_ORG_0200_567,Korpal Plc Clinic,Clinic,38/768 kade circle,Nagaon,TX,40939,US,2025-12-25T12:47:45,Korpal PLC Clinic,"38/768, Kade Circle",40939
CRM_A,CRM_A_O_ORG_0201_916,"Wagle, Doctor And Pai Hospital",Hospital,38 yohannan marg,Burhanpur,TX,98095,US,2025-11-29T05:18:43,"Wagle, Doctor and Pai Hospital","38, Yohannan Marg",98095
CRM_B,CRM_B_O_ORG_0201_471,"Wagle, Doctor And Pai Hosp",Hospital,38 yohannan marg,Burhanpur,TX,98095,US,2025-12-07T06:04:33,"Wagle, Doctor and Pai Hosp","38, Yohannan Marg",98095
CRM_A,CRM_A_O_ORG_0202_236,Gole-Dhar Pharmacy,Pharmacy,h.no. 07 keer,Tinsukia,CA,11184,US,2025-10-07T19:40:41,Gole-Dhar Pharmacy,"H.No. 07, Keer",11184
CRM_B,CRM_B_O_ORG_0202_101,Gole-Dhar Pharmacy,Pharmacy,h.no. 07 keer,Tinsukia,CA,11184,US,2026-01-21T18:04:42,Gole-Dhar Pharmacy,"H.No. 07, Keer",11184
CRM_A,CRM_A_O_ORG_0203_899,Kaul-Parsa Hospital,Hospital,h.no. 998 puri nagar,Kavali,VA,72768,US,2025-10-28T16:58:03,Kaul-Parsa Hospital,"H.No. 998, Puri Nagar",72768
CRM_B,CRM_B_O_ORG_0203_350,Kaul-Parsa Hospital,Hospital,h.no. 998 puri nagar,Kavali,VA,72768,US,2026-01-05T17:31:03,Kaul-Parsa Hospital,"H.No. 998, Puri Nagar",72768
CRM_B,CRM_B_O_ORG_0203_134,Kaul-Parsa Hospital,Hospital,h.no. 998 puri nagar,Kavali,VA,72768,US,2026-01-18T00:44:27,Kaul-Parsa Hospital,"H.No. 998, Puri Nagar",72768
CRM_A,CRM_A_O_ORG_0204_835,Balasubramanian-Hegde Hospital,Hospital,h.no. 29 panchal,Hosur,UP,588486,IN,2026-01-08T20:17:43,Balasubramanian-Hegde Hospital,"H.No. 29, Panchal",588486
CRM_B,CRM_B_O_ORG_0204_541,Balasubramanian-Hegde Hosp,Hospital,h.no. 29 panchal,Hosur,UP,588486,IN,2025-12-28T09:00:44,Balasubramanian-Hegde Hosp,"H.No. 29, Panchal",588486
CRM_A,CRM_A_O_ORG_0205_212,Sheth-Dube Pharmacy,Pharmacy,62 chakrabarti circle,Hospet,VA,34141,US,2026-02-13T01:52:13,Sheth-Dube Pharmacy,"62, Chakrabarti Circle",34141
CRM_B,CRM_B_O_ORG_0205_199,Sheth-Dube Pharmacy,Pharmacy,62 chakrabarti circle,Hospet,VA,34141,US,2026-01-08T15:29:14,Sheth-Dube Pharmacy,"62, Chakrabarti Circle",34141
CRM_B,CRM_B_O_ORG_0205_251,Sheth-Dube Pharmacy,Pharmacy,62 chakrabarti circle,Hospet,VA,34141,US,2025-11-07T06:43:36,Sheth-Dube Pharmacy,62 Chakrabarti Circle,34141
CRM_A,CRM_A_O_ORG_0206_306,Sarraf-Shan Hospital,Hospital,67/39 borra chowk,Narasaraopet,AL,23070,US,2025-11-03T22:02:15,Sarraf-Shan Hospital,"67/39
Borra Chowk",23070
CRM_B,CRM_B_O_ORG_0206_800,Sarraf-Shan Hospital,Hospital,67/39 borra chowk,Narasaraopet,AL,23070,US,2025-12-04T08:56:14,Sarraf-Shan Hospital,"67/39
Borra Chowk",23070
CRM_A,CRM_A_O_ORG_0207_467,Parmer Ltd Pharmacy,Pharmacy,h.no. 68 kari,Patna,MH,219684,IN,2026-01-26T15:17:32,Parmer Ltd Pharmacy,"H.No. 68
Kari",219684
CRM_B,CRM_B_O_ORG_0207_983,Parmer Ltd Pharmacy,Pharmacy,h.no. 68 kari,Patna,MH,219684,IN,2025-11-06T10:14:44,Parmer Ltd Pharmacy,"H.No. 68
Kari",219684
CRM_B,CRM_B_O_ORG_0207_548,Parmer Limited Pharmacy,Pharmacy,h.no. 68 kari,Patna,MH,219684,IN,2026-01-08T04:53:22,Parmer Limited Pharmacy,"H.No. 68
Kari",219684
CRM_A,CRM_A_O_ORG_0208_381,Kale-Sunder Hospital,Hospital,h.no. 624 rama street,Pimpri-Chinchwad,IL,97987,US,2025-10-24T02:48:51,Kale-Sunder Hospital,"H.No. 624
Rama Street",97987
CRM_B,CRM_B_O_ORG_0208_174,Kale-Sunder Hospital,Hospital,h.no. 624 rama street,Pimpri-Chinchwad,IL,97987,US,2025-12-21T10:23:44,Kale-Sunder Hospital,"H.No. 624
Rama Street",97987
CRM_B,CRM_B_O_ORG_0208_723,Kale-Sunder Hospital,Hospital,h.no. 624 rama street,Pimpri-Chinchwad,IL,97987,US,2026-01-15T17:08:04,Kale-Sunder Hospital,"H.No. 624
Rama Street",97987
CRM_A,CRM_A_O_ORG_0209_168,"Keer, Khurana And Doshi Clinic",Clinic,77/36 chopra path,Medininagar,WA,10841,US,2025-11-08T02:53:58,"Keer, Khurana and Doshi Clinic","77/36
Chopra Path",10841
CRM_B,CRM_B_O_ORG_0209_579,"Keer, Khurana And Doshi Clinic",Clinic,77/36 chopra path,Medininagar,WA,10841,US,2025-11-24T20:52:54,"Keer, Khurana and Doshi Clinic","77/36
Chopra Path",10841
CRM_A,CRM_A_O_ORG_0210_291,Yadav Group Diagnostic Center,Diagnostic Center,h.no. 329 bail road,Patiala,AZ,91555,US,2025-12-22T22:54:40,Yadav Group Diagnostic Center,"H.No. 329
Bail Road",91555
CRM_B,CRM_B_O_ORG_0210_748,Yadav Group Diagnostic Center,Diagnostic Center,h.no. 329 bail road,Patiala,AZ,91555,US,2025-11-30T11:57:35,Yadav Group Diagnostic Center,"H.No. 329
Bail Road",91555
CRM_A,CRM_A_O_ORG_0211_547,Sodhi-Gopal Lab,Lab,63 pall,Siliguri,MA,71946,US,2025-11-25T08:01:26,Sodhi-Gopal Lab,"63
Pall",71946
CRM_B,CRM_B_O_ORG_0211_418,Sodhi-Gopal Lab,Lab,63 pall,Siliguri,MA,71946,US,2025-11-03T14:33:22,Sodhi-Gopal Lab,"63
Pall",71946
CRM_B,CRM_B_O_ORG_0211_443,Sodhi-Gopal Lab,Lab,63 pall,Siliguri,MA,71946,US,2025-10-19T06:26:06,Sodhi-Gopal Lab,"63
Pall",71946
CRM_A,CRM_A_O_ORG_0212_645,Virk-Naidu Pharmacy,Pharmacy,h.no. 728 karan road,Loni,NC,88648,US,2025-10-25T02:06:42,Virk-Naidu Pharmacy,"H.No. 728, Karan Road",88648
CRM_B,CRM_B_O_ORG_0212_114,Virk-Naidu Pharmacy,Pharmacy,h.no. 728 karan road,Loni,NC,88648,US,2026-01-21T05:32:38,Virk-Naidu Pharmacy,"H.No. 728, Karan Road",88648
CRM_A,CRM_A_O_ORG_0213_730,Bala Plc Clinic,Clinic,92 munshi road,Khammam,NJ,99699,US,2025-10-27T20:30:18,Bala PLC Clinic,"92
Munshi Road",99699
CRM_B,CRM_B_O_ORG_0213_369,Bala Plc Clnc,Clinic,92 munshi road,Khammam,NJ,99699,US,2026-01-14T09:44:19,Bala PLC Clnc,92 Munshi Road,99699
CRM_A,CRM_A_O_ORG_0214_971,Loke Plc Diagnostic Center,Diagnostic Center,h.no. 87 pai ganj,Dindigul,UP,624787,IN,2026-02-09T07:40:32,Loke PLC Diagnostic Center,"H.No. 87, Pai Ganj",624787
CRM_B,CRM_B_O_ORG_0214_246,Loke Plc Diagnostic Center,Diagnostic Center,h.no. 87 pai ganj,Dindigul,UP,624787,IN,2025-11-04T10:25:37,Loke PLC Diagnostic Center,H.No. 87 Pai Ganj,624787
CRM_A,CRM_A_O_ORG_0215_464,Kara-Mangat Clinic,Clinic,649 ramanathan,Ghaziabad,CO,62532,US,2025-12-11T12:37:52,Kara-Mangat Clinic,"649
Ramanathan",62532
CRM_B,CRM_B_O_ORG_0215_532,Kara-Mangat Clinic,Clinic,649 ramanathan,Ghaziabad,CO,62532,US,2025-11-29T17:31:54,Kara-Mangat Clinic,649 Ramanathan,62532
CRM_A,CRM_A_O_ORG_0216_361,Tata-Saxena Pharmacy,Pharmacy,222 mohanty marg,Guwahati,NC,67752,US,2026-01-13T20:20:46,Tata-Saxena Pharmacy,"222
Mohanty Marg",67752
CRM_B,CRM_B_O_ORG_0216_134,Tata-Saxena Pharmacy,Pharmacy,222 mohanty marg,Guwahati,NC,67752,US,2026-01-31T00:07:22,Tata-Saxena Pharmacy,222 Mohanty Marg,67752
CRM_A,CRM_A_O_ORG_0217_946,Khurana-Khalsa Pharmacy,Pharmacy,h.no. 270 sharma street,Allahabad,AL,22903,US,2025-11-26T11:15:30,Khurana-Khalsa Pharmacy,"H.No. 270, Sharma Street",22903
CRM_B,CRM_B_O_ORG_0217_958,Khurana-Khalsa Pharmacy,Pharmacy,h.no. 270 sharma street,Allahabad,AL,22903,US,2026-01-25T17:14:25,Khurana-Khalsa Pharmacy,"H.No. 270, Sharma Street",22903
CRM_B,CRM_B_O_ORG_0217_459,Khurana-Khalsa Pharmacy,Pharmacy,h.no. 270 sharma street,Allahabad,AL,22903,US,2025-12-11T20:21:31,Khurana-Khalsa Pharmacy,"H.No. 270, Sharma Street",22903
CRM_A,CRM_A_O_ORG_0218_455,Saini-Singhal Lab,Lab,93/805 krishnan zila,New Delhi,PA,16099,US,2025-11-26T14:41:33,Saini-Singhal Lab,"93/805
Krishnan Zila",16099
CRM_B,CRM_B_O_ORG_0218_809,Saini-Singhal Lab,Lab,93/805 krishnan zila,New Delhi,PA,16099,US,2025-10-31T06:42:05,Saini-Singhal Lab,"93/805
Krishnan Zila",16099
CRM_A,CRM_A_O_ORG_0219_673,"Purohit, Anne And Dada Lab",Lab,12/07 ahuja path,Nagpur,CO,19023,US,2026-01-01T17:21:32,"Purohit, Anne and Dada Lab","12/07
Ahuja Path",19023
CRM_B,CRM_B_O_ORG_0219_459,"Purohit, Anne And Dada Lab",Lab,12/07 ahuja path,Nagpur,CO,19023,US,2025-11-17T06:23:14,"Purohit, Anne and Dada Lab","12/07
Ahuja Path",19023
CRM_B,CRM_B_O_ORG_0219_553,"Purohit, Anne And Dada Lab",Lab,12/07 ahuja path,Nagpur,CO,19023,US,2026-02-01T01:16:26,"Purohit, Anne and Dada Lab","12/07
Ahuja Path",19023
CRM_A,CRM_A_O_ORG_0220_982,Buch-Pall Clinic,Clinic,59/39 dhawan street,Bardhaman,NC,36842,US,2025-10-18T19:41:15,Buch-Pall Clinic,"59/39
Dhawan Street",36842
CRM_B,CRM_B_O_ORG_0220_768,Buch-Pall Clinic,Clinic,59/39 dhawan street,Bardhaman,NC,36842,US,2025-10-28T07:56:55,Buch-Pall Clinic,59/39 Dhawan Street,36842
CRM_A,CRM_A_O_ORG_0221_847,Parekh-Sarin Hospital,Hospital,322 mitter zila,Parbhani,AL,69910,US,2026-01-01T05:00:20,Parekh-Sarin Hospital,"322
Mitter Zila",69910-7817
CRM_B,CRM_B_O_ORG_0221_238,Parekh-Sarin Hosp,Hospital,322 mitter zila,Parbhani,AL,69910,US,2025-10-16T12:30:50,Parekh-Sarin Hosp,"322
Mitter Zila",69910-7817
CRM_B,CRM_B_O_ORG_0221_982,Parekh-Sarin Hosp,Hospital,322 mitter zila,Parbhani,AL,69910,US,2026-01-03T00:06:02,Parekh-Sarin Hosp,"322
Mitter Zila",69910-7817
CRM_A,CRM_A_O_ORG_0222_704,Gupta Plc Hospital,Hospital,17/699 joshi ganj,Mathura,UP,492789,IN,2025-11-03T09:44:58,Gupta PLC Hospital,"17/699
Joshi Ganj",492789
CRM_B,CRM_B_O_ORG_0222_933,Gupta Plc Hospital,Hospital,17/699 joshi ganj,Mathura,UP,492789,IN,2025-12-21T04:18:04,Gupta PLC Hospital,"17/699
Joshi Ganj",492789
CRM_A,CRM_A_O_ORG_0223_252,"Buch, Nadig And Saraf Diagnostic Center",Diagnostic Center,07/05 pingle marg,Ahmedabad,PA,79712,US,2025-10-22T09:26:15,"Buch, Nadig and Saraf Diagnostic Center","07/05
Pingle Marg",79712
CRM_B,CRM_B_O_ORG_0223_734,"Buch, Nadig And Saraf Diagnostic Center",Diagnostic Center,07/05 pingle marg,Ahmedabad,PA,79712,US,2026-01-29T15:47:01,"Buch, Nadig and Saraf Diagnostic Center","07/05
Pingle Marg",79712
CRM_A,CRM_A_O_ORG_0224_241,Joshi-Sabharwal Pharmacy,Pharmacy,12/874 thakkar nagar,Rajkot,FL,13566,US,2025-10-20T19:36:12,Joshi-Sabharwal Pharmacy,"12/874, Thakkar Nagar",13566
CRM_B,CRM_B_O_ORG_0224_828,Joshi-Sabharwal Pharmacy,Pharmacy,12/874 thakkar nagar,Rajkot,FL,13566,US,2026-02-02T13:24:34,Joshi-Sabharwal Pharmacy,12/874 Thakkar Nagar,13566
CRM_A,CRM_A_O_ORG_0224_920,Joshi-Sabharwal Pharmacy,Pharmacy,12/874 thakkar nagar,Rajkot,FL,13566,US,2025-11-27T00:04:44,Joshi-Sabharwal Pharmacy,"12/874, Thakkar Nagar",13566
CRM_A,CRM_A_O_ORG_0225_150,Halder-Bakshi Diagnostic Center,Diagnostic Center,93/82 majumdar zila,Mira-Bhayandar,MH,692840,IN,2025-12-22T15:34:37,Halder-Bakshi Diagnostic Center,"93/82
Majumdar Zila",692840
CRM_B,CRM_B_O_ORG_0225_611,Halder-Bakshi Diagnostic Center,Diagnostic Center,93/82 majumdar zila,Mira-Bhayandar,MH,692840,IN,2026-01-19T22:15:53,Halder-Bakshi Diagnostic Center,"93/82
Majumdar Zila",692840
CRM_A,CRM_A_O_ORG_0226_594,"Sastry, Venkataraman And Ranganathan Hospital",Hospital,93/02 mangat circle,Karimnagar,PA,82247,US,2025-10-10T15:08:51,"Sastry, Venkataraman and Ranganathan Hospital","93/02, Mangat Circle",82247
CRM_B,CRM_B_O_ORG_0226_232,"Sastry, Venkataraman And Ranganathan Hosp",Hospital,93/02 mangat circle,Karimnagar,PA,82247,US,2026-01-20T08:33:31,"Sastry, Venkataraman and Ranganathan Hosp","93/02, Mangat Circle",82247
CRM_B,CRM_B_O_ORG_0226_772,"Sastry, Venkataraman And Ranganathan Hosp",Hospital,93/02 mangat circle,Karimnagar,PA,82247,US,2025-11-22T09:33:18,"Sastry, Venkataraman and Ranganathan Hosp","93/02, Mangat Circle",82247
CRM_A,CRM_A_O_ORG_0227_167,Borde Plc Diagnostic Center,Diagnostic Center,h.no. 560 gupta circle,Aurangabad,,99510,US,2025-10-18T05:54:25,Borde PLC Diagnostic Center,"H.No. 560
Gupta Circle",99510
CRM_B,CRM_B_O_ORG_0227_653,Borde Plc Diagnostic Center,Diagnostic Center,h.no. 560 gupta circle,Aurangabad,,99510,US,2025-11-09T04:53:42,Borde PLC Diagnostic Center,"H.No. 560
Gupta Circle",99510
CRM_B,CRM_B_O_ORG_0227_393,Borde Plc Diagnostic Center,Diagnostic Center,h.no. 560 gupta circle,Aurangabad,,99510,US,2026-01-01T18:59:58,Borde PLC Diagnostic Center,"H.No. 560
Gupta Circle",99510
CRM_A,CRM_A_O_ORG_0228_850,Doctor Ltd Clinic,Clinic,h.no. 485 sama circle,Firozabad,GA,20322,US,2025-12-23T21:50:13,Doctor Ltd Clinic,"H.No. 485
Sama Circle",20322
CRM_B,CRM_B_O_ORG_0228_423,Doctor Ltd Clinic,Clinic,h.no. 485 sama circle,Firozabad,GA,20322,US,2025-11-01T13:17:34,Doctor Ltd Clinic,"H.No. 485
Sama Circle",20322
CRM_A,CRM_A_O_ORG_0229_605,"Bir, Magar And Magar Clinic",Clinic,38/65 sharaf road,Gaya,DL,917327,IN,2026-01-27T17:41:24,"Bir, Magar and Magar Clinic","38/65, Sharaf Road",917327
CRM_B,CRM_B_O_ORG_0229_451,"Bir, Magar And Magar Clinic",Clinic,38/65 sharaf road,Gaya,DL,917327,IN,2026-01-05T20:00:14,"Bir, Magar and Magar Clinic","38/65, Sharaf Road",917327
CRM_A,CRM_A_O_ORG_0230_194,Behl-Pradhan Clinic,Clinic,74/87 nayar nagar,Nadiad,DL,605994,IN,2025-12-27T17:41:49,Behl-Pradhan Clinic,"74/87
Nayar Nagar",605994
CRM_B,CRM_B_O_ORG_0230_190,Behl-Pradhan Clinic,Clinic,74/87 nayar nagar,Nadiad,DL,605994,IN,2025-10-11T17:18:39,Behl-Pradhan Clinic,"74/87
Nayar Nagar",605994
CRM_A,CRM_A_O_ORG_0231_211,Kar Inc Clinic,Clinic,h.no. 60 more,Katni,MH,393768,IN,2026-02-11T18:26:54,Kar Inc Clinic,"H.No. 60, More",393768
CRM_B,CRM_B_O_ORG_0231_526,Kar Inc Clnc,Clinic,h.no. 60 more,Katni,MH,393768,IN,2025-11-10T11:32:45,Kar Inc Clnc,"H.No. 60, More",393768
CRM_A,CRM_A_O_ORG_0232_164,Patel Inc Clinic,Clinic,350 rana marg,Gandhinagar,IL,20742,US,2025-11-16T02:28:54,Patel Inc Clinic,"350, Rana Marg",20742
CRM_B,CRM_B_O_ORG_0232_287,Patel Inc Clinic,Clinic,350 rana marg,Gandhinagar,IL,20742,US,2025-10-15T03:45:57,Patel Inc Clinic,"350, Rana Marg",20742
CRM_B,CRM_B_O_ORG_0232_289,Patel Inc Clinic,Clinic,350 rana marg,Gandhinagar,IL,20742,US,2025-12-20T01:31:09,Patel Inc Clinic,"350, Rana Marg",20742
CRM_A,CRM_A_O_ORG_0233_111,Bhakta-Parsa Clinic,Clinic,h.no. 90 patel circle,Berhampore,CT,26263,US,2025-11-29T05:01:38,Bhakta-Parsa Clinic,"H.No. 90, Patel Circle",26263
CRM_A,CRM_A_O_ORG_0234_503,Narayan-Sundaram Hospital,Hospital,93 char,Morbi,AL,86465,US,2025-12-30T19:00:58,Narayan-Sundaram Hospital,"93, Char",86465
CRM_B,CRM_B_O_ORG_0234_992,Narayan-Sundaram Hospital,Hospital,93 char,Morbi,AL,86465,US,2025-12-25T04:30:32,Narayan-Sundaram Hospital,"93, Char",86465
CRM_A,CRM_A_O_ORG_0235_166,Kara-Shenoy Pharmacy,Pharmacy,90/35 butala street,Surat,MH,450922,IN,2025-12-18T19:40:57,Kara-Shenoy Pharmacy,"90/35, Butala Street",450922
CRM_B,CRM_B_O_ORG_0235_578,Kara-Shenoy Pharmacy,Pharmacy,90/35 butala street,Surat,MH,450922,IN,2025-10-07T05:41:57,Kara-Shenoy Pharmacy,"90/35, Butala Street",450922
CRM_B,CRM_B_O_ORG_0235_170,Kara-Shenoy Pharmacy,Pharmacy,90/35 butala street,Surat,MH,450922,IN,2025-10-25T17:45:11,Kara-Shenoy Pharmacy,"90/35, Butala Street",450922
CRM_A,CRM_A_O_ORG_0236_583,"Dash, Bala And Devi Diagnostic Center",Diagnostic Center,47 morar zila,Chandrapur,PA,85569,US,2025-10-29T10:17:10,"Dash, Bala and Devi Diagnostic Center","47
Morar Zila",85569
CRM_B,CRM_B_O_ORG_0236_197,"Dash, Bala And Devi Diagnostic Center",Diagnostic Center,47 morar zila,Chandrapur,PA,85569,US,2026-02-01T08:39:56,"Dash, Bala and Devi Diagnostic Center","47
Morar Zila",85569
CRM_A,CRM_A_O_ORG_0237_907,"Kari, Ganguly And Buch Pharmacy",Pharmacy,h.no. 902 saha marg,Noida,MA,17455,US,2026-01-21T00:28:10,"Kari, Ganguly and Buch Pharmacy","H.No. 902, Saha Marg",17455
CRM_B,CRM_B_O_ORG_0237_896,"Kari, Ganguly And Buch Pharmacy",Pharmacy,h.no. 902 saha marg,Noida,MA,17455,US,2025-10-25T06:51:36,"Kari, Ganguly and Buch Pharmacy",H.No. 902 Saha Marg,17455
CRM_A,CRM_A_O_ORG_0238_336,Sengupta-Handa Hospital,Hospital,309 kohli circle,Firozabad,CO,81602,US,2026-01-05T04:18:38,Sengupta-Handa Hospital,"309, Kohli Circle",81602
CRM_B,CRM_B_O_ORG_0238_797,Sengupta-Handa Hosp,Hospital,309 kohli circle,Firozabad,CO,81602,US,2025-11-16T14:42:57,Sengupta-Handa Hosp,"309, Kohli Circle",81602
CRM_A,CRM_A_O_ORG_0239_319,Gaba-Krish Pharmacy,Pharmacy,03/46 hayre ganj,Kottayam,WB,473236,IN,2026-01-05T02:12:14,Gaba-Krish Pharmacy,"03/46
Hayre Ganj",473236
CRM_B,CRM_B_O_ORG_0239_634,Gaba-Krish Pharmacy,Pharmacy,03/46 hayre ganj,Kottayam,WB,473236,IN,2025-12-16T01:43:06,Gaba-Krish Pharmacy,"03/46
Hayre Ganj",473236
CRM_A,CRM_A_O_ORG_0240_546,Lalla-Dube Diagnostic Center,Diagnostic Center,56 ramaswamy circle,Katihar,CA,11233,US,2025-10-29T19:26:48,Lalla-Dube Diagnostic Center,"56
Ramaswamy Circle",11233
CRM_B,CRM_B_O_ORG_0240_761,Lalla-Dube Diagnostic Center,Diagnostic Center,56 ramaswamy circle,Katihar,CA,11233,US,2025-12-27T06:45:19,Lalla-Dube Diagnostic Center,"56
Ramaswamy Circle",11233
CRM_A,CRM_A_O_ORG_0241_106,Nath Plc Lab,Lab,h.no. 058 palla,Tinsukia,OH,41883,US,2025-12-25T19:43:04,Nath PLC Lab,"H.No. 058, Palla",41883
CRM_B,CRM_B_O_ORG_0241_706,Nath Plc Lab,Lab,h.no. 058 palla,Tinsukia,OH,41883,US,2025-12-19T05:06:07,Nath PLC Lab,"H.No. 058, Palla",41883
CRM_A,CRM_A_O_ORG_0242_588,Narang Group Hospital,Hospital,h.no. 154 nath ganj,Panvel,NJ,70423,US,2025-12-02T16:20:29,Narang Group Hospital,"H.No. 154
Nath Ganj",70423
CRM_B,CRM_B_O_ORG_0242_296,Narang Group Hospital,Hospital,h.no. 154 nath ganj,Panvel,NJ,70423,US,2025-11-05T10:50:42,Narang Group Hospital,"H.No. 154
Nath Ganj",70423
CRM_A,CRM_A_O_ORG_0243_913,Bawa Group Pharmacy,Pharmacy,49/14 venkatesh circle,Sri Ganganagar,TN,957710,IN,2025-12-02T14:05:11,Bawa Group Pharmacy,"49/14
Venkatesh Circle",957710
CRM_B,CRM_B_O_ORG_0243_575,Bawa Group Pharmacy,Pharmacy,49/14 venkatesh circle,Sri Ganganagar,TN,957710,IN,2025-11-02T07:29:33,Bawa Group Pharmacy,"49/14
Venkatesh Circle",957710
CRM_A,CRM_A_O_ORG_0244_563,"Comar, Merchant And Madan Diagnostic Center",Diagnostic Center,19 om,Bhubaneswar,NJ,63807,US,2026-01-17T06:53:12,"Comar, Merchant and Madan Diagnostic Center","19
Om",63807
CRM_B,CRM_B_O_ORG_0244_124,"Comar, Merchant And Madan Diagnostic Center",Diagnostic Center,19 om,Bhubaneswar,NJ,63807,US,2025-12-28T23:56:30,"Comar, Merchant and Madan Diagnostic Center","19
Om",63807
CRM_A,CRM_A_O_ORG_0245_362,Chander-Banik Hospital,Hospital,56 randhawa street,Haldia,TX,37690,US,2025-10-18T13:35:02,Chander-Banik Hospital,"56, Randhawa Street",37690
CRM_B,CRM_B_O_ORG_0245_212,Chander-Banik Hospital,Hospital,56 randhawa street,Haldia,TX,37690,US,2026-01-05T08:13:38,Chander-Banik Hospital,"56, Randhawa Street",37690
CRM_B,CRM_B_O_ORG_0245_265,Chander-Banik Hospital,Hospital,56 randhawa street,Haldia,TX,37690,US,2025-10-14T10:43:22,Chander-Banik Hospital,"56, Randhawa Street",37690
CRM_A,CRM_A_O_ORG_0246_764,"Pathak, Mannan And Murthy Diagnostic Center",Diagnostic Center,637 sandal chowk,Karimnagar,VA,79520,US,2025-10-16T19:47:31,"Pathak, Mannan and Murthy Diagnostic Center","637
Sandal Chowk",79520-3731
CRM_B,CRM_B_O_ORG_0246_718,"Pathak, Mannan And Murthy Diagnostic Center",Diagnostic Center,637 sandal chowk,Karimnagar,VA,79520,US,2026-01-14T00:07:17,"Pathak, Mannan and Murthy Diagnostic Center",637 Sandal Chowk,79520-3731
CRM_A,CRM_A_O_ORG_0247_764,"Pandey, Bath And Ganguly Hospital",Hospital,h.no. 42 chaudry ganj,Bokaro,CA,65839,US,2025-12-25T14:46:57,"Pandey, Bath and Ganguly Hospital","H.No. 42, Chaudry Ganj",65839
CRM_B,CRM_B_O_ORG_0247_690,"Pandey, Bath And Ganguly Hospital",Hospital,h.no. 42 chaudry ganj,Bokaro,CA,65839,US,2025-11-08T10:40:48,"Pandey, Bath and Ganguly Hospital",H.No. 42 Chaudry Ganj,65839
CRM_A,CRM_A_O_ORG_0248_351,Raj Group Clinic,Clinic,49/18 chatterjee marg,Kharagpur,TN,220501,IN,2025-10-14T12:37:41,Raj Group Clinic,"49/18
Chatterjee Marg",220501
CRM_B,CRM_B_O_ORG_0248_682,Raj Group Clinic,Clinic,49/18 chatterjee marg,Kharagpur,TN,220501,IN,2025-11-01T06:44:08,Raj Group Clinic,"49/18
Chatterjee Marg",220501
CRM_A,CRM_A_O_ORG_0249_530,Varughese And Sons Hospital,Hospital,580 jhaveri path,Chandigarh,FL,41729,US,2025-11-25T04:28:20,Varughese and Sons Hospital,"580
Jhaveri Path",41729
CRM_A,CRM_A_O_ORG_0249_736,Varughese And Sons Hospital,Hospital,580 jhaveri path,Chandigarh,FL,41729,US,2026-02-04T06:57:23,Varughese and Sons Hospital,"580
Jhaveri Path",41729
CRM_A,CRM_A_O_ORG_0250_437,"Patel, Butala And Iyengar Lab",Lab,35/611 agrawal chowk,Shivpuri,WA,14801,US,2025-11-14T22:04:12,"Patel, Butala and Iyengar Lab","35/611, Agrawal Chowk",14801
CRM_A,CRM_A_O_ORG_0250_713,"Patel, Butala And Iyengar Lab",Lab,35/611 agrawal chowk,Shivpuri,WA,14801,US,2025-12-07T21:43:11,"Patel, Butala and Iyengar Lab","35/611, Agrawal Chowk",14801
CRM_A,CRM_A_O_ORG_0251_885,"Mann, Soman And Guha Diagnostic Center",Diagnostic Center,h.no. 79 sehgal ganj,Akola,KA,975344,IN,2025-12-04T15:21:26,"Mann, Soman and Guha Diagnostic Center","H.No. 79
Sehgal Ganj",975344
CRM_B,CRM_B_O_ORG_0251_321,"Mann, Soman And Guha Diagnostic Center",Diagnostic Center,h.no. 79 sehgal ganj,Akola,KA,975344,IN,2026-01-02T00:38:21,"Mann, Soman and Guha Diagnostic Center",H.No. 79 Sehgal Ganj,975344
CRM_A,CRM_A_O_ORG_0252_490,Choudhary Group Diagnostic Center,Diagnostic Center,h.no. 968 garde street,Nagaon,OH,48778,US,2026-01-01T14:49:33,Choudhary Group Diagnostic Center,"H.No. 968
Garde Street",48778
CRM_B,CRM_B_O_ORG_0252_901,Choudhary Group Diagnostic Center,Diagnostic Center,h.no. 968 garde street,Nagaon,OH,48778,US,2025-11-21T22:29:28,Choudhary Group Diagnostic Center,H.No. 968 Garde Street,48778
CRM_B,CRM_B_O_ORG_0252_111,Choudhary Group Diagnostic Ctr,Diagnostic Center,h.no. 968 garde street,Nagaon,OH,48778,US,2025-11-28T13:57:12,Choudhary Group Diagnostic Ctr,"H.No. 968
Garde Street",48778
CRM_A,CRM_A_O_ORG_0253_619,"Om, Virk And Mahajan Lab",Lab,h.no. 357 aurora road,Aizawl,MD,40725,US,2025-12-30T05:57:39,"Om, Virk and Mahajan Lab","H.No. 357, Aurora Road",40725
CRM_A,CRM_A_O_ORG_0254_385,Mahal-Bala Hospital,Hospital,972 saini,Morbi,VA,46497,US,2026-01-14T22:58:24,Mahal-Bala Hospital,"972
Saini",46497
CRM_B,CRM_B_O_ORG_0254_907,Mahal-Bala Hospital,Hospital,972 saini,Morbi,VA,46497,US,2025-10-10T06:48:06,Mahal-Bala Hospital,"972
Saini",46497
CRM_A,CRM_A_O_ORG_0255_376,Reddy-Om Clinic,Clinic,99 rajan nagar,Guna,TS,252567,IN,2025-11-04T08:02:41,Reddy-Om Clinic,"99
Rajan Nagar",252567
CRM_B,CRM_B_O_ORG_0255_690,Reddy-Om Clinic,Clinic,99 rajan nagar,Guna,TS,252567,IN,2025-12-26T11:35:08,Reddy-Om Clinic,"99
Rajan Nagar",252567
CRM_A,CRM_A_O_ORG_0256_490,Mann Llc Lab,Lab,h.no. 11 barad circle,Bhilwara,WB,210982,IN,2026-01-22T14:58:10,Mann LLC Lab,"H.No. 11, Barad Circle",210982
CRM_B,CRM_B_O_ORG_0256_281,Mann Llc Lab,Lab,h.no. 11 barad circle,Bhilwara,WB,210982,IN,2026-02-04T19:23:25,Mann LLC Lab,"H.No. 11, Barad Circle",210982
CRM_A,CRM_A_O_ORG_0257_499,Munshi-Brahmbhatt Diagnostic Center,Diagnostic Center,h.no. 15 varkey street,Patiala,IL,34150,US,2026-02-11T01:39:34,Munshi-Brahmbhatt Diagnostic Center,"H.No. 15, Varkey Street",34150
CRM_B,CRM_B_O_ORG_0257_446,Munshi-Brahmbhatt Diagnostic Center,Diagnostic Center,h.no. 15 varkey street,Patiala,IL,34150,US,2025-12-19T01:31:10,Munshi-Brahmbhatt Diagnostic Center,"H.No. 15, Varkey Street",34150
CRM_A,CRM_A_O_ORG_0258_584,Krishnamurthy-Ahuja Lab,Lab,17 rai nagar,Medininagar,AZ,65177,US,2025-12-14T08:42:18,Krishnamurthy-Ahuja Lab,"17, Rai Nagar",65177
CRM_B,CRM_B_O_ORG_0258_658,Krishnamurthy-Ahuja Lab,Lab,17 rai nagar,Medininagar,AZ,65177,US,2025-10-20T18:23:33,Krishnamurthy-Ahuja Lab,"17, Rai Nagar",65177
CRM_A,CRM_A_O_ORG_0259_752,Modi Llc Clinic,Clinic,375 bahri street,Karimnagar,KA,840995,IN,2025-11-15T15:11:57,Modi LLC Clinic,"375
Bahri Street",840995
CRM_B,CRM_B_O_ORG_0259_589,Modi Llc Clinic,Clinic,375 bahri street,Karimnagar,KA,840995,IN,2025-12-01T10:19:29,Modi LLC Clinic,"375
Bahri Street",840995
CRM_A,CRM_A_O_ORG_0260_166,Chandran-Majumdar Diagnostic Center,Diagnostic Center,16/415 kari chowk,Fatehpur,AK,84900,US,2025-12-21T15:39:08,Chandran-Majumdar Diagnostic Center,"16/415
Kari Chowk",84900
CRM_B,CRM_B_O_ORG_0260_340,Chandran-Majumdar Diagnostic Center,Diagnostic Center,16/415 kari chowk,Fatehpur,AK,84900,US,2025-11-19T15:33:33,Chandran-Majumdar Diagnostic Center,"16/415
Kari Chowk",84900
CRM_A,CRM_A_O_ORG_0261_485,Vasa-Madan Clinic,Clinic,91/341 toor chowk,Kanpur,MI,82726,US,2026-01-21T06:19:26,Vasa-Madan Clinic,"91/341, Toor Chowk",82726
CRM_A,CRM_A_O_ORG_0262_905,"Ahluwalia, Sur And Choudhry Pharmacy",Pharmacy,14 chaudry path,Ballia,GA,16910,US,2025-11-20T05:41:00,"Ahluwalia, Sur and Choudhry Pharmacy","14
Chaudry Path",16910
CRM_B,CRM_B_O_ORG_0262_278,"Ahluwalia, Sur And Choudhry Pharmacy",Pharmacy,14 chaudry path,Ballia,GA,16910,US,2025-12-23T19:40:54,"Ahluwalia, Sur and Choudhry Pharmacy","14
Chaudry Path",16910
CRM_A,CRM_A_O_ORG_0263_221,Chaudhary-Mammen Pharmacy,Pharmacy,h.no. 83 sur circle,Yamunanagar,AL,78329,US,2025-11-10T12:07:31,Chaudhary-Mammen Pharmacy,"H.No. 83
Sur Circle",78329
CRM_B,CRM_B_O_ORG_0263_719,Chaudhary-Mammen Pharmacy,Pharmacy,h.no. 83 sur circle,Yamunanagar,AL,78329,US,2025-12-18T15:41:49,Chaudhary-Mammen Pharmacy,H.No. 83 Sur Circle,78329
CRM_A,CRM_A_O_ORG_0264_105,"Bansal, Sibal And Gill Diagnostic Center",Diagnostic Center,18 warrior nagar,New Delhi,MD,86958,US,2025-12-01T20:01:59,"Bansal, Sibal and Gill Diagnostic Center","18
Warrior Nagar",86958-8022
CRM_B,CRM_B_O_ORG_0264_742,"Bansal, Sibal And Gill Diagnostic Ctr",Diagnostic Center,18 warrior nagar,New Delhi,MD,86958,US,2026-02-04T01:43:54,"Bansal, Sibal and Gill Diagnostic Ctr","18
Warrior Nagar",86958-8022
CRM_A,CRM_A_O_ORG_0265_740,"Venkataraman, Biswas And Raja Diagnostic Center",Diagnostic Center,27/23 balay nagar,Pune,MA,27774,US,2025-11-19T14:51:37,"Venkataraman, Biswas and Raja Diagnostic Center","27/23
Balay Nagar",27774
CRM_B,CRM_B_O_ORG_0265_690,"Venkataraman, Biswas And Raja Diagnostic Center",Diagnostic Center,27/23 balay nagar,Pune,MA,27774,US,2025-11-01T14:33:47,"Venkataraman, Biswas and Raja Diagnostic Center","27/23
Balay Nagar",27774
CRM_A,CRM_A_O_ORG_0266_510,Rajan-Majumdar Diagnostic Center,Diagnostic Center,h.no. 03 amble nagar,Delhi,AK,33047,US,2025-10-29T16:08:39,Rajan-Majumdar Diagnostic Center,"H.No. 03
Amble Nagar",33047
CRM_B,CRM_B_O_ORG_0266_215,Rajan-Majumdar Diagnostic Ctr,Diagnostic Center,h.no. 03 amble nagar,Delhi,AK,33047,US,2025-12-22T21:19:20,Rajan-Majumdar Diagnostic Ctr,H.No. 03 Amble Nagar,33047
CRM_B,CRM_B_O_ORG_0266_215,Rajan-Majumdar Diagnostic Center,Diagnostic Center,h.no. 03 amble nagar,Delhi,AK,33047,US,2025-11-06T03:40:52,Rajan-Majumdar Diagnostic Center,"H.No. 03
Amble Nagar",33047
CRM_A,CRM_A_O_ORG_0267_267,Parmar-Dash Clinic,Clinic,18/73 bera ganj,Belgaum,NY,22182,US,2026-02-07T15:05:16,Parmar-Dash Clinic,"18/73, Bera Ganj",22182
CRM_B,CRM_B_O_ORG_0267_429,Parmar-Dash Clnc,Clinic,18/73 bera ganj,Belgaum,NY,22182,US,2025-10-16T01:04:51,Parmar-Dash Clnc,18/73 Bera Ganj,22182
CRM_A,CRM_A_O_ORG_0268_246,Purohit-Khare Clinic,Clinic,22 taneja ganj,Purnia,PA,91487,US,2025-11-01T12:44:00,Purohit-Khare Clinic,"22, Taneja Ganj",91487
CRM_B,CRM_B_O_ORG_0268_395,Purohit-Khare Clnc,Clinic,22 taneja ganj,Purnia,PA,91487,US,2025-10-17T01:27:33,Purohit-Khare Clnc,"22, Taneja Ganj",91487
CRM_A,CRM_A_O_ORG_0269_203,"Naik, Bhargava And Lala Pharmacy",Pharmacy,605 bava,Madhyamgram,NJ,25862,US,2026-02-21T13:00:30,"Naik, Bhargava and Lala Pharmacy","605, Bava",25862
CRM_B,CRM_B_O_ORG_0269_835,"Naik, Bhargava And Lala Pharmacy",Pharmacy,605 bava,Madhyamgram,NJ,25862,US,2025-11-29T06:57:06,"Naik, Bhargava and Lala Pharmacy","605, Bava",25862
CRM_A,CRM_A_O_ORG_0269_998,"Naik, Bhargava And Lala Pharmacy",Pharmacy,605 bava,Madhyamgram,NJ,25862,US,2026-01-07T08:41:19,"Naik, Bhargava and Lala Pharmacy","605, Bava",25862
CRM_A,CRM_A_O_ORG_0270_337,Parikh And Sons Hospital,Hospital,265 jha road,Hapur,GA,33626,US,2025-10-07T08:56:58,Parikh and Sons Hospital,"265
Jha Road",33626
CRM_B,CRM_B_O_ORG_0270_137,Parikh And Sons Hospital,Hospital,265 jha road,Hapur,GA,33626,US,2025-10-14T16:36:14,Parikh and Sons Hospital,"265
Jha Road",33626
CRM_B,CRM_B_O_ORG_0270_274,Parikh And Sons Hosp,Hospital,265 jha road,Hapur,GA,33626,US,2026-01-21T05:28:15,Parikh and Sons Hosp,"265
Jha Road",33626
CRM_A,CRM_A_O_ORG_0271_518,Sidhu And Sons Lab,Lab,h.no. 13 saraf path,Ulhasnagar,CT,90835,US,2026-01-06T15:55:46,Sidhu and Sons Lab,"H.No. 13
Saraf Path",90835
CRM_B,CRM_B_O_ORG_0271_167,Sidhu And Sons Lab,Lab,h.no. 13 saraf path,Ulhasnagar,CT,90835,US,2025-11-02T03:54:49,Sidhu and Sons Lab,"H.No. 13
Saraf Path",90835
CRM_A,CRM_A_O_ORG_0272_415,Bhargava-Raghavan Hospital,Hospital,09/897 sibal street,Hyderabad,GA,42195,US,2025-11-12T06:55:32,Bhargava-Raghavan Hospital,"09/897, Sibal Street",42195
CRM_B,CRM_B_O_ORG_0272_782,Bhargava-Raghavan Hosp,Hospital,09/897 sibal street,Hyderabad,GA,42195,US,2025-10-23T18:17:36,Bhargava-Raghavan Hosp,"09/897, Sibal Street",42195
CRM_A,CRM_A_O_ORG_0273_322,"Murthy, Chakraborty And Kuruvilla Lab",Lab,h.no. 641 chakraborty zila,Raebareli,GA,22339,US,2026-01-27T12:28:58,"Murthy, Chakraborty and Kuruvilla Lab","H.No. 641, Chakraborty Zila",22339
CRM_B,CRM_B_O_ORG_0273_413,"Murthy, Chakraborty And Kuruvilla Lab",Lab,h.no. 641 chakraborty zila,Raebareli,GA,22339,US,2025-10-23T05:54:24,"Murthy, Chakraborty and Kuruvilla Lab","H.No. 641, Chakraborty Zila",22339
CRM_A,CRM_A_O_ORG_0273_591,"Murthy, Chakraborty And Kuruvilla Lab",Lab,h.no. 641 chakraborty zila,Raebareli,GA,22339,US,2025-10-10T04:46:21,"Murthy, Chakraborty and Kuruvilla Lab","H.No. 641, Chakraborty Zila",22339
CRM_A,CRM_A_O_ORG_0274_187,Saini-Mukherjee Lab,Lab,25/426 basak nagar,Warangal,KA,404285,IN,2025-11-24T19:07:46,Saini-Mukherjee Lab,"25/426, Basak Nagar",404285
CRM_B,CRM_B_O_ORG_0274_562,Saini-Mukherjee Lab,Lab,25/426 basak nagar,Warangal,KA,404285,IN,2025-12-22T02:47:42,Saini-Mukherjee Lab,"25/426, Basak Nagar",404285
CRM_A,CRM_A_O_ORG_0275_850,"Goswami, Ganesh And Gulati Diagnostic Center",Diagnostic Center,579 guha,Chapra,MA,45487,US,2025-10-31T02:07:55,"Goswami, Ganesh and Gulati Diagnostic Center","579
Guha",45487
CRM_B,CRM_B_O_ORG_0275_732,"Goswami, Ganesh And Gulati Diagnostic Center",Diagnostic Center,579 guha,Chapra,MA,45487,US,2025-10-13T06:47:53,"Goswami, Ganesh and Gulati Diagnostic Center","579
Guha",45487
CRM_A,CRM_A_O_ORG_0276_320,Pillai-Ganesh Lab,Lab,h.no. 17 sunder road,Belgaum,AL,58215,US,2025-11-13T15:48:26,Pillai-Ganesh Lab,"H.No. 17, Sunder Road",58215
CRM_B,CRM_B_O_ORG_0276_929,Pillai-Ganesh Lab,Lab,h.no. 17 sunder road,Belgaum,AL,58215,US,2025-11-12T11:58:06,Pillai-Ganesh Lab,"H.No. 17, Sunder Road",58215
CRM_A,CRM_A_O_ORG_0277_310,"Madan, Saxena And Shanker Pharmacy",Pharmacy,55 gaba zila,Junagadh,WA,21909,US,2025-12-05T17:12:55,"Madan, Saxena and Shanker Pharmacy","55
Gaba Zila",21909
CRM_B,CRM_B_O_ORG_0277_527,"Madan, Saxena And Shanker Pharmacy",Pharmacy,55 gaba zila,Junagadh,WA,21909,US,2026-01-20T14:30:51,"Madan, Saxena and Shanker Pharmacy","55
Gaba Zila",21909
CRM_A,CRM_A_O_ORG_0278_968,Wason And Sons Hospital,Hospital,66 setty path,Bhagalpur,PA,64595,US,2025-12-16T00:56:05,Wason and Sons Hospital,"66
Setty Path",64595
CRM_A,CRM_A_O_ORG_0278_636,Wason And Sons Hospital,Hospital,66 setty path,Bhagalpur,PA,64595,US,2025-11-10T15:41:15,Wason and Sons Hospital,"66
Setty Path",64595
CRM_A,CRM_A_O_ORG_0279_775,Aggarwal Inc Diagnostic Center,Diagnostic Center,133 tailor circle,Bhagalpur,KA,398851,IN,2025-12-11T16:42:56,Aggarwal Inc Diagnostic Center,"133, Tailor Circle",398851
CRM_A,CRM_A_O_ORG_0280_811,"Lala, Gokhale And Borah Diagnostic Center",Diagnostic Center,h.no. 83 mani path,Malda,OH,18513,US,2025-12-03T19:01:05,"Lala, Gokhale and Borah Diagnostic Center","H.No. 83
Mani Path",18513
CRM_B,CRM_B_O_ORG_0280_599,"Lala, Gokhale And Borah Diagnostic Center",Diagnostic Center,h.no. 83 mani path,Malda,OH,18513,US,2025-11-19T16:47:27,"Lala, Gokhale and Borah Diagnostic Center","H.No. 83
Mani Path",18513
CRM_A,CRM_A_O_ORG_0281_201,Toor-Vyas Lab,Lab,68/38 pathak street,Serampore,MH,971175,IN,2025-11-09T19:53:23,Toor-Vyas Lab,"68/38, Pathak Street",971175
CRM_B,CRM_B_O_ORG_0281_957,Toor-Vyas Lab,Lab,68/38 pathak street,Serampore,MH,971175,IN,2025-10-10T11:51:07,Toor-Vyas Lab,"68/38, Pathak Street",971175
CRM_A,CRM_A_O_ORG_0281_355,Toor-Vyas Lab,Lab,68/38 pathak street,Serampore,MH,971175,IN,2025-10-07T20:07:38,Toor-Vyas Lab,"68/38, Pathak Street",971175
CRM_A,CRM_A_O_ORG_0282_936,Kale-Banik Hospital,Hospital,h.no. 35 bhatt street,Rajkot,MA,91735,US,2025-11-13T23:42:39,Kale-Banik Hospital,"H.No. 35, Bhatt Street",91735
CRM_B,CRM_B_O_ORG_0282_509,Kale-Banik Hosp,Hospital,h.no. 35 bhatt street,Rajkot,MA,91735,US,2025-12-07T00:01:13,Kale-Banik Hosp,H.No. 35 Bhatt Street,91735
CRM_A,CRM_A_O_ORG_0283_120,Hayre-Mangat Hospital,Hospital,06 doshi circle,Nandyal,CT,19253,US,2026-02-05T19:45:24,Hayre-Mangat Hospital,"06
Doshi Circle",19253
CRM_B,CRM_B_O_ORG_0283_210,Hayre-Mangat Hosp,Hospital,06 doshi circle,Nandyal,CT,19253,US,2025-11-21T21:02:52,Hayre-Mangat Hosp,"06
Doshi Circle",19253
CRM_A,CRM_A_O_ORG_0284_723,Parmar Group Lab,Lab,10 batra circle,Agra,FL,33755,US,2025-12-30T00:24:36,Parmar Group Lab,"10
Batra Circle",33755
CRM_A,CRM_A_O_ORG_0285_250,Bahri And Sons Hospital,Hospital,h.no. 239 patla path,Mangalore,VA,32872,US,2025-11-05T19:52:23,Bahri and Sons Hospital,"H.No. 239, Patla Path",32872
CRM_B,CRM_B_O_ORG_0285_170,Bahri And Sons Hosp,Hospital,h.no. 239 patla path,Mangalore,VA,32872,US,2025-10-31T23:11:50,Bahri and Sons Hosp,"H.No. 239, Patla Path",32872
CRM_A,CRM_A_O_ORG_0286_849,Sahni Plc Pharmacy,Pharmacy,328 lad path,Firozabad,NC,65499,US,2025-11-11T08:47:11,Sahni PLC Pharmacy,"328, Lad Path",65499
CRM_B,CRM_B_O_ORG_0286_859,Sahni Plc Pharmacy,Pharmacy,328 lad path,Firozabad,NC,65499,US,2025-12-19T05:57:14,Sahni PLC Pharmacy,"328, Lad Path",65499
CRM_A,CRM_A_O_ORG_0287_175,Gala Group Clinic,Clinic,26/214 nagarajan road,Fatehpur,CT,60295,US,2025-10-25T11:56:17,Gala Group Clinic,"26/214, Nagarajan Road",60295
CRM_B,CRM_B_O_ORG_0287_698,Gala Group Clnc,Clinic,26/214 nagarajan road,Fatehpur,CT,60295,US,2026-01-23T14:31:14,Gala Group Clnc,26/214 Nagarajan Road,60295
CRM_A,CRM_A_O_ORG_0288_761,Nayar Ltd Hospital,Hospital,h.no. 51 ramaswamy,Tinsukia,IL,81010,US,2026-01-22T01:56:52,Nayar Ltd Hospital,"H.No. 51, Ramaswamy",81010
CRM_B,CRM_B_O_ORG_0288_891,Nayar Ltd Hospital,Hospital,h.no. 51 ramaswamy,Tinsukia,IL,81010,US,2025-10-22T17:52:14,Nayar Ltd Hospital,"H.No. 51, Ramaswamy",81010
CRM_A,CRM_A_O_ORG_0289_957,Tak-Tella Hospital,Hospital,h.no. 159 joshi zila,Bhusawal,TS,976373,IN,2025-10-29T08:19:53,Tak-Tella Hospital,"H.No. 159, Joshi Zila",976373
CRM_B,CRM_B_O_ORG_0289_196,Tak-Tella Hospital,Hospital,h.no. 159 joshi zila,Bhusawal,TS,976373,IN,2026-01-06T03:08:25,Tak-Tella Hospital,"H.No. 159, Joshi Zila",976373
CRM_A,CRM_A_O_ORG_0290_270,"Misra, Grewal And Hayre Lab",Lab,63/554 baria marg,Nellore,GA,95682,US,2025-12-13T12:23:06,"Misra, Grewal and Hayre Lab","63/554, Baria Marg",95682
CRM_B,CRM_B_O_ORG_0290_105,"Misra, Grewal And Hayre Lab",Lab,63/554 baria marg,Nellore,GA,95682,US,2025-10-18T16:42:17,"Misra, Grewal and Hayre Lab","63/554, Baria Marg",95682
CRM_B,CRM_B_O_ORG_0290_339,"Misra, Grewal And Hayre Lab",Lab,63/554 baria marg,Nellore,GA,95682,US,2025-10-15T23:35:16,"Misra, Grewal and Hayre Lab","63/554, Baria Marg",95682
CRM_A,CRM_A_O_ORG_0291_112,"Ram, Guha And Chadha Pharmacy",Pharmacy,h.no. 71 sha,Belgaum,CO,33288,US,2025-12-17T13:30:52,"Ram, Guha and Chadha Pharmacy","H.No. 71, Sha",33288
CRM_B,CRM_B_O_ORG_0291_109,"Ram, Guha And Chadha Pharmacy",Pharmacy,h.no. 71 sha,Belgaum,CO,33288,US,2025-10-22T13:29:52,"Ram, Guha and Chadha Pharmacy","H.No. 71, Sha",33288
CRM_A,CRM_A_O_ORG_0292_860,Chaudhry Llc Clinic,Clinic,h.no. 52 singh chowk,Nanded,FL,49309,US,2025-12-11T14:09:27,Chaudhry LLC Clinic,"H.No. 52
Singh Chowk",49309
CRM_A,CRM_A_O_ORG_0293_564,"Raj, Ahuja And Gopal Clinic",Clinic,h.no. 64 kaul nagar,Pudukkottai,TX,71949,US,2025-11-11T10:03:28,"Raj, Ahuja and Gopal Clinic","H.No. 64, Kaul Nagar",71949
CRM_B,CRM_B_O_ORG_0293_873,"Raj, Ahuja And Gopal Clinic",Clinic,h.no. 64 kaul nagar,Pudukkottai,TX,71949,US,2025-11-06T12:32:48,"Raj, Ahuja and Gopal Clinic","H.No. 64, Kaul Nagar",71949
CRM_B,CRM_B_O_ORG_0293_492,"Raj, Ahuja And Gopal Clinic",Clinic,h.no. 64 kaul nagar,Pudukkottai,TX,71949,US,2026-01-09T00:47:45,"Raj, Ahuja and Gopal Clinic","H.No. 64, Kaul Nagar",71949
CRM_A,CRM_A_O_ORG_0294_211,"Walla, Sant And Upadhyay Diagnostic Center",Diagnostic Center,50/78 tandon marg,Jehanabad,PA,14886,US,2026-01-02T11:52:03,"Walla, Sant and Upadhyay Diagnostic Center","50/78, Tandon Marg",14886
CRM_B,CRM_B_O_ORG_0294_101,"Walla, Sant And Upadhyay Diagnostic Ctr",Diagnostic Center,50/78 tandon marg,Jehanabad,PA,14886,US,2025-12-19T01:29:47,"Walla, Sant and Upadhyay Diagnostic Ctr","50/78, Tandon Marg",14886
CRM_B,CRM_B_O_ORG_0294_789,"Walla, Sant And Upadhyay Diagnostic Center",Diagnostic Center,50/78 tandon marg,Jehanabad,PA,14886,US,2026-01-14T18:55:41,"Walla, Sant and Upadhyay Diagnostic Center",50/78 Tandon Marg,14886
CRM_A,CRM_A_O_ORG_0295_306,"Kalla, Vohra And Chokshi Clinic",Clinic,94/874 dalal marg,Noida,MI,83665,US,2025-12-02T15:48:19,"Kalla, Vohra and Chokshi Clinic","94/874, Dalal Marg",83665
CRM_B,CRM_B_O_ORG_0295_145,"Kalla, Vohra And Chokshi Clinic",Clinic,94/874 dalal marg,Noida,MI,83665,US,2025-10-26T00:17:27,"Kalla, Vohra and Chokshi Clinic","94/874, Dalal Marg",83665
CRM_A,CRM_A_O_ORG_0296_662,"Chacko, Anand And Banik Diagnostic Center",Diagnostic Center,h.no. 15 chowdhury path,Khammam,WA,12729,US,2025-12-18T08:25:58,"Chacko, Anand and Banik Diagnostic Center","H.No. 15, Chowdhury Path",12729
CRM_B,CRM_B_O_ORG_0296_500,"Chacko, Anand And Banik Diagnostic Center",Diagnostic Center,h.no. 15 chowdhury path,Khammam,WA,12729,US,2026-01-01T23:16:09,"Chacko, Anand and Banik Diagnostic Center","H.No. 15, Chowdhury Path",12729
CRM_A,CRM_A_O_ORG_0296_168,"Chacko, Anand And Banik Diagnostic Center",Diagnostic Center,h.no. 15 chowdhury path,Khammam,WA,12729,US,2025-10-31T12:59:02,"Chacko, Anand and Banik Diagnostic Center","H.No. 15, Chowdhury Path",12729
CRM_A,CRM_A_O_ORG_0297_255,"Randhawa, Kalla And Sethi Hospital",Hospital,h.no. 33 solanki street,Bikaner,FL,55533,US,2026-01-11T07:05:50,"Randhawa, Kalla and Sethi Hospital","H.No. 33, Solanki Street",55533
CRM_B,CRM_B_O_ORG_0297_691,"Randhawa, Kalla And Sethi Hospital",Hospital,h.no. 33 solanki street,Bikaner,FL,55533,US,2025-10-07T13:50:34,"Randhawa, Kalla and Sethi Hospital",H.No. 33 Solanki Street,55533
CRM_A,CRM_A_O_ORG_0298_373,"Ratti, Rege And Saraf Diagnostic Center",Diagnostic Center,58/43 chakraborty zila,Nanded,TX,58918,US,2025-11-12T19:20:48,"Ratti, Rege and Saraf Diagnostic Center","58/43
Chakraborty Zila",58918
CRM_B,CRM_B_O_ORG_0298_961,"Ratti, Rege And Saraf Diagnostic Center",Diagnostic Center,58/43 chakraborty zila,Nanded,TX,58918,US,2025-12-06T12:40:02,"Ratti, Rege and Saraf Diagnostic Center","58/43
Chakraborty Zila",58918
CRM_A,CRM_A_O_ORG_0299_794,Bhargava Ltd Hospital,Hospital,h.no. 14 kulkarni,Tiruppur,OH,65957,US,2025-11-14T17:42:55,Bhargava Ltd Hospital,"H.No. 14
Kulkarni",65957
CRM_B,CRM_B_O_ORG_0299_374,Bhargava Ltd Hospital,Hospital,h.no. 14 kulkarni,Tiruppur,OH,65957,US,2025-11-09T13:59:16,Bhargava Ltd Hospital,"H.No. 14
Kulkarni",65957
CRM_B,CRM_B_O_ORG_0299_585,Bhargava Ltd Hosp,Hospital,h.no. 14 kulkarni,Tiruppur,OH,65957,US,2025-10-08T06:20:53,Bhargava Ltd Hosp,"H.No. 14
Kulkarni",65957
CRM_A,CRM_A_O_ORG_0300_950,"Rau, Patla And Mannan Pharmacy",Pharmacy,h.no. 055 tandon chowk,Ranchi,DL,397144,IN,2025-12-03T22:07:21,"Rau, Patla and Mannan Pharmacy","H.No. 055, Tandon Chowk",397144
CRM_B,CRM_B_O_ORG_0300_943,"Rau, Patla And Mannan Pharmacy",Pharmacy,h.no. 055 tandon chowk,Ranchi,DL,397144,IN,2026-01-16T19:46:13,"Rau, Patla and Mannan Pharmacy","H.No. 055, Tandon Chowk",397144
CRM_A,CRM_A_O_ORG_0301_721,Bhakta Ltd Pharmacy,Pharmacy,59 barman marg,Motihari,MD,15872,US,2025-12-31T02:45:17,Bhakta Ltd Pharmacy,"59, Barman Marg",15872
CRM_B,CRM_B_O_ORG_0301_339,Bhakta Ltd Pharmacy,Pharmacy,59 barman marg,Motihari,MD,15872,US,2025-10-23T02:48:48,Bhakta Ltd Pharmacy,"59, Barman Marg",15872
CRM_A,CRM_A_O_ORG_0302_734,Seth-Gulati Diagnostic Center,Diagnostic Center,43/42 chaudhry ganj,Tezpur,CA,14932,US,2025-10-30T13:16:29,Seth-Gulati Diagnostic Center,"43/42
Chaudhry Ganj",14932
CRM_B,CRM_B_O_ORG_0302_231,Seth-Gulati Diagnostic Center,Diagnostic Center,43/42 chaudhry ganj,Tezpur,CA,14932,US,2025-12-06T19:23:51,Seth-Gulati Diagnostic Center,"43/42
Chaudhry Ganj",14932
CRM_A,CRM_A_O_ORG_0303_423,Nath-Ganesh Lab,Lab,586 samra nagar,Kolkata,WB,242998,IN,2025-10-24T16:41:26,Nath-Ganesh Lab,"586, Samra Nagar",242998
CRM_B,CRM_B_O_ORG_0303_660,Nath-Ganesh Lab,Lab,586 samra nagar,Kolkata,WB,242998,IN,2025-11-21T13:33:15,Nath-Ganesh Lab,"586, Samra Nagar",242998
CRM_A,CRM_A_O_ORG_0304_222,"Vala, Chokshi And Basu Lab",Lab,h.no. 999 nadig zila,Barasat,NY,90022,US,2026-02-12T12:33:42,"Vala, Chokshi and Basu Lab","H.No. 999
Nadig Zila",90022
CRM_B,CRM_B_O_ORG_0304_602,"Vala, Chokshi And Basu Lab",Lab,h.no. 999 nadig zila,Barasat,NY,90022,US,2026-01-02T10:26:29,"Vala, Chokshi and Basu Lab",H.No. 999 Nadig Zila,90022
CRM_A,CRM_A_O_ORG_0305_813,"Chawla, Manne And Agate Pharmacy",Pharmacy,h.no. 850 khurana zila,Nangloi Jat,NC,87207,US,2026-01-05T06:35:58,"Chawla, Manne and Agate Pharmacy","H.No. 850
Khurana Zila",87207
CRM_B,CRM_B_O_ORG_0305_272,"Chawla, Manne And Agate Pharmacy",Pharmacy,h.no. 850 khurana zila,Nangloi Jat,NC,87207,US,2025-10-24T15:50:51,"Chawla, Manne and Agate Pharmacy","H.No. 850
Khurana Zila",87207
CRM_A,CRM_A_O_ORG_0305_879,"Chawla, Manne And Agate Pharmacy",Pharmacy,h.no. 850 khurana zila,Nangloi Jat,NC,87207,US,2025-11-30T05:57:54,"Chawla, Manne and Agate Pharmacy","H.No. 850
Khurana Zila",87207
CRM_A,CRM_A_O_ORG_0306_892,"Mahajan, Edwin And Ratti Hospital",Hospital,41 garg street,Avadi,VA,23958,US,2026-01-29T07:52:16,"Mahajan, Edwin and Ratti Hospital","41, Garg Street",23958
CRM_B,CRM_B_O_ORG_0306_916,"Mahajan, Edwin And Ratti Hosp",Hospital,41 garg street,Avadi,VA,23958,US,2025-10-16T15:24:58,"Mahajan, Edwin and Ratti Hosp","41, Garg Street",23958
CRM_A,CRM_A_O_ORG_0307_712,Deshmukh-Nagarajan Pharmacy,Pharmacy,39/245 rao ganj,Ramagundam,AL,21141,US,2026-01-17T19:06:41,Deshmukh-Nagarajan Pharmacy,"39/245
Rao Ganj",21141
CRM_B,CRM_B_O_ORG_0307_334,Deshmukh-Nagarajan Pharmacy,Pharmacy,39/245 rao ganj,Ramagundam,AL,21141,US,2025-12-20T07:29:15,Deshmukh-Nagarajan Pharmacy,"39/245
Rao Ganj",21141
CRM_A,CRM_A_O_ORG_0308_288,Kulkarni Inc Hospital,Hospital,44 pillai street,Aurangabad,DL,184718,IN,2026-01-15T17:29:10,Kulkarni Inc Hospital,"44, Pillai Street",184718
CRM_B,CRM_B_O_ORG_0308_502,Kulkarni Incorporated Hospital,Hospital,44 pillai street,Aurangabad,DL,184718,IN,2025-12-30T18:43:03,Kulkarni Incorporated Hospital,"44, Pillai Street",184718
CRM_A,CRM_A_O_ORG_0309_271,"Ratta, Wable And Nazareth Lab",Lab,68 bahl street,Motihari,FL,68724,US,2025-11-23T04:37:47,"Ratta, Wable and Nazareth Lab","68, Bahl Street",68724
CRM_B,CRM_B_O_ORG_0309_239,"Ratta, Wable And Nazareth Lab",Lab,68 bahl street,Motihari,FL,68724,US,2025-11-16T21:02:39,"Ratta, Wable and Nazareth Lab","68, Bahl Street",68724
CRM_B,CRM_B_O_ORG_0309_763,"Ratta, Wable And Nazareth Lab",Lab,68 bahl street,Motihari,FL,68724,US,2025-11-13T01:21:01,"Ratta, Wable and Nazareth Lab","68, Bahl Street",68724
CRM_A,CRM_A_O_ORG_0310_180,"Chaudry, Gandhi And Dua Lab",Lab,61 dutta road,Mahbubnagar,NC,52702,US,2025-10-31T22:35:16,"Chaudry, Gandhi and Dua Lab","61
Dutta Road",52702
CRM_B,CRM_B_O_ORG_0310_458,"Chaudry, Gandhi And Dua Lab",Lab,61 dutta road,Mahbubnagar,NC,52702,US,2025-12-10T05:21:07,"Chaudry, Gandhi and Dua Lab","61
Dutta Road",52702
CRM_A,CRM_A_O_ORG_0311_777,Agarwal-Edwin Diagnostic Center,Diagnostic Center,79/09 koshy marg,Salem,MD,12621,US,2025-12-11T16:47:19,Agarwal-Edwin Diagnostic Center,"79/09, Koshy Marg",12621
CRM_B,CRM_B_O_ORG_0311_181,Agarwal-Edwin Diagnostic Center,Diagnostic Center,79/09 koshy marg,Salem,MD,12621,US,2025-12-05T07:52:06,Agarwal-Edwin Diagnostic Center,"79/09, Koshy Marg",12621
CRM_A,CRM_A_O_ORG_0312_760,"Nadkarni, Brahmbhatt And Borde Lab",Lab,h.no. 33 sarraf zila,Bhavnagar,NC,99534,US,2026-01-07T09:36:49,"Nadkarni, Brahmbhatt and Borde Lab","H.No. 33
Sarraf Zila",99534
CRM_B,CRM_B_O_ORG_0312_865,"Nadkarni, Brahmbhatt And Borde Lab",Lab,h.no. 33 sarraf zila,Bhavnagar,NC,99534,US,2026-01-20T15:07:05,"Nadkarni, Brahmbhatt and Borde Lab","H.No. 33
Sarraf Zila",99534
CRM_A,CRM_A_O_ORG_0313_946,"Palla, Jani And Khare Lab",Lab,70/86 morar nagar,Bhind,MA,93841,US,2025-12-16T22:30:45,"Palla, Jani and Khare Lab","70/86
Morar Nagar",93841
CRM_B,CRM_B_O_ORG_0313_219,"Palla, Jani And Khare Lab",Lab,70/86 morar nagar,Bhind,MA,93841,US,2025-10-25T16:54:26,"Palla, Jani and Khare Lab","70/86
Morar Nagar",93841
CRM_B,CRM_B_O_ORG_0313_347,"Palla, Jani And Khare Lab",Lab,70/86 morar nagar,Bhind,MA,93841,US,2025-12-05T14:11:45,"Palla, Jani and Khare Lab","70/86
Morar Nagar",93841
CRM_A,CRM_A_O_ORG_0314_879,Pai-Sharma Hospital,Hospital,h.no. 37 tailor zila,Vadodara,DL,391754,IN,2026-01-05T20:49:47,Pai-Sharma Hospital,"H.No. 37, Tailor Zila",391754
CRM_B,CRM_B_O_ORG_0314_185,Pai-Sharma Hospital,Hospital,h.no. 37 tailor zila,Vadodara,DL,391754,IN,2025-10-13T10:26:35,Pai-Sharma Hospital,"H.No. 37, Tailor Zila",391754
CRM_B,CRM_B_O_ORG_0314_188,Pai-Sharma Hosp,Hospital,h.no. 37 tailor zila,Vadodara,DL,391754,IN,2025-11-25T18:54:09,Pai-Sharma Hosp,"H.No. 37, Tailor Zila",391754
CRM_A,CRM_A_O_ORG_0315_586,"Contractor, Naik And Karpe Pharmacy",Pharmacy,003 nayar street,Ramgarh,AL,85577,US,2025-11-25T12:55:52,"Contractor, Naik and Karpe Pharmacy","003, Nayar Street",85577
CRM_B,CRM_B_O_ORG_0315_769,"Contractor, Naik And Karpe Pharmacy",Pharmacy,003 nayar street,Ramgarh,AL,85577,US,2026-01-24T03:51:58,"Contractor, Naik and Karpe Pharmacy","003, Nayar Street",85577
CRM_A,CRM_A_O_ORG_0316_108,Magar-Saxena Lab,Lab,h.no. 331 parikh zila,Hindupur,TS,147774,IN,2025-11-27T22:58:14,Magar-Saxena Lab,"H.No. 331
Parikh Zila",147774
CRM_B,CRM_B_O_ORG_0316_437,Magar-Saxena Lab,Lab,h.no. 331 parikh zila,Hindupur,TS,147774,IN,2025-12-19T12:12:36,Magar-Saxena Lab,"H.No. 331
Parikh Zila",147774
CRM_A,CRM_A_O_ORG_0317_300,Thakur-Karan Diagnostic Center,Diagnostic Center,42/26 hora marg,Arrah,IL,71817,US,2025-11-21T01:58:43,Thakur-Karan Diagnostic Center,"42/26
Hora Marg",71817
CRM_B,CRM_B_O_ORG_0317_935,Thakur-Karan Diagnostic Center,Diagnostic Center,42/26 hora marg,Arrah,IL,71817,US,2025-10-31T12:08:31,Thakur-Karan Diagnostic Center,"42/26
Hora Marg",71817
CRM_A,CRM_A_O_ORG_0318_825,Kala-Badami Lab,Lab,491 borra ganj,Eluru,DL,940472,IN,2025-12-27T23:22:51,Kala-Badami Lab,"491, Borra Ganj",940472
CRM_B,CRM_B_O_ORG_0318_681,Kala-Badami Lab,Lab,491 borra ganj,Eluru,DL,940472,IN,2025-10-19T10:45:48,Kala-Badami Lab,"491, Borra Ganj",940472
CRM_A,CRM_A_O_ORG_0319_524,"Oommen, Hayre And Raghavan Clinic",Clinic,13 mohan marg,Thiruvananthapuram,MA,99455,US,2025-12-04T14:58:17,"Oommen, Hayre and Raghavan Clinic","13
Mohan Marg",99455
CRM_B,CRM_B_O_ORG_0319_498,"Oommen, Hayre And Raghavan Clinic",Clinic,13 mohan marg,Thiruvananthapuram,MA,99455,US,2026-01-24T22:24:10,"Oommen, Hayre and Raghavan Clinic","13
Mohan Marg",99455
CRM_A,CRM_A_O_ORG_0320_861,Chacko-Mitra Pharmacy,Pharmacy,282 dewan ganj,Thrissur,DL,548614,IN,2025-11-06T23:09:15,Chacko-Mitra Pharmacy,"282
Dewan Ganj",548614
CRM_B,CRM_B_O_ORG_0320_239,Chacko-Mitra Pharmacy,Pharmacy,282 dewan ganj,Thrissur,DL,548614,IN,2026-02-04T15:48:12,Chacko-Mitra Pharmacy,"282
Dewan Ganj",548614
CRM_A,CRM_A_O_ORG_0321_263,Vaidya-Nagi Lab,Lab,97/993 ray road,Bahraich,NC,19351,US,2026-01-15T16:16:17,Vaidya-Nagi Lab,"97/993, Ray Road",19351
CRM_B,CRM_B_O_ORG_0321_312,Vaidya-Nagi Lab,Lab,97/993 ray road,Bahraich,NC,19351,US,2026-01-02T12:21:23,Vaidya-Nagi Lab,"97/993, Ray Road",19351
CRM_A,CRM_A_O_ORG_0322_443,Murty-Khatri Lab,Lab,h.no. 21 taneja,Munger,GA,63373,US,2025-10-23T08:18:44,Murty-Khatri Lab,"H.No. 21, Taneja",63373
CRM_B,CRM_B_O_ORG_0322_182,Murty-Khatri Lab,Lab,h.no. 21 taneja,Munger,GA,63373,US,2025-10-18T17:41:17,Murty-Khatri Lab,"H.No. 21, Taneja",63373
CRM_A,CRM_A_O_ORG_0323_269,Ahuja-Sant Pharmacy,Pharmacy,h.no. 231 mand path,Bhatpara,WB,305376,IN,2025-11-04T09:33:34,Ahuja-Sant Pharmacy,"H.No. 231
Mand Path",305376
CRM_B,CRM_B_O_ORG_0323_751,Ahuja-Sant Pharmacy,Pharmacy,h.no. 231 mand path,Bhatpara,WB,305376,IN,2026-01-06T01:20:52,Ahuja-Sant Pharmacy,"H.No. 231
Mand Path",305376
CRM_A,CRM_A_O_ORG_0324_936,Lal-Sharma Hospital,Hospital,h.no. 750 ratta zila,Ajmer,MI,20415,US,2025-12-21T18:44:49,Lal-Sharma Hospital,"H.No. 750, Ratta Zila",20415-3315
CRM_B,CRM_B_O_ORG_0324_711,Lal-Sharma Hospital,Hospital,h.no. 750 ratta zila,Ajmer,MI,20415,US,2025-11-07T22:09:28,Lal-Sharma Hospital,"H.No. 750, Ratta Zila",20415-3315
CRM_A,CRM_A_O_ORG_0325_914,Bail-Gupta Lab,Lab,14/10 dass path,Mahbubnagar,VA,90005,US,2025-10-13T02:31:48,Bail-Gupta Lab,"14/10
Dass Path",90005
CRM_B,CRM_B_O_ORG_0325_197,Bail-Gupta Lab,Lab,14/10 dass path,Mahbubnagar,VA,90005,US,2026-02-04T11:13:09,Bail-Gupta Lab,"14/10
Dass Path",90005
CRM_B,CRM_B_O_ORG_0325_522,Bail-Gupta Lab,Lab,14/10 dass path,Mahbubnagar,VA,90005,US,2025-11-29T21:08:16,Bail-Gupta Lab,14/10 Dass Path,90005
CRM_A,CRM_A_O_ORG_0326_688,"Ranganathan, Iyer And Sachdev Diagnostic Center",Diagnostic Center,721 ravi street,Satara,AL,29323,US,2025-11-10T10:28:22,"Ranganathan, Iyer and Sachdev Diagnostic Center","721
Ravi Street",29323
CRM_B,CRM_B_O_ORG_0326_163,"Ranganathan, Iyer And Sachdev Diagnostic Center",Diagnostic Center,721 ravi street,Satara,AL,29323,US,2025-11-16T18:19:05,"Ranganathan, Iyer and Sachdev Diagnostic Center","721
Ravi Street",29323
CRM_A,CRM_A_O_ORG_0327_769,Jain-Ram Lab,Lab,87 sant,Farrukhabad,UP,649643,IN,2025-11-12T01:29:29,Jain-Ram Lab,"87
Sant",649643
CRM_B,CRM_B_O_ORG_0327_439,Jain-Ram Lab,Lab,87 sant,Farrukhabad,UP,649643,IN,2025-11-15T01:58:50,Jain-Ram Lab,"87
Sant",649643
CRM_A,CRM_A_O_ORG_0328_833,Srinivas-Grewal Clinic,Clinic,86/30 kaul zila,Muzaffarnagar,OH,64388,US,2026-02-08T21:02:32,Srinivas-Grewal Clinic,"86/30
Kaul Zila",64388
CRM_B,CRM_B_O_ORG_0328_956,Srinivas-Grewal Clnc,Clinic,86/30 kaul zila,Muzaffarnagar,OH,64388,US,2025-12-13T14:22:51,Srinivas-Grewal Clnc,"86/30
Kaul Zila",64388
CRM_A,CRM_A_O_ORG_0329_421,Sura Plc Clinic,Clinic,h.no. 702 sule marg,Madanapalle,FL,99129,US,2025-12-19T09:03:57,Sura PLC Clinic,"H.No. 702, Sule Marg",99129
CRM_B,CRM_B_O_ORG_0329_767,Sura Plc Clinic,Clinic,h.no. 702 sule marg,Madanapalle,FL,99129,US,2025-12-15T01:19:02,Sura PLC Clinic,"H.No. 702, Sule Marg",99129
CRM_A,CRM_A_O_ORG_0330_274,"Rajan, Bobal And Minhas Diagnostic Center",Diagnostic Center,18/51 sharaf road,Bhusawal,WA,59482,US,2025-12-15T14:16:34,"Rajan, Bobal and Minhas Diagnostic Center","18/51
Sharaf Road",59482
CRM_A,CRM_A_O_ORG_0330_732,"Rajan, Bobal And Minhas Diagnostic Center",Diagnostic Center,18/51 sharaf road,Bhusawal,WA,59482,US,2025-12-11T16:38:01,"Rajan, Bobal and Minhas Diagnostic Center","18/51
Sharaf Road",59482
CRM_A,CRM_A_O_ORG_0331_621,Sagar Ltd Diagnostic Center,Diagnostic Center,849 doctor path,Bhopal,GA,29731,US,2025-11-13T03:28:32,Sagar Ltd Diagnostic Center,"849, Doctor Path",29731-4214
CRM_B,CRM_B_O_ORG_0331_134,Sagar Ltd Diagnostic Center,Diagnostic Center,849 doctor path,Bhopal,GA,29731,US,2025-10-21T21:59:07,Sagar Ltd Diagnostic Center,"849, Doctor Path",29731-4214
CRM_A,CRM_A_O_ORG_0332_909,Varma-Gour Hospital,Hospital,79/56 mohanty zila,Hyderabad,NY,16267,US,2026-01-03T12:37:22,Varma-Gour Hospital,"79/56, Mohanty Zila",16267
CRM_B,CRM_B_O_ORG_0332_296,Varma-Gour Hosp,Hospital,79/56 mohanty zila,Hyderabad,NY,16267,US,2026-01-24T05:13:30,Varma-Gour Hosp,"79/56, Mohanty Zila",16267
CRM_A,CRM_A_O_ORG_0333_484,"Rai, Raja And Boase Pharmacy",Pharmacy,29/32 seth path,Motihari,GA,56835,US,2026-01-21T11:40:38,"Rai, Raja and Boase Pharmacy","29/32
Seth Path",56835
CRM_B,CRM_B_O_ORG_0333_763,"Rai, Raja And Boase Pharmacy",Pharmacy,29/32 seth path,Motihari,GA,56835,US,2026-01-27T06:19:21,"Rai, Raja and Boase Pharmacy","29/32
Seth Path",56835
CRM_A,CRM_A_O_ORG_0334_260,"Nayak, Bassi And Sampath Pharmacy",Pharmacy,034 bobal chowk,Udaipur,NJ,60872,US,2025-11-28T17:19:55,"Nayak, Bassi and Sampath Pharmacy","034, Bobal Chowk",60872
CRM_B,CRM_B_O_ORG_0334_538,"Nayak, Bassi And Sampath Pharmacy",Pharmacy,034 bobal chowk,Udaipur,NJ,60872,US,2025-11-25T09:36:38,"Nayak, Bassi and Sampath Pharmacy","034, Bobal Chowk",60872
CRM_A,CRM_A_O_ORG_0335_700,Devan Group Lab,Lab,h.no. 238 narayanan path,Kolhapur,NC,76773,US,2026-02-02T17:49:36,Devan Group Lab,"H.No. 238, Narayanan Path",76773
CRM_B,CRM_B_O_ORG_0335_402,Devan Group Lab,Lab,h.no. 238 narayanan path,Kolhapur,NC,76773,US,2025-12-31T21:47:14,Devan Group Lab,H.No. 238 Narayanan Path,76773
CRM_A,CRM_A_O_ORG_0336_313,"Dube, Banik And Shetty Diagnostic Center",Diagnostic Center,303 prabhu ganj,Korba,TX,74998,US,2025-11-11T23:35:48,"Dube, Banik and Shetty Diagnostic Center","303, Prabhu Ganj",74998
CRM_B,CRM_B_O_ORG_0336_780,"Dube, Banik And Shetty Diagnostic Center",Diagnostic Center,303 prabhu ganj,Korba,TX,74998,US,2025-12-13T23:48:37,"Dube, Banik and Shetty Diagnostic Center","303, Prabhu Ganj",74998
CRM_A,CRM_A_O_ORG_0337_611,Zachariah Plc Lab,Lab,h.no. 113 tank,Latur,OH,99671,US,2025-11-16T01:29:45,Zachariah PLC Lab,"H.No. 113
Tank",99671
CRM_B,CRM_B_O_ORG_0337_378,Zachariah Plc Lab,Lab,h.no. 113 tank,Latur,OH,99671,US,2025-12-07T22:50:31,Zachariah PLC Lab,H.No. 113 Tank,99671
CRM_A,CRM_A_O_ORG_0338_970,"Shankar, Dugar And Sarna Diagnostic Center",Diagnostic Center,78 korpal street,Chennai,GA,28132,US,2025-11-08T18:26:37,"Shankar, Dugar and Sarna Diagnostic Center","78
Korpal Street",28132
CRM_B,CRM_B_O_ORG_0338_472,"Shankar, Dugar And Sarna Diagnostic Ctr",Diagnostic Center,78 korpal street,Chennai,GA,28132,US,2025-12-13T17:05:31,"Shankar, Dugar and Sarna Diagnostic Ctr","78
Korpal Street",28132
CRM_A,CRM_A_O_ORG_0339_355,"Memon, Gopal And De Pharmacy",Pharmacy,51 kumer road,Danapur,FL,13604,US,2025-11-07T02:20:48,"Memon, Gopal and De Pharmacy","51
Kumer Road",13604
CRM_B,CRM_B_O_ORG_0339_718,"Memon, Gopal And De Pharmacy",Pharmacy,51 kumer road,Danapur,FL,13604,US,2026-01-19T09:50:38,"Memon, Gopal and De Pharmacy","51
Kumer Road",13604
CRM_A,CRM_A_O_ORG_0340_357,Nigam-Sharaf Pharmacy,Pharmacy,062 raja nagar,Tirupati,WB,588354,IN,2026-01-07T19:39:58,Nigam-Sharaf Pharmacy,"062
Raja Nagar",588354
CRM_B,CRM_B_O_ORG_0340_870,Nigam-Sharaf Pharmacy,Pharmacy,062 raja nagar,Tirupati,WB,588354,IN,2025-11-14T11:20:06,Nigam-Sharaf Pharmacy,"062
Raja Nagar",588354
CRM_B,CRM_B_O_ORG_0340_840,Nigam-Sharaf Pharmacy,Pharmacy,062 raja nagar,Tirupati,WB,588354,IN,2025-10-17T18:54:21,Nigam-Sharaf Pharmacy,"062
Raja Nagar",588354
CRM_A,CRM_A_O_ORG_0341_277,"Misra, Dasgupta And Tiwari Lab",Lab,029 buch circle,Dhule,OH,12952,US,2025-12-19T01:21:04,"Misra, Dasgupta and Tiwari Lab","029
Buch Circle",12952
CRM_B,CRM_B_O_ORG_0341_959,"Misra, Dasgupta And Tiwari Lab",Lab,029 buch circle,Dhule,OH,12952,US,2025-10-14T05:00:18,"Misra, Dasgupta and Tiwari Lab","029
Buch Circle",12952
CRM_A,CRM_A_O_ORG_0342_609,Agrawal Plc Lab,Lab,391 chad road,Aurangabad,MH,184428,IN,2026-01-18T00:50:47,Agrawal PLC Lab,"391
Chad Road",184428
CRM_B,CRM_B_O_ORG_0342_967,Agrawal Plc Lab,Lab,391 chad road,Aurangabad,MH,184428,IN,2025-10-15T15:07:50,Agrawal PLC Lab,"391
Chad Road",184428
CRM_A,CRM_A_O_ORG_0343_622,"Sarma, Roy And Krish Lab",Lab,h.no. 507 nori road,Ichalkaranji,NY,51561,US,2025-11-04T18:39:34,"Sarma, Roy and Krish Lab","H.No. 507, Nori Road",51561
CRM_B,CRM_B_O_ORG_0343_215,"Sarma, Roy And Krish Lab",Lab,h.no. 507 nori road,Ichalkaranji,NY,51561,US,2026-01-18T03:13:31,"Sarma, Roy and Krish Lab","H.No. 507, Nori Road",51561
CRM_A,CRM_A_O_ORG_0344_533,Khare-Garde Clinic,Clinic,h.no. 929 ahuja circle,Saharsa,WB,162280,IN,2026-01-25T16:17:05,Khare-Garde Clinic,"H.No. 929
Ahuja Circle",162280
CRM_B,CRM_B_O_ORG_0344_676,Khare-Garde Clinic,Clinic,h.no. 929 ahuja circle,Saharsa,WB,162280,IN,2026-01-12T19:28:25,Khare-Garde Clinic,"H.No. 929
Ahuja Circle",162280
CRM_B,CRM_B_O_ORG_0344_318,Khare-Garde Clinic,Clinic,h.no. 929 ahuja circle,Saharsa,WB,162280,IN,2025-12-17T14:33:51,Khare-Garde Clinic,"H.No. 929
Ahuja Circle",162280
CRM_A,CRM_A_O_ORG_0345_858,Lalla-Choudhury Hospital,Hospital,h.no. 693 gola marg,Howrah,AK,46406,US,2025-10-22T01:10:40,Lalla-Choudhury Hospital,"H.No. 693
Gola Marg",46406
CRM_B,CRM_B_O_ORG_0345_975,Lalla-Choudhury Hospital,Hospital,h.no. 693 gola marg,Howrah,AK,46406,US,2025-12-15T15:21:49,Lalla-Choudhury Hospital,"H.No. 693
Gola Marg",46406
CRM_B,CRM_B_O_ORG_0345_562,Lalla-Choudhury Hospital,Hospital,h.no. 693 gola marg,Howrah,AK,46406,US,2026-02-03T01:36:25,Lalla-Choudhury Hospital,"H.No. 693
Gola Marg",46406
CRM_A,CRM_A_O_ORG_0346_484,"Vora, Narayanan And Contractor Lab",Lab,238 hayre zila,Kanpur,NJ,29662,US,2025-12-25T02:40:28,"Vora, Narayanan and Contractor Lab","238
Hayre Zila",29662
CRM_B,CRM_B_O_ORG_0346_445,"Vora, Narayanan And Contractor Lab",Lab,238 hayre zila,Kanpur,NJ,29662,US,2025-11-26T04:25:44,"Vora, Narayanan and Contractor Lab","238
Hayre Zila",29662
CRM_A,CRM_A_O_ORG_0346_323,"Vora, Narayanan And Contractor Lab",Lab,238 hayre zila,Kanpur,NJ,29662,US,2026-01-12T06:55:20,"Vora, Narayanan and Contractor Lab","238
Hayre Zila",29662
CRM_A,CRM_A_O_ORG_0347_363,"Nagarajan, Subramanian And Menon Lab",Lab,h.no. 376 gill street,Thanjavur,MA,53716,US,2025-12-22T02:17:31,"Nagarajan, Subramanian and Menon Lab","H.No. 376, Gill Street",53716
CRM_B,CRM_B_O_ORG_0347_769,"Nagarajan, Subramanian And Menon Lab",Lab,h.no. 376 gill street,Thanjavur,MA,53716,US,2025-12-26T00:07:59,"Nagarajan, Subramanian and Menon Lab","H.No. 376, Gill Street",53716
CRM_A,CRM_A_O_ORG_0348_760,"Loyal, Das And Narain Lab",Lab,h.no. 83 palla circle,Chinsurah,NJ,36251,US,2026-01-04T16:55:17,"Loyal, Das and Narain Lab","H.No. 83, Palla Circle",36251
CRM_B,CRM_B_O_ORG_0348_502,"Loyal, Das And Narain Lab",Lab,h.no. 83 palla circle,Chinsurah,NJ,36251,US,2025-12-25T23:15:41,"Loyal, Das and Narain Lab","H.No. 83, Palla Circle",36251
CRM_B,CRM_B_O_ORG_0348_120,"Loyal, Das And Narain Lab",Lab,h.no. 83 palla circle,Chinsurah,NJ,36251,US,2025-11-30T01:24:50,"Loyal, Das and Narain Lab","H.No. 83, Palla Circle",36251
CRM_A,CRM_A_O_ORG_0349_610,Murty Group Pharmacy,Pharmacy,h.no. 644 roy marg,Nangloi Jat,TS,133440,IN,2026-01-15T12:09:48,Murty Group Pharmacy,"H.No. 644, Roy Marg",133440
CRM_B,CRM_B_O_ORG_0349_486,Murty Group Pharmacy,Pharmacy,h.no. 644 roy marg,Nangloi Jat,TS,133440,IN,2025-10-27T09:37:29,Murty Group Pharmacy,"H.No. 644, Roy Marg",133440
CRM_A,CRM_A_O_ORG_0350_757,Gupta And Sons Hospital,Hospital,h.no. 029 nigam zila,Jamshedpur,AL,13788,US,2026-01-03T12:41:52,Gupta and Sons Hospital,"H.No. 029, Nigam Zila",13788
CRM_A,CRM_A_O_ORG_0351_806,Pillai Plc Hospital,Hospital,h.no. 014 bath marg,Jhansi,DL,162841,IN,2025-10-24T06:22:46,Pillai PLC Hospital,"H.No. 014, Bath Marg",162841
CRM_A,CRM_A_O_ORG_0352_465,"Prabhakar, Krish And Nazareth Lab",Lab,28/90 madan zila,Siwan,MA,20196,US,2025-12-17T02:12:04,"Prabhakar, Krish and Nazareth Lab","28/90
Madan Zila",20196
CRM_B,CRM_B_O_ORG_0352_832,"Prabhakar, Krish And Nazareth Lab",Lab,28/90 madan zila,Siwan,MA,20196,US,2026-01-22T04:45:12,"Prabhakar, Krish and Nazareth Lab","28/90
Madan Zila",20196
CRM_A,CRM_A_O_ORG_0353_918,Dey Ltd Diagnostic Center,Diagnostic Center,h.no. 63 rastogi zila,Eluru,WA,51203,US,2026-01-16T08:37:35,Dey Ltd Diagnostic Center,"H.No. 63, Rastogi Zila",51203
CRM_A,CRM_A_O_ORG_0354_844,Bawa-Dhar Lab,Lab,h.no. 689 sheth street,Bhind,KA,626786,IN,2025-10-29T05:52:10,Bawa-Dhar Lab,"H.No. 689
Sheth Street",626786
CRM_B,CRM_B_O_ORG_0354_957,Bawa-Dhar Lab,Lab,h.no. 689 sheth street,Bhind,KA,626786,IN,2025-11-16T20:42:25,Bawa-Dhar Lab,"H.No. 689
Sheth Street",626786
CRM_A,CRM_A_O_ORG_0355_815,"Sharaf, Chakraborty And Bose Lab",Lab,34/77 pall nagar,Ahmedabad,NY,20027,US,2025-12-31T17:33:09,"Sharaf, Chakraborty and Bose Lab","34/77, Pall Nagar",20027
CRM_A,CRM_A_O_ORG_0356_422,"Kumer, Som And Kaul Pharmacy",Pharmacy,80/282 kale zila,Vijayawada,MA,76941,US,2025-12-13T21:11:27,"Kumer, Som and Kaul Pharmacy","80/282, Kale Zila",76941
CRM_B,CRM_B_O_ORG_0356_890,"Kumer, Som And Kaul Pharmacy",Pharmacy,80/282 kale zila,Vijayawada,MA,76941,US,2025-10-25T11:02:00,"Kumer, Som and Kaul Pharmacy","80/282, Kale Zila",76941
CRM_A,CRM_A_O_ORG_0357_186,"Misra, Vaidya And Gera Hospital",Hospital,14/304 more road,Tezpur,NJ,70497,US,2025-12-02T21:37:00,"Misra, Vaidya and Gera Hospital","14/304
More Road",70497
CRM_B,CRM_B_O_ORG_0357_452,"Misra, Vaidya And Gera Hospital",Hospital,14/304 more road,Tezpur,NJ,70497,US,2025-11-23T23:03:08,"Misra, Vaidya and Gera Hospital","14/304
More Road",70497
CRM_A,CRM_A_O_ORG_0358_850,Walia-Minhas Pharmacy,Pharmacy,h.no. 96 mital ganj,Jaipur,NJ,29301,US,2026-01-31T12:56:07,Walia-Minhas Pharmacy,"H.No. 96, Mital Ganj",29301
CRM_B,CRM_B_O_ORG_0358_764,Walia-Minhas Pharmacy,Pharmacy,h.no. 96 mital ganj,Jaipur,NJ,29301,US,2025-11-04T22:41:05,Walia-Minhas Pharmacy,"H.No. 96, Mital Ganj",29301
CRM_A,CRM_A_O_ORG_0358_506,Walia-Minhas Pharmacy,Pharmacy,h.no. 96 mital ganj,Jaipur,NJ,29301,US,2026-01-22T22:42:28,Walia-Minhas Pharmacy,"H.No. 96, Mital Ganj",29301
CRM_A,CRM_A_O_ORG_0359_465,Seth Group Clinic,Clinic,450 kuruvilla nagar,Tadipatri,AL,54969,US,2025-11-07T15:42:42,Seth Group Clinic,"450, Kuruvilla Nagar",54969
CRM_B,CRM_B_O_ORG_0359_959,Seth Group Clnc,Clinic,450 kuruvilla nagar,Tadipatri,AL,54969,US,2025-12-13T10:24:54,Seth Group Clnc,"450, Kuruvilla Nagar",54969
CRM_A,CRM_A_O_ORG_0360_670,Chakraborty-Chadha Diagnostic Center,Diagnostic Center,03/076 bobal marg,Kolkata,DL,773084,IN,2025-12-09T18:10:56,Chakraborty-Chadha Diagnostic Center,"03/076, Bobal Marg",773084
CRM_B,CRM_B_O_ORG_0360_236,Chakraborty-Chadha Diagnostic Center,Diagnostic Center,03/076 bobal marg,Kolkata,DL,773084,IN,2025-11-21T05:47:44,Chakraborty-Chadha Diagnostic Center,"03/076, Bobal Marg",773084
CRM_B,CRM_B_O_ORG_0360_408,Chakraborty-Chadha Diagnostic Ctr,Diagnostic Center,03/076 bobal marg,Kolkata,DL,773084,IN,2025-12-12T05:05:00,Chakraborty-Chadha Diagnostic Ctr,03/076 Bobal Marg,773084
CRM_A,CRM_A_O_ORG_0361_998,Cherian-Rama Clinic,Clinic,46/48 balasubramanian street,Cuttack,IL,10473,US,2025-11-24T02:39:43,Cherian-Rama Clinic,"46/48
Balasubramanian Street",10473
CRM_B,CRM_B_O_ORG_0361_692,Cherian-Rama Clinic,Clinic,46/48 balasubramanian street,Cuttack,IL,10473,US,2026-01-29T19:07:41,Cherian-Rama Clinic,"46/48
Balasubramanian Street",10473
CRM_A,CRM_A_O_ORG_0361_455,Cherian-Rama Clinic,Clinic,46/48 balasubramanian street,Cuttack,IL,10473,US,2025-12-25T14:56:25,Cherian-Rama Clinic,"46/48
Balasubramanian Street",10473
CRM_A,CRM_A_O_ORG_0362_553,"More, Virk And Bobal Pharmacy",Pharmacy,69/69 kara street,Rohtak,VA,47456,US,2025-10-21T10:48:13,"More, Virk and Bobal Pharmacy","69/69, Kara Street",47456
CRM_B,CRM_B_O_ORG_0362_491,"More, Virk And Bobal Pharmacy",Pharmacy,69/69 kara street,Rohtak,VA,47456,US,2025-10-19T10:00:53,"More, Virk and Bobal Pharmacy","69/69, Kara Street",47456
CRM_A,CRM_A_O_ORG_0363_928,Bhalla-Narain Pharmacy,Pharmacy,24 shenoy chowk,Gwalior,TN,813460,IN,2025-12-15T20:36:07,Bhalla-Narain Pharmacy,"24
Shenoy Chowk",813460
CRM_B,CRM_B_O_ORG_0363_507,Bhalla-Narain Pharmacy,Pharmacy,24 shenoy chowk,Gwalior,TN,813460,IN,2025-10-30T03:36:44,Bhalla-Narain Pharmacy,"24
Shenoy Chowk",813460
CRM_A,CRM_A_O_ORG_0364_649,Rout And Sons Clinic,Clinic,091 amble marg,Bhimavaram,TX,17182,US,2026-01-14T03:02:37,Rout and Sons Clinic,"091
Amble Marg",17182-6809
CRM_B,CRM_B_O_ORG_0364_801,Rout And Sons Clinic,Clinic,091 amble marg,Bhimavaram,TX,17182,US,2025-11-02T00:36:06,Rout and Sons Clinic,"091
Amble Marg",17182-6809
CRM_A,CRM_A_O_ORG_0365_740,"Menon, Choudhary And Sood Pharmacy",Pharmacy,190 sarna zila,Pali,AZ,73511,US,2025-10-29T06:57:25,"Menon, Choudhary and Sood Pharmacy","190, Sarna Zila",73511-6038
CRM_B,CRM_B_O_ORG_0365_632,"Menon, Choudhary And Sood Pharmacy",Pharmacy,190 sarna zila,Pali,AZ,73511,US,2025-10-17T12:02:54,"Menon, Choudhary and Sood Pharmacy",190 Sarna Zila,73511-6038
CRM_A,CRM_A_O_ORG_0366_583,Vyas-Prashad Diagnostic Center,Diagnostic Center,21 patil circle,Sri Ganganagar,GA,43204,US,2025-11-02T10:08:50,Vyas-Prashad Diagnostic Center,"21, Patil Circle",43204
CRM_B,CRM_B_O_ORG_0366_785,Vyas-Prashad Diagnostic Center,Diagnostic Center,21 patil circle,Sri Ganganagar,GA,43204,US,2025-12-06T06:59:37,Vyas-Prashad Diagnostic Center,"21, Patil Circle",43204
CRM_A,CRM_A_O_ORG_0367_153,"Krishna, Behl And Mody Lab",Lab,h.no. 571 saha street,Munger,PA,49642,US,2025-12-16T11:43:20,"Krishna, Behl and Mody Lab","H.No. 571
Saha Street",49642
CRM_B,CRM_B_O_ORG_0367_323,"Krishna, Behl And Mody Lab",Lab,h.no. 571 saha street,Munger,PA,49642,US,2026-01-22T17:13:55,"Krishna, Behl and Mody Lab","H.No. 571
Saha Street",49642
CRM_A,CRM_A_O_ORG_0368_809,Rajagopalan-Mall Diagnostic Center,Diagnostic Center,65/666 chandran chowk,Berhampore,KA,375204,IN,2025-10-28T09:06:11,Rajagopalan-Mall Diagnostic Center,"65/666, Chandran Chowk",375204
CRM_B,CRM_B_O_ORG_0368_837,Rajagopalan-Mall Diagnostic Center,Diagnostic Center,65/666 chandran chowk,Berhampore,KA,375204,IN,2025-11-08T18:17:17,Rajagopalan-Mall Diagnostic Center,"65/666, Chandran Chowk",375204
CRM_A,CRM_A_O_ORG_0369_571,Chacko Inc Clinic,Clinic,h.no. 701 badami circle,Hajipur,AL,39613,US,2025-10-25T23:44:02,Chacko Inc Clinic,"H.No. 701, Badami Circle",39613
CRM_B,CRM_B_O_ORG_0369_853,Chacko Inc Clinic,Clinic,h.no. 701 badami circle,Hajipur,AL,39613,US,2026-02-03T19:26:26,Chacko Inc Clinic,H.No. 701 Badami Circle,39613
CRM_A,CRM_A_O_ORG_0370_864,"Handa, Pillai And Sami Lab",Lab,92/625 devan path,Jaunpur,MH,186074,IN,2025-12-29T23:57:17,"Handa, Pillai and Sami Lab","92/625
Devan Path",186074
CRM_B,CRM_B_O_ORG_0370_235,"Handa, Pillai And Sami Lab",Lab,92/625 devan path,Jaunpur,MH,186074,IN,2025-12-09T21:39:47,"Handa, Pillai and Sami Lab","92/625
Devan Path",186074
CRM_A,CRM_A_O_ORG_0371_280,Brar-Palla Pharmacy,Pharmacy,33/598 wason road,Hazaribagh,NJ,22518,US,2026-01-06T06:29:42,Brar-Palla Pharmacy,"33/598, Wason Road",22518
CRM_B,CRM_B_O_ORG_0371_359,Brar-Palla Pharmacy,Pharmacy,33/598 wason road,Hazaribagh,NJ,22518,US,2025-12-21T08:09:41,Brar-Palla Pharmacy,"33/598, Wason Road",22518
CRM_A,CRM_A_O_ORG_0372_875,Bhatti-Thaman Hospital,Hospital,83/043 dhillon road,Guntakal,FL,34628,US,2026-01-22T01:15:08,Bhatti-Thaman Hospital,"83/043
Dhillon Road",34628
CRM_B,CRM_B_O_ORG_0372_420,Bhatti-Thaman Hospital,Hospital,83/043 dhillon road,Guntakal,FL,34628,US,2026-01-28T01:23:17,Bhatti-Thaman Hospital,"83/043
Dhillon Road",34628
CRM_A,CRM_A_O_ORG_0373_920,"Tandon, Zachariah And Prakash Clinic",Clinic,101 kanda ganj,Bangalore,MI,64841,US,2026-01-13T06:47:32,"Tandon, Zachariah and Prakash Clinic","101, Kanda Ganj",64841
CRM_B,CRM_B_O_ORG_0373_678,"Tandon, Zachariah And Prakash Clinic",Clinic,101 kanda ganj,Bangalore,MI,64841,US,2025-12-31T04:49:30,"Tandon, Zachariah and Prakash Clinic","101, Kanda Ganj",64841
CRM_A,CRM_A_O_ORG_0374_966,"Atwal, Mand And Amble Lab",Lab,765 more circle,Aligarh,DL,320240,IN,2025-11-27T09:35:44,"Atwal, Mand and Amble Lab","765, More Circle",320240
CRM_B,CRM_B_O_ORG_0374_854,"Atwal, Mand And Amble Lab",Lab,765 more circle,Aligarh,DL,320240,IN,2026-01-09T10:42:53,"Atwal, Mand and Amble Lab","765, More Circle",320240
CRM_A,CRM_A_O_ORG_0375_837,Basak-Nori Lab,Lab,h.no. 02 sengupta path,Agra,DL,768672,IN,2025-11-28T15:39:14,Basak-Nori Lab,"H.No. 02
Sengupta Path",768672
CRM_A,CRM_A_O_ORG_0376_134,"Batra, Nair And Bhalla Diagnostic Center",Diagnostic Center,79/904 hans marg,Mahbubnagar,CA,91607,US,2026-02-06T23:53:19,"Batra, Nair and Bhalla Diagnostic Center","79/904, Hans Marg",91607
CRM_B,CRM_B_O_ORG_0376_835,"Batra, Nair And Bhalla Diagnostic Center",Diagnostic Center,79/904 hans marg,Mahbubnagar,CA,91607,US,2026-02-01T14:59:18,"Batra, Nair and Bhalla Diagnostic Center","79/904, Hans Marg",91607
CRM_A,CRM_A_O_ORG_0377_475,Choudhury Plc Diagnostic Center,Diagnostic Center,64/88 rai ganj,Alappuzha,KA,418335,IN,2025-11-09T14:17:49,Choudhury PLC Diagnostic Center,"64/88, Rai Ganj",418335
CRM_B,CRM_B_O_ORG_0377_382,Choudhury Plc Diagnostic Center,Diagnostic Center,64/88 rai ganj,Alappuzha,KA,418335,IN,2026-01-16T06:29:08,Choudhury PLC Diagnostic Center,64/88 Rai Ganj,418335
CRM_A,CRM_A_O_ORG_0378_244,"Sachdeva, Buch And Sachar Diagnostic Center",Diagnostic Center,77 shah zila,Ratlam,AZ,53292,US,2025-10-31T18:21:22,"Sachdeva, Buch and Sachar Diagnostic Center","77, Shah Zila",53292
CRM_B,CRM_B_O_ORG_0378_908,"Sachdeva, Buch And Sachar Diagnostic Center",Diagnostic Center,77 shah zila,Ratlam,AZ,53292,US,2025-12-29T15:10:56,"Sachdeva, Buch and Sachar Diagnostic Center","77, Shah Zila",53292
CRM_A,CRM_A_O_ORG_0379_986,Roy Ltd Hospital,Hospital,26/915 zachariah road,Panvel,PA,55241,US,2025-10-24T04:49:07,Roy Ltd Hospital,"26/915
Zachariah Road",55241
CRM_B,CRM_B_O_ORG_0379_564,Roy Ltd Hospital,Hospital,26/915 zachariah road,Panvel,PA,55241,US,2025-12-21T17:04:48,Roy Ltd Hospital,"26/915
Zachariah Road",55241
CRM_A,CRM_A_O_ORG_0380_278,"Chakrabarti, Lanka And Char Clinic",Clinic,h.no. 52 sodhi chowk,Mirzapur,TS,995289,IN,2025-12-28T20:04:05,"Chakrabarti, Lanka and Char Clinic","H.No. 52, Sodhi Chowk",995289
CRM_B,CRM_B_O_ORG_0380_994,"Chakrabarti, Lanka And Char Clinic",Clinic,h.no. 52 sodhi chowk,Mirzapur,TS,995289,IN,2025-12-12T00:55:34,"Chakrabarti, Lanka and Char Clinic","H.No. 52, Sodhi Chowk",995289
CRM_A,CRM_A_O_ORG_0381_495,Walla Group Diagnostic Center,Diagnostic Center,h.no. 05 gaba marg,Sagar,GA,15380,US,2025-11-19T07:57:36,Walla Group Diagnostic Center,"H.No. 05
Gaba Marg",15380
CRM_B,CRM_B_O_ORG_0381_492,Walla Group Diagnostic Center,Diagnostic Center,h.no. 05 gaba marg,Sagar,GA,15380,US,2026-01-19T22:53:10,Walla Group Diagnostic Center,"H.No. 05
Gaba Marg",15380
CRM_A,CRM_A_O_ORG_0382_614,"Buch, Yadav And Walia Hospital",Hospital,89 bakshi path,Kamarhati,FL,60486,US,2026-01-30T13:14:17,"Buch, Yadav and Walia Hospital","89
Bakshi Path",60486
CRM_B,CRM_B_O_ORG_0382_896,"Buch, Yadav And Walia Hospital",Hospital,89 bakshi path,Kamarhati,FL,60486,US,2025-12-22T16:51:33,"Buch, Yadav and Walia Hospital","89
Bakshi Path",60486
CRM_A,CRM_A_O_ORG_0383_252,"Chowdhury, Iyer And Vora Clinic",Clinic,h.no. 741 ganguly road,Salem,CO,30576,US,2025-11-10T08:19:14,"Chowdhury, Iyer and Vora Clinic","H.No. 741
Ganguly Road",30576
CRM_B,CRM_B_O_ORG_0383_204,"Chowdhury, Iyer And Vora Clinic",Clinic,h.no. 741 ganguly road,Salem,CO,30576,US,2026-01-13T11:06:45,"Chowdhury, Iyer and Vora Clinic","H.No. 741
Ganguly Road",30576
CRM_B,CRM_B_O_ORG_0383_519,"Chowdhury, Iyer And Vora Clinic",Clinic,h.no. 741 ganguly road,Salem,CO,30576,US,2025-12-23T13:07:08,"Chowdhury, Iyer and Vora Clinic",H.No. 741 Ganguly Road,30576
CRM_A,CRM_A_O_ORG_0384_879,Malhotra Plc Diagnostic Center,Diagnostic Center,828 mukhopadhyay zila,Jalna,WA,41740,US,2025-12-08T18:26:43,Malhotra PLC Diagnostic Center,"828
Mukhopadhyay Zila",41740
CRM_B,CRM_B_O_ORG_0384_554,Malhotra Plc Diagnostic Ctr,Diagnostic Center,828 mukhopadhyay zila,Jalna,WA,41740,US,2025-11-09T22:36:04,Malhotra PLC Diagnostic Ctr,"828
Mukhopadhyay Zila",41740
CRM_A,CRM_A_O_ORG_0385_959,Goel-Muni Diagnostic Center,Diagnostic Center,63/57 kale street,Ujjain,WB,871233,IN,2026-02-02T21:08:13,Goel-Muni Diagnostic Center,"63/57
Kale Street",871233
CRM_B,CRM_B_O_ORG_0385_383,Goel-Muni Diagnostic Ctr,Diagnostic Center,63/57 kale street,Ujjain,WB,871233,IN,2025-12-19T04:26:51,Goel-Muni Diagnostic Ctr,"63/57
Kale Street",871233
CRM_A,CRM_A_O_ORG_0386_430,Karan-Kaul Lab,Lab,90/34 minhas path,Sikar,TS,262254,IN,2025-11-28T03:46:27,Karan-Kaul Lab,"90/34, Minhas Path",262254
CRM_B,CRM_B_O_ORG_0386_101,Karan-Kaul Lab,Lab,90/34 minhas path,Sikar,TS,262254,IN,2025-12-14T17:28:10,Karan-Kaul Lab,"90/34, Minhas Path",262254
CRM_A,CRM_A_O_ORG_0387_823,"Tella, Mander And Kothari Hospital",Hospital,h.no. 095 ram road,Kota,FL,62635,US,2025-12-12T03:18:05,"Tella, Mander and Kothari Hospital","H.No. 095, Ram Road",62635
CRM_B,CRM_B_O_ORG_0387_211,"Tella, Mander And Kothari Hospital",Hospital,h.no. 095 ram road,Kota,FL,62635,US,2025-10-10T17:13:15,"Tella, Mander and Kothari Hospital","H.No. 095, Ram Road",62635
CRM_A,CRM_A_O_ORG_0388_589,Sharma-Guha Lab,Lab,90 borra,Sikar,GA,17074,US,2025-11-09T02:13:46,Sharma-Guha Lab,"90, Borra",17074
CRM_B,CRM_B_O_ORG_0388_592,Sharma-Guha Lab,Lab,90 borra,Sikar,GA,17074,US,2025-12-28T20:54:33,Sharma-Guha Lab,"90, Borra",17074
CRM_A,CRM_A_O_ORG_0389_399,Saini-Bir Clinic,Clinic,h.no. 995 chanda zila,Thrissur,TN,161746,IN,2026-01-18T17:12:41,Saini-Bir Clinic,"H.No. 995
Chanda Zila",161746
CRM_B,CRM_B_O_ORG_0389_655,Saini-Bir Clinic,Clinic,h.no. 995 chanda zila,Thrissur,TN,161746,IN,2026-02-02T19:26:02,Saini-Bir Clinic,"H.No. 995
Chanda Zila",161746
CRM_A,CRM_A_O_ORG_0390_115,"Panchal, Raval And Gaba Diagnostic Center",Diagnostic Center,62 bhandari zila,Ajmer,,192223,IN,2026-01-12T02:38:54,"Panchal, Raval and Gaba Diagnostic Center","62
Bhandari Zila",192223
CRM_B,CRM_B_O_ORG_0390_113,"Panchal, Raval And Gaba Diagnostic Ctr",Diagnostic Center,62 bhandari zila,Ajmer,,192223,IN,2025-11-09T22:31:11,"Panchal, Raval and Gaba Diagnostic Ctr","62
Bhandari Zila",192223
CRM_A,CRM_A_O_ORG_0391_130,"Bal, Pal And Setty Diagnostic Center",Diagnostic Center,h.no. 00 kunda nagar,Panipat,CA,63381,US,2025-11-11T20:14:17,"Bal, Pal and Setty Diagnostic Center","H.No. 00
Kunda Nagar",63381
CRM_B,CRM_B_O_ORG_0391_412,"Bal, Pal And Setty Diagnostic Center",Diagnostic Center,h.no. 00 kunda nagar,Panipat,CA,63381,US,2025-11-25T14:57:34,"Bal, Pal and Setty Diagnostic Center","H.No. 00
Kunda Nagar",63381
CRM_A,CRM_A_O_ORG_0392_533,Padmanabhan Group Lab,Lab,30/572 pradhan chowk,Bhatpara,TX,63317,US,2026-02-04T16:13:25,Padmanabhan Group Lab,"30/572
Pradhan Chowk",63317
CRM_B,CRM_B_O_ORG_0392_280,Padmanabhan Group Lab,Lab,30/572 pradhan chowk,Bhatpara,TX,63317,US,2025-11-28T07:08:46,Padmanabhan Group Lab,30/572 Pradhan Chowk,63317
CRM_A,CRM_A_O_ORG_0393_366,Bains And Sons Lab,Lab,58 gola,Phusro,NJ,49790,US,2025-10-30T02:17:49,Bains and Sons Lab,"58, Gola",49790
CRM_B,CRM_B_O_ORG_0393_615,Bains And Sons Lab,Lab,58 gola,Phusro,NJ,49790,US,2025-10-20T01:01:46,Bains and Sons Lab,"58, Gola",49790
CRM_A,CRM_A_O_ORG_0394_275,"Bains, Nagi And Hari Clinic",Clinic,h.no. 137 balakrishnan marg,Udaipur,TX,22881,US,2025-11-02T17:47:19,"Bains, Nagi and Hari Clinic","H.No. 137
Balakrishnan Marg",22881
CRM_B,CRM_B_O_ORG_0394_743,"Bains, Nagi And Hari Clinic",Clinic,h.no. 137 balakrishnan marg,Udaipur,TX,22881,US,2025-11-21T13:36:27,"Bains, Nagi and Hari Clinic","H.No. 137
Balakrishnan Marg",22881
CRM_A,CRM_A_O_ORG_0395_878,Kalita And Sons Diagnostic Center,Diagnostic Center,93/23 subramaniam chowk,Bidar,WA,30014,US,2025-10-21T16:24:07,Kalita and Sons Diagnostic Center,"93/23
Subramaniam Chowk",30014
CRM_A,CRM_A_O_ORG_0396_602,Soni-Madan Diagnostic Center,Diagnostic Center,85 grewal ganj,Bhiwandi,MA,23497,US,2025-12-16T13:22:48,Soni-Madan Diagnostic Center,"85
Grewal Ganj",23497
CRM_B,CRM_B_O_ORG_0396_977,Soni-Madan Diagnostic Center,Diagnostic Center,85 grewal ganj,Bhiwandi,MA,23497,US,2026-02-03T12:41:43,Soni-Madan Diagnostic Center,"85
Grewal Ganj",23497
CRM_B,CRM_B_O_ORG_0396_345,Soni-Madan Diagnostic Ctr,Diagnostic Center,85 grewal ganj,Bhiwandi,MA,23497,US,2025-10-09T16:47:17,Soni-Madan Diagnostic Ctr,"85
Grewal Ganj",23497
CRM_A,CRM_A_O_ORG_0397_170,Tiwari-Mandal Pharmacy,Pharmacy,89 banik circle,Gandhidham,CA,59877,US,2026-01-15T20:39:34,Tiwari-Mandal Pharmacy,"89, Banik Circle",59877
CRM_B,CRM_B_O_ORG_0397_626,Tiwari-Mandal Pharmacy,Pharmacy,89 banik circle,Gandhidham,CA,59877,US,2025-10-13T00:46:57,Tiwari-Mandal Pharmacy,"89, Banik Circle",59877
CRM_A,CRM_A_O_ORG_0398_277,Soni-Mangal Diagnostic Center,Diagnostic Center,h.no. 85 prabhu chowk,Dewas,AZ,30976,US,2025-11-11T18:02:19,Soni-Mangal Diagnostic Center,"H.No. 85
Prabhu Chowk",30976
CRM_B,CRM_B_O_ORG_0398_200,Soni-Mangal Diagnostic Ctr,Diagnostic Center,h.no. 85 prabhu chowk,Dewas,AZ,30976,US,2026-01-11T09:00:23,Soni-Mangal Diagnostic Ctr,"H.No. 85
Prabhu Chowk",30976
CRM_A,CRM_A_O_ORG_0399_497,Chahal-Gola Hospital,Hospital,793 raju road,Tadepalligudem,CO,28532,US,2025-12-30T06:05:36,Chahal-Gola Hospital,"793
Raju Road",28532
CRM_B,CRM_B_O_ORG_0399_970,Chahal-Gola Hospital,Hospital,793 raju road,Tadepalligudem,CO,28532,US,2026-01-26T04:35:35,Chahal-Gola Hospital,"793
Raju Road",28532
CRM_A,CRM_A_O_ORG_0400_823,"Patil, Chand And Rastogi Clinic",Clinic,287 narain ganj,Chandigarh,PA,92944,US,2025-11-23T00:52:02,"Patil, Chand and Rastogi Clinic","287
Narain Ganj",92944
CRM_B,CRM_B_O_ORG_0400_600,"Patil, Chand And Rastogi Clinic",Clinic,287 narain ganj,Chandigarh,PA,92944,US,2026-01-10T13:35:30,"Patil, Chand and Rastogi Clinic","287
Narain Ganj",92944
CRM_B,CRM_B_O_ORG_0400_208,"Patil, Chand And Rastogi Clinic",Clinic,287 narain ganj,Chandigarh,PA,92944,US,2025-11-29T21:49:47,"Patil, Chand and Rastogi Clinic","287
Narain Ganj",92944
CRM_A,CRM_A_O_ORG_0401_658,"Sibal, Srivastava And Wali Pharmacy",Pharmacy,414 sridhar road,Gandhidham,TN,278781,IN,2025-10-19T06:46:10,"Sibal, Srivastava and Wali Pharmacy","414
Sridhar Road",278781
CRM_B,CRM_B_O_ORG_0401_152,"Sibal, Srivastava And Wali Pharmacy",Pharmacy,414 sridhar road,Gandhidham,TN,278781,IN,2025-10-09T22:58:51,"Sibal, Srivastava and Wali Pharmacy","414
Sridhar Road",278781
CRM_B,CRM_B_O_ORG_0401_405,"Sibal, Srivastava And Wali Pharmacy",Pharmacy,414 sridhar road,Gandhidham,TN,278781,IN,2025-10-28T20:55:23,"Sibal, Srivastava and Wali Pharmacy","414
Sridhar Road",278781
CRM_A,CRM_A_O_ORG_0402_960,Saxena-Reddy Diagnostic Center,Diagnostic Center,71/03 viswanathan zila,Mangalore,NC,29137,US,2025-11-02T22:43:45,Saxena-Reddy Diagnostic Center,"71/03, Viswanathan Zila",29137
CRM_B,CRM_B_O_ORG_0402_295,Saxena-Reddy Diagnostic Center,Diagnostic Center,71/03 viswanathan zila,Mangalore,NC,29137,US,2025-10-26T20:49:55,Saxena-Reddy Diagnostic Center,"71/03, Viswanathan Zila",29137
CRM_A,CRM_A_O_ORG_0403_952,Sur-Sahota Pharmacy,Pharmacy,88 raja circle,Ichalkaranji,FL,21318,US,2025-12-18T20:18:18,Sur-Sahota Pharmacy,"88, Raja Circle",21318
CRM_B,CRM_B_O_ORG_0403_725,Sur-Sahota Pharmacy,Pharmacy,88 raja circle,Ichalkaranji,FL,21318,US,2026-01-16T18:22:14,Sur-Sahota Pharmacy,"88, Raja Circle",21318
CRM_A,CRM_A_O_ORG_0404_659,"Ghosh, Andra And Narayanan Clinic",Clinic,57/846 dhawan street,Machilipatnam,AL,93118,US,2026-01-22T21:49:24,"Ghosh, Andra and Narayanan Clinic","57/846, Dhawan Street",93118
CRM_B,CRM_B_O_ORG_0404_921,"Ghosh, Andra And Narayanan Clinic",Clinic,57/846 dhawan street,Machilipatnam,AL,93118,US,2025-12-25T01:45:45,"Ghosh, Andra and Narayanan Clinic","57/846, Dhawan Street",93118
CRM_A,CRM_A_O_ORG_0404_278,"Ghosh, Andra And Narayanan Clinic",Clinic,57/846 dhawan street,Machilipatnam,AL,93118,US,2025-11-20T20:50:19,"Ghosh, Andra and Narayanan Clinic","57/846, Dhawan Street",93118
CRM_A,CRM_A_O_ORG_0405_252,Lala Group Clinic,Clinic,h.no. 865 pal zila,Guwahati,MI,69751,US,2025-12-01T02:30:35,Lala Group Clinic,"H.No. 865
Pal Zila",69751
CRM_B,CRM_B_O_ORG_0405_332,Lala Group Clinic,Clinic,h.no. 865 pal zila,Guwahati,MI,69751,US,2025-12-12T21:50:38,Lala Group Clinic,"H.No. 865
Pal Zila",69751
CRM_A,CRM_A_O_ORG_0406_540,Bhatt Llc Hospital,Hospital,38/298 batta chowk,Danapur,FL,94592,US,2025-12-14T15:22:15,Bhatt LLC Hospital,"38/298, Batta Chowk",94592-8590
CRM_B,CRM_B_O_ORG_0406_767,Bhatt Llc Hospital,Hospital,38/298 batta chowk,Danapur,FL,94592,US,2026-01-20T11:52:23,Bhatt LLC Hospital,"38/298, Batta Chowk",94592-8590
CRM_B,CRM_B_O_ORG_0406_113,Bhatt Llc Hospital,Hospital,38/298 batta chowk,Danapur,FL,94592,US,2025-10-14T01:15:20,Bhatt LLC Hospital,38/298 Batta Chowk,94592-8590
CRM_A,CRM_A_O_ORG_0407_170,Murty-Chokshi Diagnostic Center,Diagnostic Center,60 talwar zila,Etawah,TN,617310,IN,2025-11-25T05:47:44,Murty-Chokshi Diagnostic Center,"60
Talwar Zila",617310
CRM_A,CRM_A_O_ORG_0408_541,"Khalsa, Sachdeva And Sheth Diagnostic Center",Diagnostic Center,h.no. 552 ram street,Solapur,IL,26003,US,2026-02-06T14:40:17,"Khalsa, Sachdeva and Sheth Diagnostic Center","H.No. 552, Ram Street",26003
CRM_B,CRM_B_O_ORG_0408_407,"Khalsa, Sachdeva And Sheth Diagnostic Center",Diagnostic Center,h.no. 552 ram street,Solapur,IL,26003,US,2026-01-11T06:21:41,"Khalsa, Sachdeva and Sheth Diagnostic Center",H.No. 552 Ram Street,26003
CRM_B,CRM_B_O_ORG_0408_558,"Khalsa, Sachdeva And Sheth Diagnostic Center",Diagnostic Center,h.no. 552 ram street,Solapur,IL,26003,US,2026-01-30T00:35:41,"Khalsa, Sachdeva and Sheth Diagnostic Center",H.No. 552 Ram Street,26003
CRM_A,CRM_A_O_ORG_0409_677,"Deol, Lall And Raju Lab",Lab,h.no. 29 sunder path,Thiruvananthapuram,MI,15858,US,2026-01-04T07:18:32,"Deol, Lall and Raju Lab","H.No. 29
Sunder Path",15858
CRM_B,CRM_B_O_ORG_0409_684,"Deol, Lall And Raju Lab",Lab,h.no. 29 sunder path,Thiruvananthapuram,MI,15858,US,2025-11-01T12:20:07,"Deol, Lall and Raju Lab","H.No. 29
Sunder Path",15858
CRM_A,CRM_A_O_ORG_0410_902,Contractor-Raghavan Hospital,Hospital,022 dash chowk,Kakinada,PA,29322,US,2026-01-22T23:27:53,Contractor-Raghavan Hospital,"022, Dash Chowk",29322
CRM_B,CRM_B_O_ORG_0410_594,Contractor-Raghavan Hospital,Hospital,022 dash chowk,Kakinada,PA,29322,US,2026-01-19T10:47:41,Contractor-Raghavan Hospital,"022, Dash Chowk",29322
CRM_A,CRM_A_O_ORG_0411_358,"Buch, Tella And Bedi Pharmacy",Pharmacy,149 behl circle,Deoghar,DL,146051,IN,2025-12-27T19:36:17,"Buch, Tella and Bedi Pharmacy","149, Behl Circle",146051
CRM_B,CRM_B_O_ORG_0411_649,"Buch, Tella And Bedi Pharmacy",Pharmacy,149 behl circle,Deoghar,DL,146051,IN,2025-12-30T17:28:39,"Buch, Tella and Bedi Pharmacy","149, Behl Circle",146051
CRM_A,CRM_A_O_ORG_0411_811,"Buch, Tella And Bedi Pharmacy",Pharmacy,149 behl circle,Deoghar,DL,146051,IN,2026-01-01T00:56:54,"Buch, Tella and Bedi Pharmacy","149, Behl Circle",146051
CRM_A,CRM_A_O_ORG_0412_227,Savant-Murty Clinic,Clinic,h.no. 77 mannan ganj,Jalgaon,AL,64854,US,2026-01-21T20:04:58,Savant-Murty Clinic,"H.No. 77
Mannan Ganj",64854
CRM_B,CRM_B_O_ORG_0412_452,Savant-Murty Clinic,Clinic,h.no. 77 mannan ganj,Jalgaon,AL,64854,US,2025-12-13T21:12:13,Savant-Murty Clinic,"H.No. 77
Mannan Ganj",64854
CRM_A,CRM_A_O_ORG_0413_625,"Gole, Karnik And Bir Pharmacy",Pharmacy,183 ramakrishnan marg,Hazaribagh,WB,376289,IN,2025-12-31T22:37:12,"Gole, Karnik and Bir Pharmacy","183, Ramakrishnan Marg",376289
CRM_A,CRM_A_O_ORG_0414_105,Parmar Plc Diagnostic Center,Diagnostic Center,46/98 jhaveri chowk,Gangtok,NC,15460,US,2025-11-14T10:37:10,Parmar PLC Diagnostic Center,"46/98, Jhaveri Chowk",15460
CRM_B,CRM_B_O_ORG_0414_754,Parmar Plc Diagnostic Center,Diagnostic Center,46/98 jhaveri chowk,Gangtok,NC,15460,US,2026-01-11T12:35:37,Parmar PLC Diagnostic Center,46/98 Jhaveri Chowk,15460
CRM_A,CRM_A_O_ORG_0415_293,Mutti-Uppal Hospital,Hospital,h.no. 62 chhabra chowk,Kirari Suleman Nagar,AL,86601,US,2025-12-23T16:18:28,Mutti-Uppal Hospital,"H.No. 62
Chhabra Chowk",86601
CRM_B,CRM_B_O_ORG_0415_186,Mutti-Uppal Hospital,Hospital,h.no. 62 chhabra chowk,Kirari Suleman Nagar,AL,86601,US,2025-12-02T20:26:25,Mutti-Uppal Hospital,"H.No. 62
Chhabra Chowk",86601
CRM_A,CRM_A_O_ORG_0416_873,Dhawan Llc Lab,Lab,98 pall road,Madanapalle,NJ,22290,US,2025-12-20T06:35:36,Dhawan LLC Lab,"98
Pall Road",22290
CRM_B,CRM_B_O_ORG_0416_713,Dhawan Llc Lab,Lab,98 pall road,Madanapalle,NJ,22290,US,2025-11-30T00:09:29,Dhawan LLC Lab,"98
Pall Road",22290
CRM_A,CRM_A_O_ORG_0417_989,Raghavan Group Lab,Lab,47/83 saha nagar,Khandwa,TN,552371,IN,2025-12-23T14:57:26,Raghavan Group Lab,"47/83, Saha Nagar",552371
CRM_B,CRM_B_O_ORG_0417_732,Raghavan Group Lab,Lab,47/83 saha nagar,Khandwa,TN,552371,IN,2025-12-17T15:12:22,Raghavan Group Lab,"47/83, Saha Nagar",552371
CRM_A,CRM_A_O_ORG_0418_236,Ravi-Narula Pharmacy,Pharmacy,444 kibe marg,Ajmer,TS,656629,IN,2025-10-12T10:02:38,Ravi-Narula Pharmacy,"444
Kibe Marg",656629
CRM_B,CRM_B_O_ORG_0418_727,Ravi-Narula Pharmacy,Pharmacy,444 kibe marg,Ajmer,TS,656629,IN,2025-11-15T17:10:59,Ravi-Narula Pharmacy,"444
Kibe Marg",656629
CRM_B,CRM_B_O_ORG_0418_151,Ravi-Narula Pharmacy,Pharmacy,444 kibe marg,Ajmer,TS,656629,IN,2026-01-14T12:01:29,Ravi-Narula Pharmacy,"444
Kibe Marg",656629
CRM_A,CRM_A_O_ORG_0419_385,"Wagle, Mammen And Dey Pharmacy",Pharmacy,27/49 basu ganj,Vijayawada,PA,90392,US,2025-11-28T13:20:29,"Wagle, Mammen and Dey Pharmacy","27/49, Basu Ganj",90392
CRM_B,CRM_B_O_ORG_0419_809,"Wagle, Mammen And Dey Pharmacy",Pharmacy,27/49 basu ganj,Vijayawada,PA,90392,US,2026-01-15T20:30:29,"Wagle, Mammen and Dey Pharmacy","27/49, Basu Ganj",90392
